<?xml version='1.0' encoding='utf-8'?>
<kml xmlns="http://www.opengis.net/kml/2.2"><Document><name>020-interbairros_ii-circular</name><Style id="trajeto"><LineStyle><color>ff0000ff</color><width>5</width></LineStyle></Style><Placemark><name>Trajeto</name><styleUrl>#trajeto</styleUrl><LineString><tessellate>1</tessellate><coordinates>-49.293103,-25.492281,0
-49.293193,-25.491526,0
-49.293684,-25.491572,0
-49.293842,-25.491620,0
-49.295450,-25.491644,0
-49.296830,-25.491662,0
-49.298268,-25.491672,0
-49.299644,-25.491680,0
-49.299644,-25.490771,0
-49.299659,-25.489769,0
-49.299647,-25.489008,0
-49.299640,-25.487287,0
-49.299637,-25.485712,0
-49.299651,-25.485599,0
-49.299653,-25.485035,0
-49.299679,-25.484383,0
-49.299669,-25.484348,0
-49.299646,-25.484313,0
-49.299564,-25.484287,0
-49.299406,-25.484274,0
-49.298787,-25.484257,0
-49.298325,-25.484256,0
-49.298320,-25.484065,0
-49.298312,-25.483800,0
-49.298320,-25.483512,0
-49.298324,-25.482814,0
-49.298366,-25.482601,0
-49.298367,-25.482420,0
-49.298383,-25.481601,0
-49.298394,-25.481189,0
-49.298396,-25.480980,0
-49.298402,-25.480767,0
-49.298416,-25.479380,0
-49.296883,-25.479365,0
-49.296925,-25.477939,0
-49.296945,-25.476844,0
-49.296990,-25.475185,0
-49.296994,-25.475063,0
-49.297029,-25.474578,0
-49.297014,-25.474325,0
-49.297042,-25.473509,0
-49.297079,-25.472448,0
-49.297066,-25.472329,0
-49.298871,-25.471704,0
-49.299132,-25.471617,0
-49.299668,-25.471421,0
-49.299651,-25.471384,0
-49.299665,-25.471330,0
-49.299712,-25.471298,0
-49.299676,-25.471253,0
-49.299665,-25.471198,0
-49.299683,-25.471095,0
-49.299759,-25.470910,0
-49.299976,-25.470463,0
-49.300072,-25.470311,0
-49.300338,-25.469715,0
-49.300444,-25.469441,0
-49.300868,-25.468451,0
-49.300658,-25.468379,0
-49.300469,-25.468270,0
-49.299395,-25.467306,0
-49.299378,-25.467268,0
-49.299300,-25.467004,0
-49.299807,-25.466747,0
-49.299940,-25.466656,0
-49.300010,-25.466575,0
-49.300092,-25.466443,0
-49.300161,-25.466300,0
-49.300443,-25.465563,0
-49.300558,-25.465220,0
-49.300590,-25.465039,0
-49.300610,-25.464780,0
-49.300596,-25.464461,0
-49.300594,-25.464177,0
-49.300587,-25.464026,0
-49.300593,-25.463620,0
-49.300656,-25.463335,0
-49.300736,-25.463051,0
-49.300801,-25.462942,0
-49.300878,-25.462838,0
-49.301030,-25.462626,0
-49.301175,-25.462409,0
-49.301227,-25.462295,0
-49.301467,-25.461850,0
-49.301531,-25.461618,0
-49.301564,-25.461400,0
-49.301573,-25.461267,0
-49.301568,-25.461163,0
-49.301554,-25.461081,0
-49.301494,-25.460870,0
-49.301685,-25.460316,0
-49.301796,-25.460012,0
-49.302037,-25.459422,0
-49.302266,-25.458771,0
-49.302421,-25.458282,0
-49.302663,-25.457556,0
-49.302917,-25.456841,0
-49.303207,-25.456107,0
-49.303602,-25.454960,0
-49.303899,-25.454052,0
-49.304166,-25.453239,0
-49.304251,-25.452940,0
-49.304291,-25.452685,0
-49.304290,-25.452428,0
-49.304378,-25.452294,0
-49.304348,-25.452216,0
-49.304353,-25.452139,0
-49.304395,-25.452066,0
-49.304442,-25.452023,0
-49.304487,-25.452000,0
-49.304583,-25.451758,0
-49.304628,-25.451629,0
-49.304640,-25.451532,0
-49.304601,-25.450996,0
-49.304565,-25.450653,0
-49.304551,-25.450426,0
-49.304530,-25.450151,0
-49.304536,-25.449829,0
-49.304568,-25.449542,0
-49.304595,-25.449385,0
-49.304626,-25.449218,0
-49.304641,-25.449028,0
-49.304664,-25.448798,0
-49.304677,-25.448388,0
-49.304682,-25.447963,0
-49.304691,-25.447781,0
-49.304689,-25.447503,0
-49.304682,-25.447184,0
-49.304692,-25.446782,0
-49.304712,-25.445872,0
-49.304697,-25.445583,0
-49.304700,-25.445360,0
-49.304715,-25.445133,0
-49.304749,-25.444546,0
-49.304775,-25.444404,0
-49.304822,-25.444049,0
-49.304843,-25.443893,0
-49.304883,-25.443710,0
-49.305073,-25.443154,0
-49.305291,-25.442651,0
-49.305601,-25.442068,0
-49.306120,-25.441132,0
-49.306431,-25.440605,0
-49.306802,-25.439913,0
-49.306990,-25.439538,0
-49.307169,-25.439158,0
-49.307411,-25.438680,0
-49.307605,-25.438173,0
-49.307799,-25.437680,0
-49.307921,-25.437445,0
-49.308354,-25.436499,0
-49.308262,-25.436453,0
-49.308183,-25.436394,0
-49.307977,-25.436189,0
-49.307368,-25.435966,0
-49.306768,-25.435742,0
-49.306659,-25.435713,0
-49.306497,-25.435720,0
-49.306357,-25.435740,0
-49.306292,-25.435734,0
-49.306069,-25.435958,0
-49.305845,-25.436172,0
-49.305695,-25.436279,0
-49.305372,-25.436432,0
-49.302790,-25.435479,0
-49.302130,-25.435226,0
-49.301664,-25.435038,0
-49.300567,-25.434623,0
-49.298433,-25.433801,0
-49.298751,-25.433127,0
-49.298832,-25.432943,0
-49.298913,-25.432775,0
-49.299081,-25.432454,0
-49.299295,-25.432028,0
-49.299510,-25.431598,0
-49.299839,-25.430951,0
-49.300028,-25.430578,0
-49.300276,-25.430086,0
-49.300543,-25.429579,0
-49.300914,-25.428885,0
-49.300879,-25.428828,0
-49.300855,-25.428748,0
-49.300780,-25.428551,0
-49.300608,-25.428061,0
-49.300427,-25.427571,0
-49.300330,-25.427296,0
-49.300307,-25.427183,0
-49.300301,-25.427076,0
-49.300315,-25.426968,0
-49.300388,-25.426773,0
-49.300465,-25.426573,0
-49.300543,-25.426396,0
-49.299647,-25.426075,0
-49.299202,-25.425960,0
-49.298892,-25.425900,0
-49.298516,-25.425836,0
-49.297986,-25.425764,0
-49.297880,-25.425731,0
-49.297749,-25.425670,0
-49.297635,-25.425611,0
-49.297254,-25.425331,0
-49.297023,-25.425179,0
-49.296921,-25.425126,0
-49.296377,-25.424969,0
-49.296259,-25.424924,0
-49.296109,-25.424850,0
-49.296026,-25.424792,0
-49.295824,-25.424629,0
-49.294525,-25.423633,0
-49.294338,-25.423493,0
-49.294186,-25.423385,0
-49.294138,-25.423408,0
-49.294054,-25.423581,0
-49.293914,-25.423889,0
-49.293691,-25.424370,0
-49.293426,-25.424898,0
-49.293161,-25.425532,0
-49.293093,-25.425694,0
-49.292805,-25.425413,0
-49.292520,-25.425263,0
-49.292012,-25.425087,0
-49.291901,-25.424941,0
-49.291703,-25.424832,0
-49.291478,-25.424683,0
-49.290869,-25.424231,0
-49.290653,-25.423531,0
-49.290506,-25.423067,0
-49.290426,-25.422706,0
-49.291227,-25.422497,0
-49.291548,-25.422238,0
-49.291806,-25.422038,0
-49.291756,-25.421983,0
-49.291689,-25.421832,0
-49.291518,-25.421249,0
-49.291381,-25.420623,0
-49.291155,-25.419694,0
-49.290898,-25.418771,0
-49.290748,-25.418220,0
-49.290610,-25.417677,0
-49.290558,-25.417483,0
-49.290491,-25.417318,0
-49.290383,-25.416900,0
-49.290238,-25.416332,0
-49.289990,-25.415360,0
-49.289789,-25.414567,0
-49.289738,-25.414305,0
-49.289693,-25.414302,0
-49.289656,-25.414278,0
-49.289645,-25.414242,0
-49.289647,-25.414210,0
-49.289660,-25.414188,0
-49.289687,-25.414175,0
-49.289718,-25.414171,0
-49.289749,-25.414178,0
-49.289779,-25.414208,0
-49.289927,-25.414143,0
-49.290092,-25.414050,0
-49.290190,-25.413979,0
-49.290294,-25.413894,0
-49.290418,-25.413775,0
-49.290656,-25.413474,0
-49.291320,-25.412632,0
-49.291452,-25.412466,0
-49.291501,-25.412383,0
-49.291686,-25.412012,0
-49.291749,-25.411836,0
-49.292021,-25.411053,0
-49.292069,-25.410916,0
-49.292070,-25.410857,0
-49.292060,-25.410816,0
-49.292039,-25.410756,0
-49.291968,-25.410622,0
-49.291942,-25.410439,0
-49.291912,-25.410280,0
-49.291891,-25.410080,0
-49.291864,-25.409922,0
-49.291829,-25.409759,0
-49.291761,-25.409546,0
-49.291691,-25.409390,0
-49.291604,-25.409251,0
-49.291439,-25.409054,0
-49.291596,-25.408938,0
-49.291799,-25.408774,0
-49.291960,-25.408614,0
-49.292072,-25.408481,0
-49.292255,-25.408231,0
-49.292378,-25.408051,0
-49.292450,-25.407926,0
-49.292455,-25.407827,0
-49.292454,-25.407583,0
-49.292415,-25.407505,0
-49.292233,-25.407185,0
-49.292034,-25.406863,0
-49.291870,-25.406589,0
-49.291494,-25.406074,0
-49.291128,-25.405584,0
-49.290713,-25.405027,0
-49.290399,-25.404645,0
-49.290015,-25.404188,0
-49.289657,-25.403804,0
-49.289500,-25.403662,0
-49.289408,-25.403592,0
-49.289103,-25.403362,0
-49.288372,-25.402772,0
-49.288080,-25.402479,0
-49.287649,-25.402044,0
-49.287105,-25.401563,0
-49.287458,-25.401248,0
-49.287576,-25.401091,0
-49.287708,-25.400864,0
-49.288045,-25.400082,0
-49.288070,-25.400005,0
-49.288087,-25.399879,0
-49.288098,-25.399553,0
-49.288165,-25.398594,0
-49.288240,-25.397928,0
-49.288221,-25.397741,0
-49.288200,-25.397637,0
-49.288063,-25.397327,0
-49.287909,-25.397014,0
-49.287832,-25.396853,0
-49.287735,-25.396603,0
-49.287618,-25.396278,0
-49.287505,-25.396268,0
-49.287367,-25.396240,0
-49.287062,-25.396136,0
-49.286735,-25.396039,0
-49.286568,-25.395996,0
-49.286384,-25.395962,0
-49.286196,-25.395920,0
-49.286014,-25.395874,0
-49.285915,-25.395849,0
-49.285838,-25.395812,0
-49.285783,-25.395775,0
-49.285746,-25.395735,0
-49.285704,-25.395664,0
-49.285655,-25.395580,0
-49.285328,-25.395011,0
-49.285233,-25.394871,0
-49.285050,-25.394631,0
-49.284658,-25.394178,0
-49.284463,-25.393954,0
-49.284382,-25.393864,0
-49.284242,-25.393730,0
-49.284036,-25.393536,0
-49.283677,-25.393249,0
-49.283407,-25.393046,0
-49.283273,-25.392937,0
-49.283173,-25.392837,0
-49.283079,-25.392722,0
-49.283043,-25.392663,0
-49.282993,-25.392504,0
-49.282973,-25.392376,0
-49.282966,-25.392232,0
-49.282968,-25.392087,0
-49.282979,-25.391919,0
-49.283192,-25.391000,0
-49.283237,-25.390864,0
-49.283278,-25.390782,0
-49.283362,-25.390672,0
-49.283509,-25.390511,0
-49.283691,-25.390314,0
-49.283742,-25.390250,0
-49.283786,-25.390172,0
-49.283824,-25.390033,0
-49.283844,-25.389916,0
-49.283845,-25.389818,0
-49.283835,-25.389730,0
-49.283818,-25.389659,0
-49.283793,-25.389590,0
-49.283750,-25.389495,0
-49.283688,-25.389410,0
-49.283564,-25.389280,0
-49.283404,-25.389091,0
-49.283285,-25.388942,0
-49.283233,-25.388851,0
-49.283184,-25.388739,0
-49.283132,-25.388587,0
-49.283083,-25.388386,0
-49.282929,-25.387681,0
-49.282856,-25.387419,0
-49.282522,-25.386458,0
-49.282383,-25.385969,0
-49.282282,-25.385733,0
-49.282229,-25.385731,0
-49.282180,-25.385716,0
-49.282127,-25.385662,0
-49.282109,-25.385593,0
-49.281883,-25.385580,0
-49.281406,-25.385514,0
-49.280771,-25.385425,0
-49.280641,-25.385394,0
-49.280495,-25.385380,0
-49.280396,-25.385379,0
-49.280067,-25.385393,0
-49.279892,-25.385411,0
-49.279688,-25.385422,0
-49.279654,-25.385409,0
-49.279616,-25.385412,0
-49.279578,-25.385430,0
-49.279559,-25.385461,0
-49.279556,-25.385493,0
-49.279386,-25.385608,0
-49.279222,-25.385715,0
-49.278998,-25.385864,0
-49.278731,-25.386004,0
-49.278050,-25.386227,0
-49.277556,-25.386323,0
-49.276959,-25.386391,0
-49.276658,-25.386468,0
-49.276507,-25.386545,0
-49.276209,-25.386725,0
-49.275814,-25.387035,0
-49.275329,-25.387442,0
-49.274969,-25.387661,0
-49.274573,-25.387779,0
-49.273977,-25.387988,0
-49.273459,-25.388145,0
-49.272735,-25.388397,0
-49.272418,-25.388552,0
-49.272181,-25.388767,0
-49.272121,-25.388992,0
-49.272132,-25.389242,0
-49.272235,-25.389816,0
-49.272376,-25.390708,0
-49.272710,-25.392642,0
-49.272807,-25.393701,0
-49.272832,-25.394486,0
-49.272563,-25.394511,0
-49.272128,-25.394591,0
-49.271314,-25.394754,0
-49.271216,-25.394526,0
-49.271092,-25.394364,0
-49.270945,-25.394251,0
-49.270778,-25.394156,0
-49.270249,-25.394033,0
-49.270043,-25.393919,0
-49.269885,-25.393727,0
-49.269580,-25.393051,0
-49.269327,-25.392507,0
-49.269075,-25.392215,0
-49.268817,-25.392041,0
-49.268568,-25.391934,0
-49.267831,-25.391788,0
-49.267593,-25.391640,0
-49.267458,-25.391435,0
-49.267415,-25.391163,0
-49.267447,-25.390272,0
-49.267500,-25.389278,0
-49.267537,-25.388669,0
-49.267513,-25.388284,0
-49.267036,-25.388187,0
-49.266716,-25.388190,0
-49.265812,-25.388367,0
-49.265275,-25.388558,0
-49.264404,-25.388892,0
-49.263980,-25.389055,0
-49.263533,-25.389223,0
-49.263083,-25.389388,0
-49.262703,-25.389528,0
-49.261884,-25.389824,0
-49.261257,-25.390047,0
-49.261005,-25.390154,0
-49.260763,-25.390246,0
-49.260556,-25.390262,0
-49.259936,-25.390260,0
-49.259106,-25.390277,0
-49.258817,-25.390291,0
-49.258555,-25.390310,0
-49.258443,-25.390306,0
-49.258243,-25.390305,0
-49.258104,-25.390305,0
-49.257965,-25.390319,0
-49.257823,-25.390346,0
-49.257681,-25.390408,0
-49.257469,-25.390527,0
-49.257157,-25.390785,0
-49.256938,-25.390956,0
-49.256717,-25.391132,0
-49.256516,-25.391288,0
-49.256031,-25.391657,0
-49.255631,-25.391953,0
-49.255282,-25.392255,0
-49.254916,-25.392564,0
-49.254690,-25.392717,0
-49.254475,-25.392843,0
-49.254047,-25.393098,0
-49.253785,-25.393265,0
-49.253550,-25.393443,0
-49.253121,-25.393770,0
-49.252647,-25.394133,0
-49.251820,-25.394760,0
-49.251704,-25.394861,0
-49.251338,-25.395204,0
-49.250880,-25.395536,0
-49.250490,-25.395822,0
-49.250988,-25.396365,0
-49.251486,-25.396917,0
-49.251093,-25.397215,0
-49.250714,-25.397501,0
-49.251103,-25.397926,0
-49.251484,-25.398330,0
-49.251857,-25.398697,0
-49.252177,-25.399010,0
-49.252396,-25.399128,0
-49.252674,-25.399229,0
-49.252958,-25.399296,0
-49.253507,-25.399401,0
-49.253407,-25.399867,0
-49.253315,-25.400297,0
-49.253150,-25.401228,0
-49.253118,-25.401455,0
-49.253070,-25.401700,0
-49.253036,-25.401804,0
-49.252983,-25.401896,0
-49.252816,-25.402065,0
-49.252591,-25.402255,0
-49.251954,-25.402778,0
-49.251123,-25.403399,0
-49.250726,-25.403722,0
-49.250320,-25.404055,0
-49.250812,-25.404586,0
-49.251268,-25.405081,0
-49.251712,-25.405565,0
-49.252145,-25.406032,0
-49.252083,-25.406097,0
-49.252233,-25.406261,0
-49.252445,-25.406486,0
-49.252726,-25.406788,0
-49.252914,-25.407021,0
-49.252989,-25.407174,0
-49.253041,-25.407294,0
-49.253043,-25.407337,0
-49.252934,-25.407423,0
-49.252813,-25.407311,0
-49.252633,-25.407121,0
-49.252370,-25.406843,0
-49.251918,-25.406368,0
-49.251884,-25.406337,0
-49.251685,-25.406576,0
-49.251458,-25.406845,0
-49.251137,-25.407215,0
-49.250772,-25.407638,0
-49.250408,-25.408056,0
-49.250255,-25.408234,0
-49.249573,-25.409025,0
-49.248785,-25.409938,0
-49.248775,-25.409981,0
-49.248725,-25.410054,0
-49.248684,-25.410116,0
-49.248428,-25.410425,0
-49.248071,-25.410821,0
-49.247776,-25.411146,0
-49.247685,-25.411217,0
-49.247574,-25.411323,0
-49.246594,-25.412426,0
-49.246363,-25.412742,0
-49.246318,-25.412799,0
-49.246279,-25.412864,0
-49.246230,-25.412983,0
-49.246233,-25.413043,0
-49.246246,-25.413127,0
-49.246283,-25.413251,0
-49.246310,-25.413323,0
-49.246377,-25.413439,0
-49.246433,-25.413512,0
-49.246675,-25.413732,0
-49.247667,-25.414644,0
-49.247683,-25.414870,0
-49.247746,-25.415384,0
-49.247823,-25.416049,0
-49.247850,-25.416406,0
-49.247877,-25.416735,0
-49.247926,-25.417374,0
-49.246640,-25.417486,0
-49.246001,-25.417533,0
-49.245393,-25.417581,0
-49.243771,-25.417725,0
-49.243584,-25.417748,0
-49.242639,-25.417823,0
-49.241494,-25.417923,0
-49.241139,-25.417943,0
-49.241030,-25.418123,0
-49.240720,-25.418619,0
-49.240522,-25.418940,0
-49.240095,-25.419646,0
-49.240001,-25.419815,0
-49.239952,-25.419905,0
-49.239862,-25.420107,0
-49.239831,-25.420207,0
-49.239812,-25.420287,0
-49.239803,-25.420415,0
-49.239812,-25.420572,0
-49.239827,-25.420642,0
-49.239865,-25.420748,0
-49.239982,-25.420928,0
-49.240572,-25.421689,0
-49.240698,-25.421832,0
-49.241336,-25.422641,0
-49.241489,-25.422838,0
-49.241970,-25.423417,0
-49.242279,-25.423858,0
-49.242400,-25.424071,0
-49.242461,-25.424197,0
-49.242502,-25.424309,0
-49.242542,-25.424446,0
-49.242619,-25.424801,0
-49.242633,-25.424936,0
-49.242628,-25.425149,0
-49.242614,-25.425274,0
-49.242563,-25.425518,0
-49.242436,-25.426027,0
-49.242315,-25.426456,0
-49.242017,-25.427236,0
-49.241957,-25.427378,0
-49.241838,-25.427612,0
-49.241715,-25.427840,0
-49.241462,-25.428296,0
-49.241323,-25.428377,0
-49.241201,-25.428416,0
-49.241118,-25.428384,0
-49.241026,-25.428076,0
-49.240969,-25.427973,0
-49.240859,-25.427851,0
-49.240667,-25.427706,0
-49.240498,-25.427622,0
-49.240119,-25.427477,0
-49.239962,-25.427429,0
-49.239845,-25.427406,0
-49.239750,-25.427396,0
-49.239632,-25.427393,0
-49.239456,-25.427400,0
-49.238672,-25.427482,0
-49.238225,-25.427539,0
-49.237915,-25.427581,0
-49.237253,-25.427645,0
-49.236658,-25.427706,0
-49.236155,-25.427766,0
-49.235621,-25.427823,0
-49.235038,-25.427889,0
-49.234722,-25.427921,0
-49.233986,-25.427978,0
-49.233522,-25.428021,0
-49.233288,-25.428050,0
-49.233086,-25.428084,0
-49.232009,-25.428215,0
-49.231872,-25.428231,0
-49.230941,-25.428348,0
-49.229984,-25.428456,0
-49.229208,-25.428553,0
-49.228867,-25.428553,0
-49.228394,-25.428612,0
-49.227333,-25.428711,0
-49.226609,-25.428799,0
-49.225990,-25.428865,0
-49.225373,-25.428935,0
-49.224923,-25.428975,0
-49.224481,-25.429011,0
-49.223863,-25.429082,0
-49.223544,-25.429117,0
-49.223126,-25.429159,0
-49.222532,-25.429224,0
-49.221954,-25.429283,0
-49.221644,-25.429327,0
-49.221349,-25.429381,0
-49.221110,-25.429401,0
-49.220871,-25.429443,0
-49.220514,-25.429492,0
-49.218897,-25.429644,0
-49.217292,-25.429801,0
-49.216786,-25.429848,0
-49.215387,-25.430012,0
-49.213363,-25.430222,0
-49.213248,-25.430244,0
-49.212695,-25.430297,0
-49.211909,-25.430376,0
-49.211621,-25.430404,0
-49.211590,-25.430524,0
-49.211589,-25.430598,0
-49.211639,-25.430732,0
-49.211851,-25.431120,0
-49.212046,-25.431491,0
-49.212235,-25.431833,0
-49.212269,-25.431904,0
-49.212374,-25.432106,0
-49.212534,-25.432397,0
-49.212795,-25.432879,0
-49.212965,-25.433177,0
-49.213189,-25.433573,0
-49.213286,-25.433744,0
-49.213383,-25.433928,0
-49.213578,-25.434322,0
-49.213629,-25.434426,0
-49.213899,-25.434910,0
-49.217122,-25.433463,0
-49.217640,-25.434454,0
-49.218177,-25.435444,0
-49.218443,-25.435898,0
-49.218647,-25.436300,0
-49.218844,-25.436675,0
-49.218954,-25.436873,0
-49.219209,-25.437359,0
-49.219462,-25.437826,0
-49.219557,-25.438052,0
-49.219707,-25.438341,0
-49.221321,-25.437625,0
-49.221596,-25.438116,0
-49.221873,-25.438616,0
-49.222162,-25.439071,0
-49.222396,-25.439515,0
-49.222416,-25.439575,0
-49.222425,-25.439628,0
-49.222408,-25.439679,0
-49.222375,-25.439709,0
-49.222347,-25.439729,0
-49.222239,-25.439778,0
-49.221561,-25.440086,0
-49.221310,-25.440210,0
-49.221199,-25.440215,0
-49.220982,-25.440247,0
-49.220812,-25.440317,0
-49.220924,-25.440501,0
-49.221056,-25.440742,0
-49.221351,-25.441277,0
-49.221592,-25.441717,0
-49.221755,-25.442027,0
-49.222278,-25.443021,0
-49.222458,-25.443355,0
-49.222878,-25.444135,0
-49.222982,-25.444334,0
-49.223127,-25.444614,0
-49.223401,-25.445134,0
-49.223675,-25.445651,0
-49.223830,-25.445939,0
-49.224109,-25.446459,0
-49.224354,-25.446901,0
-49.224751,-25.446728,0
-49.225151,-25.446565,0
-49.225483,-25.447201,0
-49.225674,-25.447555,0
-49.225745,-25.447648,0
-49.225835,-25.447743,0
-49.226105,-25.447961,0
-49.226342,-25.448166,0
-49.226504,-25.448300,0
-49.226926,-25.448645,0
-49.227084,-25.448770,0
-49.227294,-25.448957,0
-49.227594,-25.449196,0
-49.227799,-25.449370,0
-49.228024,-25.449526,0
-49.228070,-25.449543,0
-49.228148,-25.449658,0
-49.228160,-25.449699,0
-49.228161,-25.449740,0
-49.228144,-25.449810,0
-49.227673,-25.450440,0
-49.227719,-25.450474,0
-49.227808,-25.450514,0
-49.228252,-25.450660,0
-49.228879,-25.450819,0
-49.229075,-25.450858,0
-49.229275,-25.450896,0
-49.229534,-25.450984,0
-49.229810,-25.451254,0
-49.229852,-25.451612,0
-49.230193,-25.452924,0
-49.230338,-25.453427,0
-49.230419,-25.453656,0
-49.230554,-25.453962,0
-49.230581,-25.454047,0
-49.230725,-25.454350,0
-49.230936,-25.454801,0
-49.231110,-25.455187,0
-49.231369,-25.455759,0
-49.231642,-25.456334,0
-49.231772,-25.456604,0
-49.231888,-25.456894,0
-49.232039,-25.457216,0
-49.232321,-25.457846,0
-49.232421,-25.458081,0
-49.232708,-25.458690,0
-49.233008,-25.459405,0
-49.233228,-25.459966,0
-49.233421,-25.460449,0
-49.233499,-25.460700,0
-49.233596,-25.460937,0
-49.233703,-25.461155,0
-49.233873,-25.461545,0
-49.233955,-25.461735,0
-49.234003,-25.461867,0
-49.234137,-25.462200,0
-49.234217,-25.462398,0
-49.234263,-25.462503,0
-49.234309,-25.462632,0
-49.234348,-25.462762,0
-49.234395,-25.462926,0
-49.234444,-25.463163,0
-49.234472,-25.463421,0
-49.234487,-25.463554,0
-49.234504,-25.463761,0
-49.234553,-25.464216,0
-49.234581,-25.464488,0
-49.234606,-25.464807,0
-49.234657,-25.465397,0
-49.234681,-25.465740,0
-49.234704,-25.466213,0
-49.234708,-25.466266,0
-49.234747,-25.466483,0
-49.234787,-25.466619,0
-49.234836,-25.466791,0
-49.234886,-25.466929,0
-49.234946,-25.467148,0
-49.234986,-25.467329,0
-49.235016,-25.467521,0
-49.235033,-25.467648,0
-49.235028,-25.467886,0
-49.235187,-25.468564,0
-49.235251,-25.468850,0
-49.235308,-25.468962,0
-49.235380,-25.469113,0
-49.235438,-25.469197,0
-49.235579,-25.469348,0
-49.235745,-25.469494,0
-49.236387,-25.470028,0
-49.236556,-25.470165,0
-49.236843,-25.470457,0
-49.236933,-25.470581,0
-49.237042,-25.470746,0
-49.237157,-25.470970,0
-49.237477,-25.471656,0
-49.237677,-25.472068,0
-49.237909,-25.472479,0
-49.238157,-25.472891,0
-49.238425,-25.473348,0
-49.238489,-25.473391,0
-49.238572,-25.473523,0
-49.238719,-25.473753,0
-49.238982,-25.474192,0
-49.239238,-25.474615,0
-49.239301,-25.474716,0
-49.239364,-25.474874,0
-49.239392,-25.474947,0
-49.239495,-25.475105,0
-49.239741,-25.475464,0
-49.239937,-25.475860,0
-49.240278,-25.476363,0
-49.240421,-25.476523,0
-49.240566,-25.476644,0
-49.240996,-25.476893,0
-49.241346,-25.477084,0
-49.241743,-25.477294,0
-49.242400,-25.477557,0
-49.242994,-25.477801,0
-49.243555,-25.478029,0
-49.244158,-25.478277,0
-49.244749,-25.478520,0
-49.245943,-25.479001,0
-49.246999,-25.479426,0
-49.248097,-25.479870,0
-49.247781,-25.480509,0
-49.247540,-25.481006,0
-49.247478,-25.481101,0
-49.247404,-25.481218,0
-49.247283,-25.481407,0
-49.247065,-25.481876,0
-49.246920,-25.482162,0
-49.246835,-25.482328,0
-49.246788,-25.482418,0
-49.246671,-25.482648,0
-49.246661,-25.482860,0
-49.246775,-25.482901,0
-49.247776,-25.483296,0
-49.247996,-25.483393,0
-49.248246,-25.483493,0
-49.248757,-25.483723,0
-49.249262,-25.483926,0
-49.249965,-25.484218,0
-49.250800,-25.484503,0
-49.251174,-25.484662,0
-49.251762,-25.484907,0
-49.252152,-25.485067,0
-49.252350,-25.485170,0
-49.252621,-25.485275,0
-49.252951,-25.485425,0
-49.253499,-25.485662,0
-49.254117,-25.485891,0
-49.254743,-25.486109,0
-49.255325,-25.486349,0
-49.255923,-25.486591,0
-49.256506,-25.486837,0
-49.257106,-25.487087,0
-49.256207,-25.488915,0
-49.255755,-25.489884,0
-49.255520,-25.490355,0
-49.255371,-25.490657,0
-49.255293,-25.490800,0
-49.255419,-25.490831,0
-49.255786,-25.490981,0
-49.256477,-25.491258,0
-49.257073,-25.491501,0
-49.257664,-25.491738,0
-49.258850,-25.492193,0
-49.259691,-25.492510,0
-49.260141,-25.492685,0
-49.260590,-25.492863,0
-49.261175,-25.493099,0
-49.261786,-25.493342,0
-49.262419,-25.493601,0
-49.263116,-25.493897,0
-49.263596,-25.494098,0
-49.264029,-25.494279,0
-49.264324,-25.494425,0
-49.264827,-25.494649,0
-49.265430,-25.494817,0
-49.265879,-25.494933,0
-49.266006,-25.494973,0
-49.266521,-25.495112,0
-49.267772,-25.495450,0
-49.268030,-25.495520,0
-49.268314,-25.495600,0
-49.269247,-25.495831,0
-49.269382,-25.495863,0
-49.269785,-25.495950,0
-49.270019,-25.496030,0
-49.270111,-25.496068,0
-49.270289,-25.496159,0
-49.270447,-25.496329,0
-49.270603,-25.496511,0
-49.270741,-25.496510,0
-49.271581,-25.496552,0
-49.272311,-25.496595,0
-49.272579,-25.496600,0
-49.272821,-25.496599,0
-49.273072,-25.496578,0
-49.273270,-25.496553,0
-49.273332,-25.496521,0
-49.273632,-25.496471,0
-49.273801,-25.496433,0
-49.274047,-25.496368,0
-49.274225,-25.496313,0
-49.274516,-25.496210,0
-49.274994,-25.496036,0
-49.275472,-25.495869,0
-49.275778,-25.495753,0
-49.276089,-25.495647,0
-49.276553,-25.495496,0
-49.277012,-25.495348,0
-49.277645,-25.495143,0
-49.277746,-25.495137,0
-49.278394,-25.494923,0
-49.278713,-25.494816,0
-49.278966,-25.494743,0
-49.279368,-25.494642,0
-49.279758,-25.494581,0
-49.280892,-25.494411,0
-49.281211,-25.494388,0
-49.281618,-25.494409,0
-49.282118,-25.494448,0
-49.282626,-25.494494,0
-49.282964,-25.494535,0
-49.283754,-25.494603,0
-49.284310,-25.494628,0
-49.284828,-25.494643,0
-49.285333,-25.494643,0
-49.285872,-25.494629,0
-49.286049,-25.494650,0
-49.286275,-25.494701,0
-49.286401,-25.494767,0
-49.286744,-25.494932,0
-49.286915,-25.494984,0
-49.287052,-25.495010,0
-49.287169,-25.495009,0
-49.287317,-25.494987,0
-49.287514,-25.494898,0
-49.287658,-25.494802,0
-49.287796,-25.494696,0
-49.288375,-25.494156,0
-49.289536,-25.494470,0
-49.290756,-25.494809,0
-49.290856,-25.494845,0
-49.291280,-25.495068,0
-49.291651,-25.495278,0
-49.292328,-25.494951,0
-49.291826,-25.494250,0
-49.291516,-25.493800,0
-49.291419,-25.493621,0
-49.291310,-25.493314,0
-49.291273,-25.493121,0
-49.291273,-25.493121,0
-49.291264,-25.492963,0
-49.291267,-25.492839,0
-49.291299,-25.492531,0
-49.291405,-25.492515,0
-49.291894,-25.492526,0
-49.292541,-25.492568,0
-49.293039,-25.492623,0
-49.293103,-25.492286,0</coordinates></LineString></Placemark><Placemark><name>1 - 104805 - Terminal Capão Raso - /n020 - Interbairros II (Horário)/n027 - C.Raso/C. do Siqueira (Sentido Campina do Siqueira).</name><description>ID: 300425&lt;br/&gt;Tipo: OBRIGATÓRIO&lt;br/&gt;Distância: 0,000 km</description><Point><coordinates>-49.293082,-25.492282,0</coordinates></Point></Placemark><Placemark><name>2 - 170002 - 020 - Interbairros II (Horário - Sentido Terminal  Campina do Siqueira)/n021 - Interbairros II (Anti-Horário)/n027 - C. Raso / Camp. Siqueira (Sentido Terminal Campina do Siqueira)/n622- Rondon (Sentido Rondon)/n628 - Carbomafra (Sentido Carbomafra)/n658 - C. Raso - Caiuá  (Sentido Terminal Caiuá)</name><description>ID: 300426&lt;br/&gt;Tipo: INTERMEDIÁRIO&lt;br/&gt;Distância: 0,448 km</description><Point><coordinates>-49.297085,-25.491595,0</coordinates></Point></Placemark><Placemark><name>3 - 170004 - 020 - Interbairros II (Horário - Sentido Campina do Siqueira)/n021 - Interbairros II (Anti-Horário)/n027 - C. Raso / Camp. Siqueira (Sentido C. Siqueira)</name><description>ID: 300427&lt;br/&gt;Tipo: INTERMEDIÁRIO&lt;br/&gt;Distância: 0,831 km</description><Point><coordinates>-49.299560,-25.490980,0</coordinates></Point></Placemark><Placemark><name>4 - 170005 - 020 - Interbairros II (Horário) - Sentido Campina do Siqueira/n021 - Interbairros II (Anti-Horário)/n027 - C. Raso / Camp. Siqueira - Sentido Campina do Siqueira</name><description>ID: 300428&lt;br/&gt;Tipo: INTERMEDIÁRIO&lt;br/&gt;Distância: 1,026 km</description><Point><coordinates>-49.299567,-25.488359,0</coordinates></Point></Placemark><Placemark><name>5 - 170008 - 020 - Interbairros II(Horário - Sentido Campina do Siqueira)/n021 - Interbairros II (Anti-Horário)/n027 - C. Raso / Camp. Siqueira (Sentido C. Siqueira)</name><description>ID: 300429&lt;br/&gt;Tipo: INTERMEDIÁRIO&lt;br/&gt;Distância: 1,392 km</description><Point><coordinates>-49.299583,-25.486406,0</coordinates></Point></Placemark><Placemark><name>6 - 170010 - 020-Interbairros II (Horário - Sentido Campina do Siqueira)/n021 - Interbairros II (Anri-Horário)/n027 - C. Raso / Camp. Siqueira (Sentido C. Siqueira)</name><description>ID: 300430&lt;br/&gt;Tipo: INTERMEDIÁRIO&lt;br/&gt;Distância: 1,759 km</description><Point><coordinates>-49.298261,-25.483289,0</coordinates></Point></Placemark><Placemark><name>7 - 170012 - 020 - Interbairros II (Horário - Sentido Campina do Siqueira)/n021 - Interbairros II (Anti-Horário)/n027 - C. Raso / Camp. Siqueira (Sentido C. Siqueira)</name><description>ID: 300431&lt;br/&gt;Tipo: INTERMEDIÁRIO&lt;br/&gt;Distância: 2,062 km</description><Point><coordinates>-49.298331,-25.480605,0</coordinates></Point></Placemark><Placemark><name>8 - 170014 - 020 - Interbairros II (Horário - Sentido Campina do Siqueira)/n021 - Interbairros II (Anti-Horário)/n027 - C. Raso / Camp. Siqueira (sentido C. Siqueira)/n612 - Portão / CIC (Sentido  Terminal Portão)/n615 - Uberlândia (sentido Terminal Portão)/n671-Portão (Sentido Praça Rui Barbosa)</name><description>ID: 300432&lt;br/&gt;Tipo: INTERMEDIÁRIO&lt;br/&gt;Distância: 2,369 km</description><Point><coordinates>-49.296791,-25.479103,0</coordinates></Point></Placemark><Placemark><name>9 - 170015 - 020 - Interbairros II (Horário - Sentido Terminal Campina do Siqueira)/n021 - Interbairros II (Anti-Horário)/n027 - C. Raso / Camp. Siqueira (Sentido Terminal C. Siqueira)/n050 - Interbairros V (Sentido Terminal Fazendinha)/n611 - Fazendinha / Portão (Terminal Fazendinha)/n612 - Portão / CIC (Sentido Terminal Portão)/n615 - Uberlândia - (Sentido Terminal Portão)/n671 - Portão (sentido Praça Rui Barbosa)</name><description>ID: 300433&lt;br/&gt;Tipo: INTERMEDIÁRIO&lt;br/&gt;Distância: 2,648 km</description><Point><coordinates>-49.296856,-25.477029,0</coordinates></Point></Placemark><Placemark><name>10 - 180102 - 020 - Interbairros II (Horário - Sentido Campina do Siqueira)/n021 - Interbairros II (Anti-Horário)/n027 - C. Raso / Camp. Siqueira (Sentido C. Siqueira)/n611 - Fazendinha / Portão (Sentido Fazendinha)</name><description>ID: 300434&lt;br/&gt;Tipo: INTERMEDIÁRIO&lt;br/&gt;Distância: 3,135 km</description><Point><coordinates>-49.296993,-25.472654,0</coordinates></Point></Placemark><Placemark><name>11 - 181048 - 020 - Interbairros II (Horário)/n027 - C. Raso / C. do Siqueira/n611 - Fazendinha / Portão</name><description>ID: 300435&lt;br/&gt;Tipo: INTERMEDIÁRIO&lt;br/&gt;Distância: 3,369 km</description><Point><coordinates>-49.299072,-25.471576,0</coordinates></Point></Placemark><Placemark><name>12 - 180106 - 020 - Interbairros II (Horário - Sentido Campina do Siqueira)/n021 - Interbairros II (Anti-Horário)/n027 - C. Raso / Camp. Siqueira (Sentido C. Siqueira)</name><description>ID: 300436&lt;br/&gt;Tipo: INTERMEDIÁRIO&lt;br/&gt;Distância: 3,780 km</description><Point><coordinates>-49.300689,-25.468682,0</coordinates></Point></Placemark><Placemark><name>13 - 180107 - 020 - Interbairros II (Horário - Sentido Campina do Siqueira)/n027 - C. Raso / Camp. Siqueira (sentido C. Siqueira)</name><description>ID: 300437&lt;br/&gt;Tipo: INTERMEDIÁRIO&lt;br/&gt;Distância: 3,824 km</description><Point><coordinates>-49.300100,-25.468090,0</coordinates></Point></Placemark><Placemark><name>14 - 180110 - 020 - Interbairros II (Horário - Sentido Campina do Siqueira)/n021 - Interbairros II (Anti-Horário)/n027 - C. Raso / Camp. Siqueira (sentido C. Siqueira)</name><description>ID: 300438&lt;br/&gt;Tipo: INTERMEDIÁRIO&lt;br/&gt;Distância: 4,214 km</description><Point><coordinates>-49.300395,-25.465404,0</coordinates></Point></Placemark><Placemark><name>15 - 180112 - 020 - Interbairros II (Horário - Sentido Campina do Siqueira)/n021 - Interbairros II (Anti-Horário)/n027 - C. Raso / Camp. Siqueira (Sentido C. Siqueira)</name><description>ID: 300439&lt;br/&gt;Tipo: INTERMEDIÁRIO&lt;br/&gt;Distância: 4,692 km</description><Point><coordinates>-49.301499,-25.461368,0</coordinates></Point></Placemark><Placemark><name>16 - 180114 - 020 - Interbairros II (Horário - Sentido Terminal  Campina do Siqueira)/n021 - Interbairros II (Anti-Horário)/n027 - C. Raso / Camp. Siqueira (Sentido Terminal Campina  Siqueira)/n701 - Fazendinha (Sentido Praça Rui Barbosa)/n703 - Caiuá (Sentido  Praça Rui Barbosa)/n706 - Caiua/Faz/Centro (Sentido Praça Rui Barbosa)</name><description>ID: 300440&lt;br/&gt;Tipo: INTERMEDIÁRIO&lt;br/&gt;Distância: 4,918 km</description><Point><coordinates>-49.301964,-25.459296,0</coordinates></Point></Placemark><Placemark><name>17 - 181065 - 020 - Interbairros II (Horário)/n027 - Capão Raso / Campina do Siqueira/n779 - Vila Velha / Buriti</name><description>ID: 300441&lt;br/&gt;Tipo: INTERMEDIÁRIO&lt;br/&gt;Distância: 5,302 km</description><Point><coordinates>-49.303043,-25.456293,0</coordinates></Point></Placemark><Placemark><name>18 - 180118 - 020 - Interbairros II (Horário - Sentido Campina do Siqueira)/n021 - Interbairros II (Anti-Horário)/n027 - C. Raso / Camp. Siqueira (Sentido C. Siqueira)</name><description>ID: 300442&lt;br/&gt;Tipo: INTERMEDIÁRIO&lt;br/&gt;Distância: 5,696 km</description><Point><coordinates>-49.304228,-25.452618,0</coordinates></Point></Placemark><Placemark><name>19 - 181052 - 020 - Interbairros II (Horário)/n021 - Interbairros II (Anti-Horário)/n027 - C. Raso / C. do Siqueira</name><description>ID: 300443&lt;br/&gt;Tipo: INTERMEDIÁRIO&lt;br/&gt;Distância: 5,890 km</description><Point><coordinates>-49.304514,-25.451073,0</coordinates></Point></Placemark><Placemark><name>20 - 180122 - 020 - Interbairros II (Horário - Sentido Campina do Siqueira)/n021 - Interbairros II (Anti-Horário)/n027 - C. Raso / Camp. Siqueira (Sentido C. Siqueira)</name><description>ID: 300444&lt;br/&gt;Tipo: INTERMEDIÁRIO&lt;br/&gt;Distância: 6,599 km</description><Point><coordinates>-49.304682,-25.444737,0</coordinates></Point></Placemark><Placemark><name>21 - 180125 - 020 - Interbairros II (Horário - Sentido Campina do Siqueira)/n021 - Interbairros II (Anti-Horário)/n027 - C. Raso / Camp. Siqueira (Sentido C. Siqueira)</name><description>ID: 300445&lt;br/&gt;Tipo: INTERMEDIÁRIO&lt;br/&gt;Distância: 6,886 km</description><Point><coordinates>-49.305640,-25.441870,0</coordinates></Point></Placemark><Placemark><name>22 - 180126 - 020 - Interbairros II (Horário - Sentido Campina do Siqueira)/n021 - Interbairros II (Anti-Horário)/n027 - C. Raso / Camp. Siqueira (Sentido C. Siqueira)</name><description>ID: 300446&lt;br/&gt;Tipo: INTERMEDIÁRIO&lt;br/&gt;Distância: 7,198 km</description><Point><coordinates>-49.306922,-25.439584,0</coordinates></Point></Placemark><Placemark><name>23 - 104501 - Terminal Campina do Siqueira /n020 - Interbairros II (Horário) (Sentido Cabral)/n027 - C.Raso/C.do Siqueira.</name><description>ID: 300447&lt;br/&gt;Tipo: OBRIGATÓRIO&lt;br/&gt;Distância: 7,739 km</description><Point><coordinates>-49.306887,-25.435877,0</coordinates></Point></Placemark><Placemark><name>24 - 190201 - 020 - Interbairros II (Horário - Sentido Terminal  Cabral)/n870 - São Bráz (Sentido Praça Tiradentes)/n889 - Mad. São Bráz (Sentido Praça  Rui Barbosa)</name><description>ID: 300448&lt;br/&gt;Tipo: INTERMEDIÁRIO&lt;br/&gt;Distância: 8,186 km</description><Point><coordinates>-49.302904,-25.435589,0</coordinates></Point></Placemark><Placemark><name>25 - 190203 - 020 - Interbairros II (Horário - Sentido Cabral)/n875 - Bigorrilho (Sentido Bigorrilho)</name><description>ID: 300449&lt;br/&gt;Tipo: INTERMEDIÁRIO&lt;br/&gt;Distância: 8,782 km</description><Point><coordinates>-49.298883,-25.432634,0</coordinates></Point></Placemark><Placemark><name>26 - 190204 - 020 - Interbairros II (Horário - Terminal Sentido Cabral)/n875 - Bigorrilho (Sentido Bigorrilho)</name><description>ID: 300450&lt;br/&gt;Tipo: INTERMEDIÁRIO&lt;br/&gt;Distância: 9,171 km</description><Point><coordinates>-49.300548,-25.429302,0</coordinates></Point></Placemark><Placemark><name>27 - 190208 - 020 - Interbairros II (Horáririo - Sentido Cabral)</name><description>ID: 300451&lt;br/&gt;Tipo: INTERMEDIÁRIO&lt;br/&gt;Distância: 9,638 km</description><Point><coordinates>-49.299802,-25.426215,0</coordinates></Point></Placemark><Placemark><name>28 - 190210 - 020 - Interbairros II (Horário - Sentido Cabral)</name><description>ID: 300452&lt;br/&gt;Tipo: INTERMEDIÁRIO&lt;br/&gt;Distância: 10,055 km</description><Point><coordinates>-49.295200,-25.424277,0</coordinates></Point></Placemark><Placemark><name>29 - 190213 - 020 - Interbairros II (Horário - Sentido Cabral)</name><description>ID: 300453&lt;br/&gt;Tipo: INTERMEDIÁRIO&lt;br/&gt;Distância: 11,320 km</description><Point><coordinates>-49.291344,-25.420855,0</coordinates></Point></Placemark><Placemark><name>30 - 190215 - 020 - Interbairros II (Horário - Sentido Cabral)/n150 - C. da Música / V. Alegre (Sentido Vista Alegre) /n160 - Jd. Mercês / Guanabara (Sentido Jd. Mercês)/n167 - Fredolin Wolf (Sentido Fredolin Wolf)/n168 - Raposo Tavares (Sentido Raposo Tavares)</name><description>ID: 300454&lt;br/&gt;Tipo: INTERMEDIÁRIO&lt;br/&gt;Distância: 11,654 km</description><Point><coordinates>-49.290508,-25.417685,0</coordinates></Point></Placemark><Placemark><name>31 - 190634 - 020 - Interbairros II (Horário - Sentido Cabral)/n150 - C. da Música / Vista Alegre (Sentido Vista Alegre)/n160 - Jd. Mercês / Guanabara (Sentido Jd. Mercês)/n167 - Fredolin Wolf (Sentido Fredolin Wolf)/n168 - Raposo Tavares (Sentido Raposo Tavares)</name><description>ID: 300455&lt;br/&gt;Tipo: INTERMEDIÁRIO&lt;br/&gt;Distância: 12,006 km</description><Point><coordinates>-49.289786,-25.414928,0</coordinates></Point></Placemark><Placemark><name>32 - 190218 - 020 - Interbairros II (Horário - Sentido Cabral)/n150 - C. da Música / V. Alegre (Sentido Vista Alegre) /n160 - Jd. Mercês / Guanabara (Sentido Jd. Mercês)/n167 - Fredolin Wolf (Sentido Fredolim Wolf)/n168 - Raposo Tavares (Sentido Raposo Tavares)</name><description>ID: 300456&lt;br/&gt;Tipo: INTERMEDIÁRIO&lt;br/&gt;Distância: 12,299 km</description><Point><coordinates>-49.291303,-25.412541,0</coordinates></Point></Placemark><Placemark><name>33 - 190221 - 020 - Interbairros II (Horário - Sentido Cabral)/n160 - Jd. Mercês / Guanabara (Sentido Jd. Mercês)/n167 - Fredolin Wolf (Sentido Fredolin Wolf)/n168 - Raposo Tavares (Sentido Raposo Tavares)</name><description>ID: 300457&lt;br/&gt;Tipo: INTERMEDIÁRIO&lt;br/&gt;Distância: 12,610 km</description><Point><coordinates>-49.291784,-25.409937,0</coordinates></Point></Placemark><Placemark><name>34 - 190222 - 020 - Interbairros II (Horário - Sentido Cabral)/n160 - Jd. Mercês / Guanabara (Sentido Jd. Mercês)/n167 - Fredolin Wolf (Sentido Fredolin Wolf)/n168 - Raposo Tavares (Sentido Raposo Tavares)</name><description>ID: 300458&lt;br/&gt;Tipo: INTERMEDIÁRIO&lt;br/&gt;Distância: 12,803 km</description><Point><coordinates>-49.292020,-25.408395,0</coordinates></Point></Placemark><Placemark><name>35 - 190224 - 020 - Interbairros II (Horário - Sentido Cabral)/n160 - Jd. Mercês / Guanabara (Sentido Jd. Mercês)/n167 - Fredolin Wolf (Sentido Fredolin Wolf)/n168 - Raposo Tavares (Sentido Raposo Tavares)</name><description>ID: 300459&lt;br/&gt;Tipo: INTERMEDIÁRIO&lt;br/&gt;Distância: 13,036 km</description><Point><coordinates>-49.291687,-25.406479,0</coordinates></Point></Placemark><Placemark><name>36 - 190226 - 020 - Interbairros II (Horário - Sentido Cabral)/n160 - Jd. Mercês / Guanabara (Sentido Jd. Mercês)</name><description>ID: 300460&lt;br/&gt;Tipo: INTERMEDIÁRIO&lt;br/&gt;Distância: 13,358 km</description><Point><coordinates>-49.290021,-25.404314,0</coordinates></Point></Placemark><Placemark><name>37 - 190228 - 020 - Interbairros II (Horário - Sentido Cabral)/n160 - Jd. Mercês / Guanabara (Sentido Jd. Mercês)</name><description>ID: 300461&lt;br/&gt;Tipo: INTERMEDIÁRIO&lt;br/&gt;Distância: 13,691 km</description><Point><coordinates>-49.287720,-25.402265,0</coordinates></Point></Placemark><Placemark><name>38 - 190230 - 020 - Interbairros II (Horário - Sentido Cabral)</name><description>ID: 300462&lt;br/&gt;Tipo: INTERMEDIÁRIO&lt;br/&gt;Distância: 14,016 km</description><Point><coordinates>-49.288017,-25.399581,0</coordinates></Point></Placemark><Placemark><name>39 - 120024 - 020 - Interbairros II (Horário - Sentido Cabral)/n166 - Vila Nori (Sentido Vila Nori)/n170 - Bracatinga (Sentido Bracatinga)/n171 - Primavera (Sentido Primavera)/n188 - Madrugueiro Pilarzinho / Uberaba (Sentido Pilarzinho)</name><description>ID: 300463&lt;br/&gt;Tipo: INTERMEDIÁRIO&lt;br/&gt;Distância: 14,302 km</description><Point><coordinates>-49.287880,-25.397184,0</coordinates></Point></Placemark><Placemark><name>40 - 120032 - 020 - Interbairros II (Horário - Sentido Terminal Cabral)/n170 - Bracatinga (Sentido Bracatinga)/n171 - Primavera (Sentido Primavera)/n188 - Madrugueiro Pilarzinho / Uberaba (Sentido Pilarzinho)/n924 - Santa Felicidade / Santa Cândida (Sentido Terminal Santa Cândida)</name><description>ID: 300464&lt;br/&gt;Tipo: INTERMEDIÁRIO&lt;br/&gt;Distância: 14,669 km</description><Point><coordinates>-49.285214,-25.395020,0</coordinates></Point></Placemark><Placemark><name>41 - 120042 - 020 - Interbairros II (Horário - Sentido Terminal Cabral)/n170 - Bracatinga (Sentido Bracatinga)/n171 - Primavara (Sentido Primavera)/n188 - Madrugueiro Pilarzinho / Uberaba (Sentido Pilarzinho)/n924 - Santa Felicidade/ Santa Cândida (Sentido Terminal Santa Cândida)</name><description>ID: 300465&lt;br/&gt;Tipo: INTERMEDIÁRIO&lt;br/&gt;Distância: 14,922 km</description><Point><coordinates>-49.283519,-25.393232,0</coordinates></Point></Placemark><Placemark><name>42 - 120043 - 020 - Interbairros II (Horário - Sentido Terminal Cabral)/n170 - Bracatinga (Sentido Bracatinga)/n171 - Primavera (Sentido Primavera)/n188 - Madrugueiro Pilarzinho / Uberaba (Sentido Pilarzinho)/n924 - Santa Felicidade/ Santa Cândida (Sentido Terminal Santa Cândida)</name><description>ID: 300466&lt;br/&gt;Tipo: INTERMEDIÁRIO&lt;br/&gt;Distância: 15,212 km</description><Point><coordinates>-49.283135,-25.390875,0</coordinates></Point></Placemark><Placemark><name>43 - 120069 - 020 - Interbairros II (Horário - Sentido Terminal Cabral)/n170 - Bracatinga (Sentido Bracatinga)/n171 - Primavera (Sentido Primavera)/n188 - Madrugueiro Pilarzinho / Uberaba (Sentido Pilarzinho)/n924 - Santa Felicidade / Santa Cândida (Sentido Terminal Santa Cândida)</name><description>ID: 300467&lt;br/&gt;Tipo: INTERMEDIÁRIO&lt;br/&gt;Distância: 15,517 km</description><Point><coordinates>-49.282947,-25.388121,0</coordinates></Point></Placemark><Placemark><name>44 - 120609 - 170 - Bracatinga (Sentido Bracatinga)/n171 - Primavera (Sentido Primavera)/n188 - Madrugueiro Pilarzinho / Uberaba (Sentido Pilarzinho)/n924 - Santa Felicidade / Santa Cândida (Sentido Terminal Santa Cândida)/n020 - Interbairros II (Horário)</name><description>ID: 300468&lt;br/&gt;Tipo: INTERMEDIÁRIO&lt;br/&gt;Distância: 15,738 km</description><Point><coordinates>-49.282410,-25.386260,0</coordinates></Point></Placemark><Placemark><name>45 - 120070 - 020 - Interbairros II (Horário - Sentido Cabral)</name><description>ID: 300469&lt;br/&gt;Tipo: INTERMEDIÁRIO&lt;br/&gt;Distância: 15,994 km</description><Point><coordinates>-49.280687,-25.385459,0</coordinates></Point></Placemark><Placemark><name>46 - 120366 - 176 - Parque Tanguá  (Sentido Nestor de Castro)</name><description>ID: 300470&lt;br/&gt;Tipo: INTERMEDIÁRIO&lt;br/&gt;Distância: 16,324 km</description><Point><coordinates>-49.277608,-25.386348,0</coordinates></Point></Placemark><Placemark><name>47 - 120364 - 176 -  Parque Tanguá (Sentido Nestor de Castro)</name><description>ID: 300471&lt;br/&gt;Tipo: INTERMEDIÁRIO&lt;br/&gt;Distância: 16,629 km</description><Point><coordinates>-49.275059,-25.387650,0</coordinates></Point></Placemark><Placemark><name>48 - 120362 - 176 - Parque Tanguá  (Sentido Nestor de Castro)</name><description>ID: 300472&lt;br/&gt;Tipo: INTERMEDIÁRIO&lt;br/&gt;Distância: 16,986 km</description><Point><coordinates>-49.272207,-25.389193,0</coordinates></Point></Placemark><Placemark><name>49 - 120360 - 176 - Parque Tanguá  (Sentido Nestor de Castro)</name><description>ID: 300473&lt;br/&gt;Tipo: INTERMEDIÁRIO&lt;br/&gt;Distância: 17,367 km</description><Point><coordinates>-49.272609,-25.391727,0</coordinates></Point></Placemark><Placemark><name>50 - 121038 - R. Evaldo Wendler, 57 - São Lourenço</name><description>ID: 300474&lt;br/&gt;Tipo: INTERMEDIÁRIO&lt;br/&gt;Distância: 17,643 km</description><Point><coordinates>-49.272120,-25.394741,0</coordinates></Point></Placemark><Placemark><name>51 - 120516 - X54 - Natal Pq. Tanguá/n181 - Mateus Leme (sentido Mateus Leme)/n182 - Abranches (sentido Terminal Barreirinha)/n183 - Jd. Chaparral (sentido Jd. Chaparral)/n184 - V. Suiça (sentido V. Suiça)/n189 - Mad. Abranches (sentido Abranches)</name><description>ID: 300475&lt;br/&gt;Tipo: INTERMEDIÁRIO&lt;br/&gt;Distância: 17,997 km</description><Point><coordinates>-49.269535,-25.393073,0</coordinates></Point></Placemark><Placemark><name>52 - 120514 - X54 - Natal Pq. Tanguá/n181 - Mateus Leme (sentido Mateus Leme)/n182 - Abranches (sentido Terminal Barreirinha)/n183 - Jd. Chaparral (sentido Jd. Chaparral)/n184 - V. Suiça (sentido V. Suiça)/n189 - Mad. Abranches (sentido Abranches)</name><description>ID: 300476&lt;br/&gt;Tipo: INTERMEDIÁRIO&lt;br/&gt;Distância: 18,421 km</description><Point><coordinates>-49.267388,-25.390608,0</coordinates></Point></Placemark><Placemark><name>53 - 120512 - 181 - Mateus Leme (sentido Mateus Leme)/n182 - Abranches (sentido Terminal Barreirinha)/n183 - Jd. Chaparral (sentido Jd. Chaparral)/n184 - V. Suiça (sentido V. Suiça)/n189 - Mad. Abranches (sentido Abranches)</name><description>ID: 300477&lt;br/&gt;Tipo: INTERMEDIÁRIO&lt;br/&gt;Distância: 18,531 km</description><Point><coordinates>-49.267452,-25.388972,0</coordinates></Point></Placemark><Placemark><name>54 - 120080 - 020-Interbairros II (Horário -  Sentido Cabral)/n021 - Interbairros II (Anti-Horário)/n177 - Cabral / PQ. Tanguá</name><description>ID: 300478&lt;br/&gt;Tipo: INTERMEDIÁRIO&lt;br/&gt;Distância: 18,689 km</description><Point><coordinates>-49.267002,-25.388137,0</coordinates></Point></Placemark><Placemark><name>55 - 120083 - 020-Interbairros II (Horário - Sentido Cabral)/n177 - Cabral / PQ. Tanguá</name><description>ID: 300479&lt;br/&gt;Tipo: INTERMEDIÁRIO&lt;br/&gt;Distância: 18,965 km</description><Point><coordinates>-49.264374,-25.388986,0</coordinates></Point></Placemark><Placemark><name>56 - 120084 - 020 - Interbairros II (Horário -  Sentido Cabral)/n266 - Estribo Ahú (Sentido Estribo Ahú)/n177 - Cabral/PQ. Tanguá</name><description>ID: 300480&lt;br/&gt;Tipo: INTERMEDIÁRIO&lt;br/&gt;Distância: 19,438 km</description><Point><coordinates>-49.259967,-25.390336,0</coordinates></Point></Placemark><Placemark><name>57 - 120087 - 020 - Interbairros II (Horário - Sentido Cabral)/n266 - Estribo Ahú (Sentido Estribo Ahú)/n177 - Cabral/PQ. Tanguá</name><description>ID: 300481&lt;br/&gt;Tipo: INTERMEDIÁRIO&lt;br/&gt;Distância: 19,788 km</description><Point><coordinates>-49.256779,-25.391206,0</coordinates></Point></Placemark><Placemark><name>58 - 120089 - 020 - Interbairros II (Horário -  Sentido Cabral)/n177 - Cabral/PQ. Tanguá</name><description>ID: 300482&lt;br/&gt;Tipo: INTERMEDIÁRIO&lt;br/&gt;Distância: 20,248 km</description><Point><coordinates>-49.253350,-25.393714,0</coordinates></Point></Placemark><Placemark><name>59 - 120091 - 020 - Interbairros II (Horário -  Sentido Cabral)/n177 - Cabral/PQ. Tanguá</name><description>ID: 300483&lt;br/&gt;Tipo: INTERMEDIÁRIO&lt;br/&gt;Distância: 20,544 km</description><Point><coordinates>-49.251030,-25.395470,0</coordinates></Point></Placemark><Placemark><name>60 - 120092 - 020 - Interbairros II (Horário -  Sentido Cabral)/n280 - Nossa Sra. de Nazaré (Sentido Travessa Moreira Garcez)/n177 - Cabral/PQ. Tanguá</name><description>ID: 300484&lt;br/&gt;Tipo: INTERMEDIÁRIO&lt;br/&gt;Distância: 21,026 km</description><Point><coordinates>-49.251970,-25.398741,0</coordinates></Point></Placemark><Placemark><name>61 - 120396 - 020 - Interbairros II (Horário - Sentido Terminal Cabral)/n280 - Nossa Senhora de Nazaré (Sentido Travessa Moreira Garcez)/n177 - Cabral/PQ. Tanguá</name><description>ID: 300485&lt;br/&gt;Tipo: INTERMEDIÁRIO&lt;br/&gt;Distância: 21,265 km</description><Point><coordinates>-49.253483,-25.399706,0</coordinates></Point></Placemark><Placemark><name>62 - 120093 - 020 - Interbairros II (Horário - Sentido Cabral)/n280 - Nossa Sra. de Nazaré (Sentido Travessa Moreira Garcez)/n177 - Cabral/PQ. Tanguá</name><description>ID: 300486&lt;br/&gt;Tipo: INTERMEDIÁRIO&lt;br/&gt;Distância: 21,442 km</description><Point><coordinates>-49.253210,-25.401490,0</coordinates></Point></Placemark><Placemark><name>63 - 120095 - 020 - Interbairros II (Horário -  Sentido Terminal Cabral)/n280 - Nossa Sra. de Nazaré (Sentido Travessa Moreira Garcez)/n177 - Cabral/PQ. Tanguá</name><description>ID: 300487&lt;br/&gt;Tipo: INTERMEDIÁRIO&lt;br/&gt;Distância: 21,741 km</description><Point><coordinates>-49.251451,-25.403217,0</coordinates></Point></Placemark><Placemark><name>64 - 104406 - Terminal Cabral /n020 - Interbairros II (Horário) (Sentido Capão da Imbuia)/nX42 - Especial Cabral / C.Imbuia</name><description>ID: 300488&lt;br/&gt;Tipo: OBRIGATÓRIO&lt;br/&gt;Distância: 22,196 km</description><Point><coordinates>-49.252353,-25.406384,0</coordinates></Point></Placemark><Placemark><name>65 - 130110 - 020 - Interbairros II (Horário - Sentido Capão da Imbuia)</name><description>ID: 300489&lt;br/&gt;Tipo: INTERMEDIÁRIO&lt;br/&gt;Distância: 22,854 km</description><Point><coordinates>-49.249253,-25.409516,0</coordinates></Point></Placemark><Placemark><name>66 - 130113 - 020 - Interbairros II (Horário - Sentido Capão da Imbuia)</name><description>ID: 300490&lt;br/&gt;Tipo: INTERMEDIÁRIO&lt;br/&gt;Distância: 23,175 km</description><Point><coordinates>-49.247466,-25.411594,0</coordinates></Point></Placemark><Placemark><name>67 - 130115 - 020 - Interbairros II (Horário - Sentido Capão da Imbuia</name><description>ID: 300491&lt;br/&gt;Tipo: INTERMEDIÁRIO&lt;br/&gt;Distância: 23,497 km</description><Point><coordinates>-49.247121,-25.414054,0</coordinates></Point></Placemark><Placemark><name>68 - 130117 - 020 - Interbairros II (Horário - Sentido Capão da Imbuia</name><description>ID: 300492&lt;br/&gt;Tipo: INTERMEDIÁRIO&lt;br/&gt;Distância: 23,834 km</description><Point><coordinates>-49.247919,-25.416333,0</coordinates></Point></Placemark><Placemark><name>69 - 130119 - 020- Interbairros II (Horário - Sentido Capão da Imbuia/n361 - Augusto Stresser (Sentido Augusto Stresser)/n374 - Hugo Lange (Sentido Bairro Alto)</name><description>ID: 300493&lt;br/&gt;Tipo: INTERMEDIÁRIO&lt;br/&gt;Distância: 24,070 km</description><Point><coordinates>-49.246481,-25.417588,0</coordinates></Point></Placemark><Placemark><name>70 - 130121 - 020 - Interbairros II (Horário - Sentido Capão da Imbuia)/n361 - Augusto Stresser (Sentido Bairro Alto)/n374 - Hugo Lange (Sentido Bairro Alto)</name><description>ID: 300494&lt;br/&gt;Tipo: INTERMEDIÁRIO&lt;br/&gt;Distância: 24,358 km</description><Point><coordinates>-49.244086,-25.417782,0</coordinates></Point></Placemark><Placemark><name>71 - 130122 - 020 - Interbairros II (Horário - Sentido Capão da Imbuia)/n361 - Augusto Stresser (Sentido Bairro Alto)/n374 - Hugo Lange (Sentido Bairro Alto)</name><description>ID: 300495&lt;br/&gt;Tipo: INTERMEDIÁRIO&lt;br/&gt;Distância: 24,586 km</description><Point><coordinates>-49.241829,-25.417965,0</coordinates></Point></Placemark><Placemark><name>72 - 130124 - 020-Interbairros II (Horário - Sentido Capão da Imbuia)/n365 - Jd. Social / Batel (Batel)</name><description>ID: 300496&lt;br/&gt;Tipo: INTERMEDIÁRIO&lt;br/&gt;Distância: 24,902 km</description><Point><coordinates>-49.239922,-25.420220,0</coordinates></Point></Placemark><Placemark><name>73 - 130126 - 020 - Interbairros II (Horário - Sentido Capão da Imbuia)/n365 - Jd. Social / Batel (Sentido Batel)</name><description>ID: 300497&lt;br/&gt;Tipo: INTERMEDIÁRIO&lt;br/&gt;Distância: 25,323 km</description><Point><coordinates>-49.241810,-25.423102,0</coordinates></Point></Placemark><Placemark><name>74 - 130128 - 020 - Interbairros II (Horário - Sentido Capão da Imbuia)/n366 - Itupava / Hosp. Militar (Sentido Itupava)</name><description>ID: 300498&lt;br/&gt;Tipo: INTERMEDIÁRIO&lt;br/&gt;Distância: 25,626 km</description><Point><coordinates>-49.242453,-25.426200,0</coordinates></Point></Placemark><Placemark><name>75 - 130375 - 020 - Interbairros II (Horário - Sentido Capão da Imbuia)/n372 - Tarumã (Sentido Bairro Alto)/n373 - Alto Tarumã (Sentido Bairro Alto)/n375 - Sagrado Coração/n378 - Inter-Hospitais (Sentido Tarumã)/n380 - Detran / V. Machado (Sentido Detran)/n389 - Madrugueiro Tarumã / Augusta (Sentido Bairro Alto)/n393 - C. Imbuia / Parque Barigui (Sentido C. Imbuia)</name><description>ID: 300499&lt;br/&gt;Tipo: INTERMEDIÁRIO&lt;br/&gt;Distância: 26,366 km</description><Point><coordinates>-49.237301,-25.427748,0</coordinates></Point></Placemark><Placemark><name>76 - 130203 - 020 - Interbairros II (Horário - Sentido Capão da Imbuia)/n372 - Tarumã (Sentido Bairro Alto)/n373 - Alto Tarumã (Sentido Bairro Alto)/n375 - Sagrado Coração (Sentido Bairro Alto)/n378 - Inter-Hospitais (Sentido Tarumã)/n380 - Detran / V. Machado (Sentido Detran)/n389 - Madrugueiro Tarumã / Augusta (Sentido Bairro Alto)/n393 - C. Imbuia / Parque Barigui (Sentido C. Imbuia)</name><description>ID: 300500&lt;br/&gt;Tipo: INTERMEDIÁRIO&lt;br/&gt;Distância: 26,693 km</description><Point><coordinates>-49.234032,-25.428080,0</coordinates></Point></Placemark><Placemark><name>77 - 130207 - 020 - Interbairros II (Horário - Sentido Capão da Imbuia)/n372 - Tarumã (Sentido Bairro Alto)/n373 - Alto Tarumã (Sentido Bairro Alto)/n375 - Sagrado Coração (Sentido Bairro Alto)/n378 - Inter-Hospitais (Sentido Tarumã)/n380 - Detran / V. Machado (Sentido Detran)/n389 - Madrugueiro Tarumã / Augusta (Sentido Bairro Alto)/n393 - Capão da Imbuia / Parque Barigui (Sentido Capão da Imbuia)</name><description>ID: 300501&lt;br/&gt;Tipo: INTERMEDIÁRIO&lt;br/&gt;Distância: 26,998 km</description><Point><coordinates>-49.230623,-25.428446,0</coordinates></Point></Placemark><Placemark><name>78 - 130210 - 020 - Interbairros II (Horário - Sentido Capão da Imbuia)/n372 - Tarumã (Sentido Bairro Alto)/n373 - Alto Tarumã (Sentido Bairro Alto)/n375 - Sagrado Coração (Sentido Bairro Alto)/n378 - Inter-Hospitais (Sentido Tarumã)/n380 - Detran / V. Machado (Sentido Detran)/n389 - Madrugueiro Tarumã / Augusta (Sentido Bairro Alto)/n393 - C. Imbuia / Parque Barigui (Sentido C. Imbuia)</name><description>ID: 300502&lt;br/&gt;Tipo: INTERMEDIÁRIO&lt;br/&gt;Distância: 27,360 km</description><Point><coordinates>-49.227049,-25.428805,0</coordinates></Point></Placemark><Placemark><name>79 - 130212 - 020 - Interbairros II (Horário - Sentido Capão da Imbuia)/n372 - Tarumã (Sentido Bairro Alto)/n373 - Alto Tarumã (Sentido Bairro Alto)/n375 - Sagrado Coração (Sentido Bairro Alto)/n378 - Inter-Hospitais (Sentido Tarumã)/n380 - Detran / V. Machado (Sentido Detran)/n389 - Madrugueiro Tarumã / Augusta (Sentido Bairro Alto)/n393 - Capão da Imbuia / Parque Barigui (Sentido Capão da Imbuia)</name><description>ID: 300503&lt;br/&gt;Tipo: INTERMEDIÁRIO&lt;br/&gt;Distância: 27,708 km</description><Point><coordinates>-49.223837,-25.429205,0</coordinates></Point></Placemark><Placemark><name>80 - 130216 - 020 - Interbairros II (Horário - Sentido Capão da Imbuia)/n372 - Tarumã (Sentido Bairro Alto)/n373 - Alto Tarumã (Sentido Bairro Alto)/n375 - Sagrado Coração (Sentido Bairro Alto)/n378 - Inter-Hospitais (Sentido Tarumã)/n380 - Detran / V. Machado (Sentido Detran)/n389 - Madrugueiro Tarumã / Augusta (Sentido Bairro Alto)/n393 - C. Imbuia / Parque Barigui (Sentido C. Imbuia)</name><description>ID: 300504&lt;br/&gt;Tipo: INTERMEDIÁRIO&lt;br/&gt;Distância: 28,208 km</description><Point><coordinates>-49.218810,-25.429812,0</coordinates></Point></Placemark><Placemark><name>81 - 130218 - Av. Victor Ferreira do Amaral, 2422 - Capão da Imbuia</name><description>ID: 300505&lt;br/&gt;Tipo: INTERMEDIÁRIO&lt;br/&gt;Distância: 28,421 km</description><Point><coordinates>-49.216123,-25.430112,0</coordinates></Point></Placemark><Placemark><name>82 - 130220 - 020 - Interbairros II (Horário - Sentido Capão da Imbuia)</name><description>ID: 300506&lt;br/&gt;Tipo: INTERMEDIÁRIO&lt;br/&gt;Distância: 29,069 km</description><Point><coordinates>-49.212154,-25.431559,0</coordinates></Point></Placemark><Placemark><name>83 - 130225 - 020 - Interbairros II (Horário - Sentido Capão da Imbuia)/n393 - C. Imbuia / Parque Barigui (Sentido C. Imbuia)</name><description>ID: 300507&lt;br/&gt;Tipo: INTERMEDIÁRIO&lt;br/&gt;Distância: 29,414 km</description><Point><coordinates>-49.213552,-25.434132,0</coordinates></Point></Placemark><Placemark><name>84 - 130992 - R. Eng. Alberto Monteiro de Carvalho, 201 - Capão da Imbuia</name><description>ID: 300508&lt;br/&gt;Tipo: INTERMEDIÁRIO&lt;br/&gt;Distância: 29,847 km</description><Point><coordinates>-49.216372,-25.433663,0</coordinates></Point></Placemark><Placemark><name>85 - 130229 - 020 - Interbairros II (Horário - Sentido Terminal Capão da Imbuia)/n386 - Cajuru (Sentido Centro)</name><description>ID: 300509&lt;br/&gt;Tipo: INTERMEDIÁRIO&lt;br/&gt;Distância: 30,090 km</description><Point><coordinates>-49.217971,-25.434998,0</coordinates></Point></Placemark><Placemark><name>86 - 130231 - 020 - Interbairros II (Horário - Sentido Terminal Capão da Imbuia)/n386 - Cajuru (sentido Centro)</name><description>ID: 300510&lt;br/&gt;Tipo: INTERMEDIÁRIO&lt;br/&gt;Distância: 30,266 km</description><Point><coordinates>-49.219117,-25.437045,0</coordinates></Point></Placemark><Placemark><name>87 - 104706 - Terminal Capão da Imbuia/n020 - Interbairros II (Horário) (Sentido Hauer)/nX42 - Especial Cabral / C.Imbuia</name><description>ID: 300511&lt;br/&gt;Tipo: OBRIGATÓRIO&lt;br/&gt;Distância: 31,008 km</description><Point><coordinates>-49.221235,-25.440273,0</coordinates></Point></Placemark><Placemark><name>88 - 140125 - Z03 - Vicente de Carvalho / C. Imbuia (Sentido Vicente de Carvalho)/n020 - Interbairros II (Horário - Sentido Hauer)/n387-Palotinos (Sentido Praça Palotinos)</name><description>ID: 300512&lt;br/&gt;Tipo: INTERMEDIÁRIO&lt;br/&gt;Distância: 31,575 km</description><Point><coordinates>-49.223203,-25.444622,0</coordinates></Point></Placemark><Placemark><name>89 - 140167 - 020 - Interbairros II (Horário - Sentido Hauer)</name><description>ID: 300513&lt;br/&gt;Tipo: INTERMEDIÁRIO&lt;br/&gt;Distância: 32,064 km</description><Point><coordinates>-49.225614,-25.447365,0</coordinates></Point></Placemark><Placemark><name>90 - 140168 - 020 - Interbairros II (Horário - Sentido Hauer)/n050 - Interbairros V (Sentido Terminal Fazendinha)/n165 - Universidades (Sentido PUC)/n461 - Sta. Barbara/n466 - Estudantes</name><description>ID: 300514&lt;br/&gt;Tipo: INTERMEDIÁRIO&lt;br/&gt;Distância: 32,772 km</description><Point><coordinates>-49.230079,-25.452079,0</coordinates></Point></Placemark><Placemark><name>91 - 140170 - 020 - Interbairros II (Horário - Sentido Hauer)/n461 - Santa Bárbara (Sentido Sta. Bárbara)</name><description>ID: 300515&lt;br/&gt;Tipo: INTERMEDIÁRIO&lt;br/&gt;Distância: 33,185 km</description><Point><coordinates>-49.231268,-25.455357,0</coordinates></Point></Placemark><Placemark><name>92 - 140172 - 020 - Interbairros II (Horário - Sentido Hauer)/n461 - Santa Bárbara (Sentido Sta. Bárbara)</name><description>ID: 300516&lt;br/&gt;Tipo: INTERMEDIÁRIO&lt;br/&gt;Distância: 33,501 km</description><Point><coordinates>-49.232410,-25.457834,0</coordinates></Point></Placemark><Placemark><name>93 - 140174 - 020 - Interbairros II (Horário - Sentido Hauer)/n477 - V. Macedo Via Guabirotuba</name><description>ID: 300517&lt;br/&gt;Tipo: INTERMEDIÁRIO&lt;br/&gt;Distância: 33,959 km</description><Point><coordinates>-49.233991,-25.461734,0</coordinates></Point></Placemark><Placemark><name>94 - 140177 - 020 - Interbairros II (Horário - Sentido Hauer)</name><description>ID: 300518&lt;br/&gt;Tipo: INTERMEDIÁRIO&lt;br/&gt;Distância: 34,615 km</description><Point><coordinates>-49.235107,-25.467764,0</coordinates></Point></Placemark><Placemark><name>95 - 141018 - 020 - Interbairros II (horário)</name><description>ID: 300519&lt;br/&gt;Tipo: INTERMEDIÁRIO&lt;br/&gt;Distância: 35,004 km</description><Point><coordinates>-49.237030,-25.470616,0</coordinates></Point></Placemark><Placemark><name>96 - 140034 - X14 - Reforço Hauer/n020 - Interbairros II (Horário - Sentido Hauer)/n338 - Centenário / Hauer (Sentido Hauer)/n516 - Canal Belém/ Salgado Filho (Sentido Canal Belém)</name><description>ID: 300520&lt;br/&gt;Tipo: INTERMEDIÁRIO&lt;br/&gt;Distância: 35,657 km</description><Point><coordinates>-49.240087,-25.475951,0</coordinates></Point></Placemark><Placemark><name>97 - 140011 - X14 - Reforço Hauer/n020 - Interbairros II (Horário - Sentido Hauer)/n338 - Centenário / Hauer (Sentido Hauer)/n515-Iguape II (Sentido Hauer)/n516 - Canal Belém / Salgado Filho (Sentido Salgado Filho)/n519 - Mad. S. Francisco / Iguape (Sentido Hauer)</name><description>ID: 300521&lt;br/&gt;Tipo: INTERMEDIÁRIO&lt;br/&gt;Distância: 36,099 km</description><Point><coordinates>-49.243317,-25.477880,0</coordinates></Point></Placemark><Placemark><name>98 - 140010 - X14 - Reforço Hauer/n020 - Interbairros II (Horário - Sentido Hauer)/n338 - Centenário / Hauer (Sentido Hauer)/n515 - Iguape II (Sentido Hauer)/n516 - Canal Belém / Salgado Filho (Sentido Salgado Filho)/n519 - Mad. S. Francisco / Iguape (Sentido Hauer)</name><description>ID: 300522&lt;br/&gt;Tipo: INTERMEDIÁRIO&lt;br/&gt;Distância: 36,477 km</description><Point><coordinates>-49.246702,-25.479247,0</coordinates></Point></Placemark><Placemark><name>99 - 105512 - Terminal Hauer /n020 - Interbairros II (Horário) (Sentido Capão Raso)</name><description>ID: 300523&lt;br/&gt;Tipo: OBRIGATÓRIO&lt;br/&gt;Distância: 36,840 km</description><Point><coordinates>-49.247077,-25.481900,0</coordinates></Point></Placemark><Placemark><name>100 - 150204 - 020 - Interbairros II (Horário Sentido Capão Raso)/n511 - São Francisco (Sentido São Francisco)/n512 - Itamarati (Sentido Itamarati)/n513 - Hauer / Boqueirão (Sentido Terminal Boqueirão)/n621 - Fanny (Sentido Terminal  Capão Raso)/n519 - Mad. S. Francisco / Iguape (Sentido S. Cercado)</name><description>ID: 300524&lt;br/&gt;Tipo: INTERMEDIÁRIO&lt;br/&gt;Distância: 37,240 km</description><Point><coordinates>-49.249394,-25.483870,0</coordinates></Point></Placemark><Placemark><name>101 - 150205 - 020 - Interbairros II (Horário - Sentido Terminal  Capão Raso)/n511 - São Francisco (Sentido São Francisco)/n512 - Itamarati (Sentido Itamarati)/n513 - Hauer/Boqueirão (Sentido Terminal Boqueirão)/n519 - Mad. S. Francisco / Iguape (Sentido S. Cercado)/n621 - Fanny (Sentido Terminal  Capão Raso</name><description>ID: 300525&lt;br/&gt;Tipo: INTERMEDIÁRIO&lt;br/&gt;Distância: 37,554 km</description><Point><coordinates>-49.251993,-25.484916,0</coordinates></Point></Placemark><Placemark><name>102 - 150206 - 020 - Interbairros II (Horário - Sentido Capão Raso)/n512 - Itamarati/n513 - Hauer / Boqueirão</name><description>ID: 300526&lt;br/&gt;Tipo: INTERMEDIÁRIO&lt;br/&gt;Distância: 37,965 km</description><Point><coordinates>-49.255710,-25.486440,0</coordinates></Point></Placemark><Placemark><name>103 - 150207 - 020 - Interbairros II (Horário - Sentido Capão Raso)/n512 - Itamarati (Sentido Itamarati)</name><description>ID: 300527&lt;br/&gt;Tipo: INTERMEDIÁRIO&lt;br/&gt;Distância: 38,095 km</description><Point><coordinates>-49.256958,-25.487495,0</coordinates></Point></Placemark><Placemark><name>104 - 150209 - 020 - Interbairros II (Horário - Sentido Capão Raso)/n512 - Itamarati (Sentido Itamarati)</name><description>ID: 300528&lt;br/&gt;Tipo: INTERMEDIÁRIO&lt;br/&gt;Distância: 38,433 km</description><Point><coordinates>-49.255755,-25.490002,0</coordinates></Point></Placemark><Placemark><name>105 - 150211 - 020-Interbairros II (Horário - Sentido Capão Raso)/n512 - Itamarati (Sentido bairro)</name><description>ID: 300529&lt;br/&gt;Tipo: INTERMEDIÁRIO&lt;br/&gt;Distância: 38,736 km</description><Point><coordinates>-49.257001,-25.491399,0</coordinates></Point></Placemark><Placemark><name>106 - 150213 - 020 - Interbairros II (Horário - Sentido Capão Raso)/n512 - Itamarati (Sentido Itamarati)</name><description>ID: 300530&lt;br/&gt;Tipo: INTERMEDIÁRIO&lt;br/&gt;Distância: 39,020 km</description><Point><coordinates>-49.259629,-25.492413,0</coordinates></Point></Placemark><Placemark><name>107 - 150216 - 020 - Interbairros II (Horário - Sentido Capão Raso)</name><description>ID: 300531&lt;br/&gt;Tipo: INTERMEDIÁRIO&lt;br/&gt;Distância: 39,395 km</description><Point><coordinates>-49.263292,-25.493896,0</coordinates></Point></Placemark><Placemark><name>108 - 150218 - 020 - Interbairros II (Horário - Sentido Capão Raso)</name><description>ID: 300532&lt;br/&gt;Tipo: INTERMEDIÁRIO&lt;br/&gt;Distância: 39,759 km</description><Point><coordinates>-49.266737,-25.495131,0</coordinates></Point></Placemark><Placemark><name>109 - 150075 - 020 - Interbairros II (Horário - Sentido Capão Raso)/n629 - Alto Boqueirão (Sentido Terminal Capão Raso)</name><description>ID: 300533&lt;br/&gt;Tipo: INTERMEDIÁRIO&lt;br/&gt;Distância: 40,299 km</description><Point><coordinates>-49.271682,-25.496509,0</coordinates></Point></Placemark><Placemark><name>110 - 150219 - 020 - Interbairros II (Horário - Sentido Capão Raso)/n689 - Mad. S. Pedro / Rio Negro (Sentido Pç. Rui Barbosa)</name><description>ID: 300534&lt;br/&gt;Tipo: INTERMEDIÁRIO&lt;br/&gt;Distância: 41,040 km</description><Point><coordinates>-49.278792,-25.494698,0</coordinates></Point></Placemark><Placemark><name>111 - 150106 - 020 - Interbairros II (Horário - Sentido Terminal  Capão Raso)/n629 - Alto Boqueirão (Sentido Terminal Capão Raso)/n657 -  Xaxim / C. Raso (Sentido Terminal Capão Raso)/n666 - Novo Mundo (sentido Praça  Rui Barbosa)</name><description>ID: 300535&lt;br/&gt;Tipo: INTERMEDIÁRIO&lt;br/&gt;Distância: 41,383 km</description><Point><coordinates>-49.282067,-25.494404,0</coordinates></Point></Placemark><Placemark><name>112 - 150107 - 020 - Interbairros II (Horário - Sentido Terminal  Capão Raso)/n629 - Alto Boqueirão (Sentido Terminal Capão Raso)/n657 - Xaxim / C. Raso (Sentido Terminal Capão Raso)/n666 - Novo Mundo (sentido Praça Rui Barbosa)</name><description>ID: 300536&lt;br/&gt;Tipo: INTERMEDIÁRIO&lt;br/&gt;Distância: 41,704 km</description><Point><coordinates>-49.285269,-25.494590,0</coordinates></Point></Placemark><Placemark><name>113 - 150108 - 020 - Interbairros II (Horário) Sentido Capão Raso)/n621 - Fanny/n624 - Vila São Pedro (Sentido Vila São Pedro)/n629 - Alto Boqueirão (Sentido Terminal Capão Raso)/n657- Xaxim / C. Raso (Sentido Capão Raso)</name><description>ID: 300537&lt;br/&gt;Tipo: INTERMEDIÁRIO&lt;br/&gt;Distância: 42,357 km</description><Point><coordinates>-49.291139,-25.494948,0</coordinates></Point></Placemark><Placemark><name>114 - 104805 - Terminal Capão Raso - /n020 - Interbairros II (Horário)/n027 - C.Raso/C. do Siqueira (Sentido Campina do Siqueira).</name><description>ID: 300425&lt;br/&gt;Tipo: OBRIGATÓRIO&lt;br/&gt;Distância: 42,981 km</description><Point><coordinates>-49.293082,-25.492282,0</coordinates></Point></Placemark></Document></kml>