<?xml version='1.0' encoding='utf-8'?>
<gpx version="1.1" creator="Conversor" xmlns="http://www.topografix.com/GPX/1/1" xmlns:xsi="http://www.w3.org/2001/XMLSchema-instance" xsi:schemaLocation="http://www.topografix.com/GPX/1/1 http://www.topografix.com/GPX/1/1/gpx.xsd"><metadata><name>020-interbairros_ii-circular</name></metadata><trk><name>020-interbairros_ii-circular</name><trkseg><trkpt lat="-25.492281" lon="-49.293103" /><trkpt lat="-25.491526" lon="-49.293193" /><trkpt lat="-25.491572" lon="-49.293684" /><trkpt lat="-25.491620" lon="-49.293842" /><trkpt lat="-25.491644" lon="-49.295450" /><trkpt lat="-25.491662" lon="-49.296830" /><trkpt lat="-25.491672" lon="-49.298268" /><trkpt lat="-25.491680" lon="-49.299644" /><trkpt lat="-25.490771" lon="-49.299644" /><trkpt lat="-25.489769" lon="-49.299659" /><trkpt lat="-25.489008" lon="-49.299647" /><trkpt lat="-25.487287" lon="-49.299640" /><trkpt lat="-25.485712" lon="-49.299637" /><trkpt lat="-25.485599" lon="-49.299651" /><trkpt lat="-25.485035" lon="-49.299653" /><trkpt lat="-25.484383" lon="-49.299679" /><trkpt lat="-25.484348" lon="-49.299669" /><trkpt lat="-25.484313" lon="-49.299646" /><trkpt lat="-25.484287" lon="-49.299564" /><trkpt lat="-25.484274" lon="-49.299406" /><trkpt lat="-25.484257" lon="-49.298787" /><trkpt lat="-25.484256" lon="-49.298325" /><trkpt lat="-25.484065" lon="-49.298320" /><trkpt lat="-25.483800" lon="-49.298312" /><trkpt lat="-25.483512" lon="-49.298320" /><trkpt lat="-25.482814" lon="-49.298324" /><trkpt lat="-25.482601" lon="-49.298366" /><trkpt lat="-25.482420" lon="-49.298367" /><trkpt lat="-25.481601" lon="-49.298383" /><trkpt lat="-25.481189" lon="-49.298394" /><trkpt lat="-25.480980" lon="-49.298396" /><trkpt lat="-25.480767" lon="-49.298402" /><trkpt lat="-25.479380" lon="-49.298416" /><trkpt lat="-25.479365" lon="-49.296883" /><trkpt lat="-25.477939" lon="-49.296925" /><trkpt lat="-25.476844" lon="-49.296945" /><trkpt lat="-25.475185" lon="-49.296990" /><trkpt lat="-25.475063" lon="-49.296994" /><trkpt lat="-25.474578" lon="-49.297029" /><trkpt lat="-25.474325" lon="-49.297014" /><trkpt lat="-25.473509" lon="-49.297042" /><trkpt lat="-25.472448" lon="-49.297079" /><trkpt lat="-25.472329" lon="-49.297066" /><trkpt lat="-25.471704" lon="-49.298871" /><trkpt lat="-25.471617" lon="-49.299132" /><trkpt lat="-25.471421" lon="-49.299668" /><trkpt lat="-25.471384" lon="-49.299651" /><trkpt lat="-25.471330" lon="-49.299665" /><trkpt lat="-25.471298" lon="-49.299712" /><trkpt lat="-25.471253" lon="-49.299676" /><trkpt lat="-25.471198" lon="-49.299665" /><trkpt lat="-25.471095" lon="-49.299683" /><trkpt lat="-25.470910" lon="-49.299759" /><trkpt lat="-25.470463" lon="-49.299976" /><trkpt lat="-25.470311" lon="-49.300072" /><trkpt lat="-25.469715" lon="-49.300338" /><trkpt lat="-25.469441" lon="-49.300444" /><trkpt lat="-25.468451" lon="-49.300868" /><trkpt lat="-25.468379" lon="-49.300658" /><trkpt lat="-25.468270" lon="-49.300469" /><trkpt lat="-25.467306" lon="-49.299395" /><trkpt lat="-25.467268" lon="-49.299378" /><trkpt lat="-25.467004" lon="-49.299300" /><trkpt lat="-25.466747" lon="-49.299807" /><trkpt lat="-25.466656" lon="-49.299940" /><trkpt lat="-25.466575" lon="-49.300010" /><trkpt lat="-25.466443" lon="-49.300092" /><trkpt lat="-25.466300" lon="-49.300161" /><trkpt lat="-25.465563" lon="-49.300443" /><trkpt lat="-25.465220" lon="-49.300558" /><trkpt lat="-25.465039" lon="-49.300590" /><trkpt lat="-25.464780" lon="-49.300610" /><trkpt lat="-25.464461" lon="-49.300596" /><trkpt lat="-25.464177" lon="-49.300594" /><trkpt lat="-25.464026" lon="-49.300587" /><trkpt lat="-25.463620" lon="-49.300593" /><trkpt lat="-25.463335" lon="-49.300656" /><trkpt lat="-25.463051" lon="-49.300736" /><trkpt lat="-25.462942" lon="-49.300801" /><trkpt lat="-25.462838" lon="-49.300878" /><trkpt lat="-25.462626" lon="-49.301030" /><trkpt lat="-25.462409" lon="-49.301175" /><trkpt lat="-25.462295" lon="-49.301227" /><trkpt lat="-25.461850" lon="-49.301467" /><trkpt lat="-25.461618" lon="-49.301531" /><trkpt lat="-25.461400" lon="-49.301564" /><trkpt lat="-25.461267" lon="-49.301573" /><trkpt lat="-25.461163" lon="-49.301568" /><trkpt lat="-25.461081" lon="-49.301554" /><trkpt lat="-25.460870" lon="-49.301494" /><trkpt lat="-25.460316" lon="-49.301685" /><trkpt lat="-25.460012" lon="-49.301796" /><trkpt lat="-25.459422" lon="-49.302037" /><trkpt lat="-25.458771" lon="-49.302266" /><trkpt lat="-25.458282" lon="-49.302421" /><trkpt lat="-25.457556" lon="-49.302663" /><trkpt lat="-25.456841" lon="-49.302917" /><trkpt lat="-25.456107" lon="-49.303207" /><trkpt lat="-25.454960" lon="-49.303602" /><trkpt lat="-25.454052" lon="-49.303899" /><trkpt lat="-25.453239" lon="-49.304166" /><trkpt lat="-25.452940" lon="-49.304251" /><trkpt lat="-25.452685" lon="-49.304291" /><trkpt lat="-25.452428" lon="-49.304290" /><trkpt lat="-25.452294" lon="-49.304378" /><trkpt lat="-25.452216" lon="-49.304348" /><trkpt lat="-25.452139" lon="-49.304353" /><trkpt lat="-25.452066" lon="-49.304395" /><trkpt lat="-25.452023" lon="-49.304442" /><trkpt lat="-25.452000" lon="-49.304487" /><trkpt lat="-25.451758" lon="-49.304583" /><trkpt lat="-25.451629" lon="-49.304628" /><trkpt lat="-25.451532" lon="-49.304640" /><trkpt lat="-25.450996" lon="-49.304601" /><trkpt lat="-25.450653" lon="-49.304565" /><trkpt lat="-25.450426" lon="-49.304551" /><trkpt lat="-25.450151" lon="-49.304530" /><trkpt lat="-25.449829" lon="-49.304536" /><trkpt lat="-25.449542" lon="-49.304568" /><trkpt lat="-25.449385" lon="-49.304595" /><trkpt lat="-25.449218" lon="-49.304626" /><trkpt lat="-25.449028" lon="-49.304641" /><trkpt lat="-25.448798" lon="-49.304664" /><trkpt lat="-25.448388" lon="-49.304677" /><trkpt lat="-25.447963" lon="-49.304682" /><trkpt lat="-25.447781" lon="-49.304691" /><trkpt lat="-25.447503" lon="-49.304689" /><trkpt lat="-25.447184" lon="-49.304682" /><trkpt lat="-25.446782" lon="-49.304692" /><trkpt lat="-25.445872" lon="-49.304712" /><trkpt lat="-25.445583" lon="-49.304697" /><trkpt lat="-25.445360" lon="-49.304700" /><trkpt lat="-25.445133" lon="-49.304715" /><trkpt lat="-25.444546" lon="-49.304749" /><trkpt lat="-25.444404" lon="-49.304775" /><trkpt lat="-25.444049" lon="-49.304822" /><trkpt lat="-25.443893" lon="-49.304843" /><trkpt lat="-25.443710" lon="-49.304883" /><trkpt lat="-25.443154" lon="-49.305073" /><trkpt lat="-25.442651" lon="-49.305291" /><trkpt lat="-25.442068" lon="-49.305601" /><trkpt lat="-25.441132" lon="-49.306120" /><trkpt lat="-25.440605" lon="-49.306431" /><trkpt lat="-25.439913" lon="-49.306802" /><trkpt lat="-25.439538" lon="-49.306990" /><trkpt lat="-25.439158" lon="-49.307169" /><trkpt lat="-25.438680" lon="-49.307411" /><trkpt lat="-25.438173" lon="-49.307605" /><trkpt lat="-25.437680" lon="-49.307799" /><trkpt lat="-25.437445" lon="-49.307921" /><trkpt lat="-25.436499" lon="-49.308354" /><trkpt lat="-25.436453" lon="-49.308262" /><trkpt lat="-25.436394" lon="-49.308183" /><trkpt lat="-25.436189" lon="-49.307977" /><trkpt lat="-25.435966" lon="-49.307368" /><trkpt lat="-25.435742" lon="-49.306768" /><trkpt lat="-25.435713" lon="-49.306659" /><trkpt lat="-25.435720" lon="-49.306497" /><trkpt lat="-25.435740" lon="-49.306357" /><trkpt lat="-25.435734" lon="-49.306292" /><trkpt lat="-25.435958" lon="-49.306069" /><trkpt lat="-25.436172" lon="-49.305845" /><trkpt lat="-25.436279" lon="-49.305695" /><trkpt lat="-25.436432" lon="-49.305372" /><trkpt lat="-25.435479" lon="-49.302790" /><trkpt lat="-25.435226" lon="-49.302130" /><trkpt lat="-25.435038" lon="-49.301664" /><trkpt lat="-25.434623" lon="-49.300567" /><trkpt lat="-25.433801" lon="-49.298433" /><trkpt lat="-25.433127" lon="-49.298751" /><trkpt lat="-25.432943" lon="-49.298832" /><trkpt lat="-25.432775" lon="-49.298913" /><trkpt lat="-25.432454" lon="-49.299081" /><trkpt lat="-25.432028" lon="-49.299295" /><trkpt lat="-25.431598" lon="-49.299510" /><trkpt lat="-25.430951" lon="-49.299839" /><trkpt lat="-25.430578" lon="-49.300028" /><trkpt lat="-25.430086" lon="-49.300276" /><trkpt lat="-25.429579" lon="-49.300543" /><trkpt lat="-25.428885" lon="-49.300914" /><trkpt lat="-25.428828" lon="-49.300879" /><trkpt lat="-25.428748" lon="-49.300855" /><trkpt lat="-25.428551" lon="-49.300780" /><trkpt lat="-25.428061" lon="-49.300608" /><trkpt lat="-25.427571" lon="-49.300427" /><trkpt lat="-25.427296" lon="-49.300330" /><trkpt lat="-25.427183" lon="-49.300307" /><trkpt lat="-25.427076" lon="-49.300301" /><trkpt lat="-25.426968" lon="-49.300315" /><trkpt lat="-25.426773" lon="-49.300388" /><trkpt lat="-25.426573" lon="-49.300465" /><trkpt lat="-25.426396" lon="-49.300543" /><trkpt lat="-25.426075" lon="-49.299647" /><trkpt lat="-25.425960" lon="-49.299202" /><trkpt lat="-25.425900" lon="-49.298892" /><trkpt lat="-25.425836" lon="-49.298516" /><trkpt lat="-25.425764" lon="-49.297986" /><trkpt lat="-25.425731" lon="-49.297880" /><trkpt lat="-25.425670" lon="-49.297749" /><trkpt lat="-25.425611" lon="-49.297635" /><trkpt lat="-25.425331" lon="-49.297254" /><trkpt lat="-25.425179" lon="-49.297023" /><trkpt lat="-25.425126" lon="-49.296921" /><trkpt lat="-25.424969" lon="-49.296377" /><trkpt lat="-25.424924" lon="-49.296259" /><trkpt lat="-25.424850" lon="-49.296109" /><trkpt lat="-25.424792" lon="-49.296026" /><trkpt lat="-25.424629" lon="-49.295824" /><trkpt lat="-25.423633" lon="-49.294525" /><trkpt lat="-25.423493" lon="-49.294338" /><trkpt lat="-25.423385" lon="-49.294186" /><trkpt lat="-25.423408" lon="-49.294138" /><trkpt lat="-25.423581" lon="-49.294054" /><trkpt lat="-25.423889" lon="-49.293914" /><trkpt lat="-25.424370" lon="-49.293691" /><trkpt lat="-25.424898" lon="-49.293426" /><trkpt lat="-25.425532" lon="-49.293161" /><trkpt lat="-25.425694" lon="-49.293093" /><trkpt lat="-25.425413" lon="-49.292805" /><trkpt lat="-25.425263" lon="-49.292520" /><trkpt lat="-25.425087" lon="-49.292012" /><trkpt lat="-25.424941" lon="-49.291901" /><trkpt lat="-25.424832" lon="-49.291703" /><trkpt lat="-25.424683" lon="-49.291478" /><trkpt lat="-25.424231" lon="-49.290869" /><trkpt lat="-25.423531" lon="-49.290653" /><trkpt lat="-25.423067" lon="-49.290506" /><trkpt lat="-25.422706" lon="-49.290426" /><trkpt lat="-25.422497" lon="-49.291227" /><trkpt lat="-25.422238" lon="-49.291548" /><trkpt lat="-25.422038" lon="-49.291806" /><trkpt lat="-25.421983" lon="-49.291756" /><trkpt lat="-25.421832" lon="-49.291689" /><trkpt lat="-25.421249" lon="-49.291518" /><trkpt lat="-25.420623" lon="-49.291381" /><trkpt lat="-25.419694" lon="-49.291155" /><trkpt lat="-25.418771" lon="-49.290898" /><trkpt lat="-25.418220" lon="-49.290748" /><trkpt lat="-25.417677" lon="-49.290610" /><trkpt lat="-25.417483" lon="-49.290558" /><trkpt lat="-25.417318" lon="-49.290491" /><trkpt lat="-25.416900" lon="-49.290383" /><trkpt lat="-25.416332" lon="-49.290238" /><trkpt lat="-25.415360" lon="-49.289990" /><trkpt lat="-25.414567" lon="-49.289789" /><trkpt lat="-25.414305" lon="-49.289738" /><trkpt lat="-25.414302" lon="-49.289693" /><trkpt lat="-25.414278" lon="-49.289656" /><trkpt lat="-25.414242" lon="-49.289645" /><trkpt lat="-25.414210" lon="-49.289647" /><trkpt lat="-25.414188" lon="-49.289660" /><trkpt lat="-25.414175" lon="-49.289687" /><trkpt lat="-25.414171" lon="-49.289718" /><trkpt lat="-25.414178" lon="-49.289749" /><trkpt lat="-25.414208" lon="-49.289779" /><trkpt lat="-25.414143" lon="-49.289927" /><trkpt lat="-25.414050" lon="-49.290092" /><trkpt lat="-25.413979" lon="-49.290190" /><trkpt lat="-25.413894" lon="-49.290294" /><trkpt lat="-25.413775" lon="-49.290418" /><trkpt lat="-25.413474" lon="-49.290656" /><trkpt lat="-25.412632" lon="-49.291320" /><trkpt lat="-25.412466" lon="-49.291452" /><trkpt lat="-25.412383" lon="-49.291501" /><trkpt lat="-25.412012" lon="-49.291686" /><trkpt lat="-25.411836" lon="-49.291749" /><trkpt lat="-25.411053" lon="-49.292021" /><trkpt lat="-25.410916" lon="-49.292069" /><trkpt lat="-25.410857" lon="-49.292070" /><trkpt lat="-25.410816" lon="-49.292060" /><trkpt lat="-25.410756" lon="-49.292039" /><trkpt lat="-25.410622" lon="-49.291968" /><trkpt lat="-25.410439" lon="-49.291942" /><trkpt lat="-25.410280" lon="-49.291912" /><trkpt lat="-25.410080" lon="-49.291891" /><trkpt lat="-25.409922" lon="-49.291864" /><trkpt lat="-25.409759" lon="-49.291829" /><trkpt lat="-25.409546" lon="-49.291761" /><trkpt lat="-25.409390" lon="-49.291691" /><trkpt lat="-25.409251" lon="-49.291604" /><trkpt lat="-25.409054" lon="-49.291439" /><trkpt lat="-25.408938" lon="-49.291596" /><trkpt lat="-25.408774" lon="-49.291799" /><trkpt lat="-25.408614" lon="-49.291960" /><trkpt lat="-25.408481" lon="-49.292072" /><trkpt lat="-25.408231" lon="-49.292255" /><trkpt lat="-25.408051" lon="-49.292378" /><trkpt lat="-25.407926" lon="-49.292450" /><trkpt lat="-25.407827" lon="-49.292455" /><trkpt lat="-25.407583" lon="-49.292454" /><trkpt lat="-25.407505" lon="-49.292415" /><trkpt lat="-25.407185" lon="-49.292233" /><trkpt lat="-25.406863" lon="-49.292034" /><trkpt lat="-25.406589" lon="-49.291870" /><trkpt lat="-25.406074" lon="-49.291494" /><trkpt lat="-25.405584" lon="-49.291128" /><trkpt lat="-25.405027" lon="-49.290713" /><trkpt lat="-25.404645" lon="-49.290399" /><trkpt lat="-25.404188" lon="-49.290015" /><trkpt lat="-25.403804" lon="-49.289657" /><trkpt lat="-25.403662" lon="-49.289500" /><trkpt lat="-25.403592" lon="-49.289408" /><trkpt lat="-25.403362" lon="-49.289103" /><trkpt lat="-25.402772" lon="-49.288372" /><trkpt lat="-25.402479" lon="-49.288080" /><trkpt lat="-25.402044" lon="-49.287649" /><trkpt lat="-25.401563" lon="-49.287105" /><trkpt lat="-25.401248" lon="-49.287458" /><trkpt lat="-25.401091" lon="-49.287576" /><trkpt lat="-25.400864" lon="-49.287708" /><trkpt lat="-25.400082" lon="-49.288045" /><trkpt lat="-25.400005" lon="-49.288070" /><trkpt lat="-25.399879" lon="-49.288087" /><trkpt lat="-25.399553" lon="-49.288098" /><trkpt lat="-25.398594" lon="-49.288165" /><trkpt lat="-25.397928" lon="-49.288240" /><trkpt lat="-25.397741" lon="-49.288221" /><trkpt lat="-25.397637" lon="-49.288200" /><trkpt lat="-25.397327" lon="-49.288063" /><trkpt lat="-25.397014" lon="-49.287909" /><trkpt lat="-25.396853" lon="-49.287832" /><trkpt lat="-25.396603" lon="-49.287735" /><trkpt lat="-25.396278" lon="-49.287618" /><trkpt lat="-25.396268" lon="-49.287505" /><trkpt lat="-25.396240" lon="-49.287367" /><trkpt lat="-25.396136" lon="-49.287062" /><trkpt lat="-25.396039" lon="-49.286735" /><trkpt lat="-25.395996" lon="-49.286568" /><trkpt lat="-25.395962" lon="-49.286384" /><trkpt lat="-25.395920" lon="-49.286196" /><trkpt lat="-25.395874" lon="-49.286014" /><trkpt lat="-25.395849" lon="-49.285915" /><trkpt lat="-25.395812" lon="-49.285838" /><trkpt lat="-25.395775" lon="-49.285783" /><trkpt lat="-25.395735" lon="-49.285746" /><trkpt lat="-25.395664" lon="-49.285704" /><trkpt lat="-25.395580" lon="-49.285655" /><trkpt lat="-25.395011" lon="-49.285328" /><trkpt lat="-25.394871" lon="-49.285233" /><trkpt lat="-25.394631" lon="-49.285050" /><trkpt lat="-25.394178" lon="-49.284658" /><trkpt lat="-25.393954" lon="-49.284463" /><trkpt lat="-25.393864" lon="-49.284382" /><trkpt lat="-25.393730" lon="-49.284242" /><trkpt lat="-25.393536" lon="-49.284036" /><trkpt lat="-25.393249" lon="-49.283677" /><trkpt lat="-25.393046" lon="-49.283407" /><trkpt lat="-25.392937" lon="-49.283273" /><trkpt lat="-25.392837" lon="-49.283173" /><trkpt lat="-25.392722" lon="-49.283079" /><trkpt lat="-25.392663" lon="-49.283043" /><trkpt lat="-25.392504" lon="-49.282993" /><trkpt lat="-25.392376" lon="-49.282973" /><trkpt lat="-25.392232" lon="-49.282966" /><trkpt lat="-25.392087" lon="-49.282968" /><trkpt lat="-25.391919" lon="-49.282979" /><trkpt lat="-25.391000" lon="-49.283192" /><trkpt lat="-25.390864" lon="-49.283237" /><trkpt lat="-25.390782" lon="-49.283278" /><trkpt lat="-25.390672" lon="-49.283362" /><trkpt lat="-25.390511" lon="-49.283509" /><trkpt lat="-25.390314" lon="-49.283691" /><trkpt lat="-25.390250" lon="-49.283742" /><trkpt lat="-25.390172" lon="-49.283786" /><trkpt lat="-25.390033" lon="-49.283824" /><trkpt lat="-25.389916" lon="-49.283844" /><trkpt lat="-25.389818" lon="-49.283845" /><trkpt lat="-25.389730" lon="-49.283835" /><trkpt lat="-25.389659" lon="-49.283818" /><trkpt lat="-25.389590" lon="-49.283793" /><trkpt lat="-25.389495" lon="-49.283750" /><trkpt lat="-25.389410" lon="-49.283688" /><trkpt lat="-25.389280" lon="-49.283564" /><trkpt lat="-25.389091" lon="-49.283404" /><trkpt lat="-25.388942" lon="-49.283285" /><trkpt lat="-25.388851" lon="-49.283233" /><trkpt lat="-25.388739" lon="-49.283184" /><trkpt lat="-25.388587" lon="-49.283132" /><trkpt lat="-25.388386" lon="-49.283083" /><trkpt lat="-25.387681" lon="-49.282929" /><trkpt lat="-25.387419" lon="-49.282856" /><trkpt lat="-25.386458" lon="-49.282522" /><trkpt lat="-25.385969" lon="-49.282383" /><trkpt lat="-25.385733" lon="-49.282282" /><trkpt lat="-25.385731" lon="-49.282229" /><trkpt lat="-25.385716" lon="-49.282180" /><trkpt lat="-25.385662" lon="-49.282127" /><trkpt lat="-25.385593" lon="-49.282109" /><trkpt lat="-25.385580" lon="-49.281883" /><trkpt lat="-25.385514" lon="-49.281406" /><trkpt lat="-25.385425" lon="-49.280771" /><trkpt lat="-25.385394" lon="-49.280641" /><trkpt lat="-25.385380" lon="-49.280495" /><trkpt lat="-25.385379" lon="-49.280396" /><trkpt lat="-25.385393" lon="-49.280067" /><trkpt lat="-25.385411" lon="-49.279892" /><trkpt lat="-25.385422" lon="-49.279688" /><trkpt lat="-25.385409" lon="-49.279654" /><trkpt lat="-25.385412" lon="-49.279616" /><trkpt lat="-25.385430" lon="-49.279578" /><trkpt lat="-25.385461" lon="-49.279559" /><trkpt lat="-25.385493" lon="-49.279556" /><trkpt lat="-25.385608" lon="-49.279386" /><trkpt lat="-25.385715" lon="-49.279222" /><trkpt lat="-25.385864" lon="-49.278998" /><trkpt lat="-25.386004" lon="-49.278731" /><trkpt lat="-25.386227" lon="-49.278050" /><trkpt lat="-25.386323" lon="-49.277556" /><trkpt lat="-25.386391" lon="-49.276959" /><trkpt lat="-25.386468" lon="-49.276658" /><trkpt lat="-25.386545" lon="-49.276507" /><trkpt lat="-25.386725" lon="-49.276209" /><trkpt lat="-25.387035" lon="-49.275814" /><trkpt lat="-25.387442" lon="-49.275329" /><trkpt lat="-25.387661" lon="-49.274969" /><trkpt lat="-25.387779" lon="-49.274573" /><trkpt lat="-25.387988" lon="-49.273977" /><trkpt lat="-25.388145" lon="-49.273459" /><trkpt lat="-25.388397" lon="-49.272735" /><trkpt lat="-25.388552" lon="-49.272418" /><trkpt lat="-25.388767" lon="-49.272181" /><trkpt lat="-25.388992" lon="-49.272121" /><trkpt lat="-25.389242" lon="-49.272132" /><trkpt lat="-25.389816" lon="-49.272235" /><trkpt lat="-25.390708" lon="-49.272376" /><trkpt lat="-25.392642" lon="-49.272710" /><trkpt lat="-25.393701" lon="-49.272807" /><trkpt lat="-25.394486" lon="-49.272832" /><trkpt lat="-25.394511" lon="-49.272563" /><trkpt lat="-25.394591" lon="-49.272128" /><trkpt lat="-25.394754" lon="-49.271314" /><trkpt lat="-25.394526" lon="-49.271216" /><trkpt lat="-25.394364" lon="-49.271092" /><trkpt lat="-25.394251" lon="-49.270945" /><trkpt lat="-25.394156" lon="-49.270778" /><trkpt lat="-25.394033" lon="-49.270249" /><trkpt lat="-25.393919" lon="-49.270043" /><trkpt lat="-25.393727" lon="-49.269885" /><trkpt lat="-25.393051" lon="-49.269580" /><trkpt lat="-25.392507" lon="-49.269327" /><trkpt lat="-25.392215" lon="-49.269075" /><trkpt lat="-25.392041" lon="-49.268817" /><trkpt lat="-25.391934" lon="-49.268568" /><trkpt lat="-25.391788" lon="-49.267831" /><trkpt lat="-25.391640" lon="-49.267593" /><trkpt lat="-25.391435" lon="-49.267458" /><trkpt lat="-25.391163" lon="-49.267415" /><trkpt lat="-25.390272" lon="-49.267447" /><trkpt lat="-25.389278" lon="-49.267500" /><trkpt lat="-25.388669" lon="-49.267537" /><trkpt lat="-25.388284" lon="-49.267513" /><trkpt lat="-25.388187" lon="-49.267036" /><trkpt lat="-25.388190" lon="-49.266716" /><trkpt lat="-25.388367" lon="-49.265812" /><trkpt lat="-25.388558" lon="-49.265275" /><trkpt lat="-25.388892" lon="-49.264404" /><trkpt lat="-25.389055" lon="-49.263980" /><trkpt lat="-25.389223" lon="-49.263533" /><trkpt lat="-25.389388" lon="-49.263083" /><trkpt lat="-25.389528" lon="-49.262703" /><trkpt lat="-25.389824" lon="-49.261884" /><trkpt lat="-25.390047" lon="-49.261257" /><trkpt lat="-25.390154" lon="-49.261005" /><trkpt lat="-25.390246" lon="-49.260763" /><trkpt lat="-25.390262" lon="-49.260556" /><trkpt lat="-25.390260" lon="-49.259936" /><trkpt lat="-25.390277" lon="-49.259106" /><trkpt lat="-25.390291" lon="-49.258817" /><trkpt lat="-25.390310" lon="-49.258555" /><trkpt lat="-25.390306" lon="-49.258443" /><trkpt lat="-25.390305" lon="-49.258243" /><trkpt lat="-25.390305" lon="-49.258104" /><trkpt lat="-25.390319" lon="-49.257965" /><trkpt lat="-25.390346" lon="-49.257823" /><trkpt lat="-25.390408" lon="-49.257681" /><trkpt lat="-25.390527" lon="-49.257469" /><trkpt lat="-25.390785" lon="-49.257157" /><trkpt lat="-25.390956" lon="-49.256938" /><trkpt lat="-25.391132" lon="-49.256717" /><trkpt lat="-25.391288" lon="-49.256516" /><trkpt lat="-25.391657" lon="-49.256031" /><trkpt lat="-25.391953" lon="-49.255631" /><trkpt lat="-25.392255" lon="-49.255282" /><trkpt lat="-25.392564" lon="-49.254916" /><trkpt lat="-25.392717" lon="-49.254690" /><trkpt lat="-25.392843" lon="-49.254475" /><trkpt lat="-25.393098" lon="-49.254047" /><trkpt lat="-25.393265" lon="-49.253785" /><trkpt lat="-25.393443" lon="-49.253550" /><trkpt lat="-25.393770" lon="-49.253121" /><trkpt lat="-25.394133" lon="-49.252647" /><trkpt lat="-25.394760" lon="-49.251820" /><trkpt lat="-25.394861" lon="-49.251704" /><trkpt lat="-25.395204" lon="-49.251338" /><trkpt lat="-25.395536" lon="-49.250880" /><trkpt lat="-25.395822" lon="-49.250490" /><trkpt lat="-25.396365" lon="-49.250988" /><trkpt lat="-25.396917" lon="-49.251486" /><trkpt lat="-25.397215" lon="-49.251093" /><trkpt lat="-25.397501" lon="-49.250714" /><trkpt lat="-25.397926" lon="-49.251103" /><trkpt lat="-25.398330" lon="-49.251484" /><trkpt lat="-25.398697" lon="-49.251857" /><trkpt lat="-25.399010" lon="-49.252177" /><trkpt lat="-25.399128" lon="-49.252396" /><trkpt lat="-25.399229" lon="-49.252674" /><trkpt lat="-25.399296" lon="-49.252958" /><trkpt lat="-25.399401" lon="-49.253507" /><trkpt lat="-25.399867" lon="-49.253407" /><trkpt lat="-25.400297" lon="-49.253315" /><trkpt lat="-25.401228" lon="-49.253150" /><trkpt lat="-25.401455" lon="-49.253118" /><trkpt lat="-25.401700" lon="-49.253070" /><trkpt lat="-25.401804" lon="-49.253036" /><trkpt lat="-25.401896" lon="-49.252983" /><trkpt lat="-25.402065" lon="-49.252816" /><trkpt lat="-25.402255" lon="-49.252591" /><trkpt lat="-25.402778" lon="-49.251954" /><trkpt lat="-25.403399" lon="-49.251123" /><trkpt lat="-25.403722" lon="-49.250726" /><trkpt lat="-25.404055" lon="-49.250320" /><trkpt lat="-25.404586" lon="-49.250812" /><trkpt lat="-25.405081" lon="-49.251268" /><trkpt lat="-25.405565" lon="-49.251712" /><trkpt lat="-25.406032" lon="-49.252145" /><trkpt lat="-25.406097" lon="-49.252083" /><trkpt lat="-25.406261" lon="-49.252233" /><trkpt lat="-25.406486" lon="-49.252445" /><trkpt lat="-25.406788" lon="-49.252726" /><trkpt lat="-25.407021" lon="-49.252914" /><trkpt lat="-25.407174" lon="-49.252989" /><trkpt lat="-25.407294" lon="-49.253041" /><trkpt lat="-25.407337" lon="-49.253043" /><trkpt lat="-25.407423" lon="-49.252934" /><trkpt lat="-25.407311" lon="-49.252813" /><trkpt lat="-25.407121" lon="-49.252633" /><trkpt lat="-25.406843" lon="-49.252370" /><trkpt lat="-25.406368" lon="-49.251918" /><trkpt lat="-25.406337" lon="-49.251884" /><trkpt lat="-25.406576" lon="-49.251685" /><trkpt lat="-25.406845" lon="-49.251458" /><trkpt lat="-25.407215" lon="-49.251137" /><trkpt lat="-25.407638" lon="-49.250772" /><trkpt lat="-25.408056" lon="-49.250408" /><trkpt lat="-25.408234" lon="-49.250255" /><trkpt lat="-25.409025" lon="-49.249573" /><trkpt lat="-25.409938" lon="-49.248785" /><trkpt lat="-25.409981" lon="-49.248775" /><trkpt lat="-25.410054" lon="-49.248725" /><trkpt lat="-25.410116" lon="-49.248684" /><trkpt lat="-25.410425" lon="-49.248428" /><trkpt lat="-25.410821" lon="-49.248071" /><trkpt lat="-25.411146" lon="-49.247776" /><trkpt lat="-25.411217" lon="-49.247685" /><trkpt lat="-25.411323" lon="-49.247574" /><trkpt lat="-25.412426" lon="-49.246594" /><trkpt lat="-25.412742" lon="-49.246363" /><trkpt lat="-25.412799" lon="-49.246318" /><trkpt lat="-25.412864" lon="-49.246279" /><trkpt lat="-25.412983" lon="-49.246230" /><trkpt lat="-25.413043" lon="-49.246233" /><trkpt lat="-25.413127" lon="-49.246246" /><trkpt lat="-25.413251" lon="-49.246283" /><trkpt lat="-25.413323" lon="-49.246310" /><trkpt lat="-25.413439" lon="-49.246377" /><trkpt lat="-25.413512" lon="-49.246433" /><trkpt lat="-25.413732" lon="-49.246675" /><trkpt lat="-25.414644" lon="-49.247667" /><trkpt lat="-25.414870" lon="-49.247683" /><trkpt lat="-25.415384" lon="-49.247746" /><trkpt lat="-25.416049" lon="-49.247823" /><trkpt lat="-25.416406" lon="-49.247850" /><trkpt lat="-25.416735" lon="-49.247877" /><trkpt lat="-25.417374" lon="-49.247926" /><trkpt lat="-25.417486" lon="-49.246640" /><trkpt lat="-25.417533" lon="-49.246001" /><trkpt lat="-25.417581" lon="-49.245393" /><trkpt lat="-25.417725" lon="-49.243771" /><trkpt lat="-25.417748" lon="-49.243584" /><trkpt lat="-25.417823" lon="-49.242639" /><trkpt lat="-25.417923" lon="-49.241494" /><trkpt lat="-25.417943" lon="-49.241139" /><trkpt lat="-25.418123" lon="-49.241030" /><trkpt lat="-25.418619" lon="-49.240720" /><trkpt lat="-25.418940" lon="-49.240522" /><trkpt lat="-25.419646" lon="-49.240095" /><trkpt lat="-25.419815" lon="-49.240001" /><trkpt lat="-25.419905" lon="-49.239952" /><trkpt lat="-25.420107" lon="-49.239862" /><trkpt lat="-25.420207" lon="-49.239831" /><trkpt lat="-25.420287" lon="-49.239812" /><trkpt lat="-25.420415" lon="-49.239803" /><trkpt lat="-25.420572" lon="-49.239812" /><trkpt lat="-25.420642" lon="-49.239827" /><trkpt lat="-25.420748" lon="-49.239865" /><trkpt lat="-25.420928" lon="-49.239982" /><trkpt lat="-25.421689" lon="-49.240572" /><trkpt lat="-25.421832" lon="-49.240698" /><trkpt lat="-25.422641" lon="-49.241336" /><trkpt lat="-25.422838" lon="-49.241489" /><trkpt lat="-25.423417" lon="-49.241970" /><trkpt lat="-25.423858" lon="-49.242279" /><trkpt lat="-25.424071" lon="-49.242400" /><trkpt lat="-25.424197" lon="-49.242461" /><trkpt lat="-25.424309" lon="-49.242502" /><trkpt lat="-25.424446" lon="-49.242542" /><trkpt lat="-25.424801" lon="-49.242619" /><trkpt lat="-25.424936" lon="-49.242633" /><trkpt lat="-25.425149" lon="-49.242628" /><trkpt lat="-25.425274" lon="-49.242614" /><trkpt lat="-25.425518" lon="-49.242563" /><trkpt lat="-25.426027" lon="-49.242436" /><trkpt lat="-25.426456" lon="-49.242315" /><trkpt lat="-25.427236" lon="-49.242017" /><trkpt lat="-25.427378" lon="-49.241957" /><trkpt lat="-25.427612" lon="-49.241838" /><trkpt lat="-25.427840" lon="-49.241715" /><trkpt lat="-25.428296" lon="-49.241462" /><trkpt lat="-25.428377" lon="-49.241323" /><trkpt lat="-25.428416" lon="-49.241201" /><trkpt lat="-25.428384" lon="-49.241118" /><trkpt lat="-25.428076" lon="-49.241026" /><trkpt lat="-25.427973" lon="-49.240969" /><trkpt lat="-25.427851" lon="-49.240859" /><trkpt lat="-25.427706" lon="-49.240667" /><trkpt lat="-25.427622" lon="-49.240498" /><trkpt lat="-25.427477" lon="-49.240119" /><trkpt lat="-25.427429" lon="-49.239962" /><trkpt lat="-25.427406" lon="-49.239845" /><trkpt lat="-25.427396" lon="-49.239750" /><trkpt lat="-25.427393" lon="-49.239632" /><trkpt lat="-25.427400" lon="-49.239456" /><trkpt lat="-25.427482" lon="-49.238672" /><trkpt lat="-25.427539" lon="-49.238225" /><trkpt lat="-25.427581" lon="-49.237915" /><trkpt lat="-25.427645" lon="-49.237253" /><trkpt lat="-25.427706" lon="-49.236658" /><trkpt lat="-25.427766" lon="-49.236155" /><trkpt lat="-25.427823" lon="-49.235621" /><trkpt lat="-25.427889" lon="-49.235038" /><trkpt lat="-25.427921" lon="-49.234722" /><trkpt lat="-25.427978" lon="-49.233986" /><trkpt lat="-25.428021" lon="-49.233522" /><trkpt lat="-25.428050" lon="-49.233288" /><trkpt lat="-25.428084" lon="-49.233086" /><trkpt lat="-25.428215" lon="-49.232009" /><trkpt lat="-25.428231" lon="-49.231872" /><trkpt lat="-25.428348" lon="-49.230941" /><trkpt lat="-25.428456" lon="-49.229984" /><trkpt lat="-25.428553" lon="-49.229208" /><trkpt lat="-25.428553" lon="-49.228867" /><trkpt lat="-25.428612" lon="-49.228394" /><trkpt lat="-25.428711" lon="-49.227333" /><trkpt lat="-25.428799" lon="-49.226609" /><trkpt lat="-25.428865" lon="-49.225990" /><trkpt lat="-25.428935" lon="-49.225373" /><trkpt lat="-25.428975" lon="-49.224923" /><trkpt lat="-25.429011" lon="-49.224481" /><trkpt lat="-25.429082" lon="-49.223863" /><trkpt lat="-25.429117" lon="-49.223544" /><trkpt lat="-25.429159" lon="-49.223126" /><trkpt lat="-25.429224" lon="-49.222532" /><trkpt lat="-25.429283" lon="-49.221954" /><trkpt lat="-25.429327" lon="-49.221644" /><trkpt lat="-25.429381" lon="-49.221349" /><trkpt lat="-25.429401" lon="-49.221110" /><trkpt lat="-25.429443" lon="-49.220871" /><trkpt lat="-25.429492" lon="-49.220514" /><trkpt lat="-25.429644" lon="-49.218897" /><trkpt lat="-25.429801" lon="-49.217292" /><trkpt lat="-25.429848" lon="-49.216786" /><trkpt lat="-25.430012" lon="-49.215387" /><trkpt lat="-25.430222" lon="-49.213363" /><trkpt lat="-25.430244" lon="-49.213248" /><trkpt lat="-25.430297" lon="-49.212695" /><trkpt lat="-25.430376" lon="-49.211909" /><trkpt lat="-25.430404" lon="-49.211621" /><trkpt lat="-25.430524" lon="-49.211590" /><trkpt lat="-25.430598" lon="-49.211589" /><trkpt lat="-25.430732" lon="-49.211639" /><trkpt lat="-25.431120" lon="-49.211851" /><trkpt lat="-25.431491" lon="-49.212046" /><trkpt lat="-25.431833" lon="-49.212235" /><trkpt lat="-25.431904" lon="-49.212269" /><trkpt lat="-25.432106" lon="-49.212374" /><trkpt lat="-25.432397" lon="-49.212534" /><trkpt lat="-25.432879" lon="-49.212795" /><trkpt lat="-25.433177" lon="-49.212965" /><trkpt lat="-25.433573" lon="-49.213189" /><trkpt lat="-25.433744" lon="-49.213286" /><trkpt lat="-25.433928" lon="-49.213383" /><trkpt lat="-25.434322" lon="-49.213578" /><trkpt lat="-25.434426" lon="-49.213629" /><trkpt lat="-25.434910" lon="-49.213899" /><trkpt lat="-25.433463" lon="-49.217122" /><trkpt lat="-25.434454" lon="-49.217640" /><trkpt lat="-25.435444" lon="-49.218177" /><trkpt lat="-25.435898" lon="-49.218443" /><trkpt lat="-25.436300" lon="-49.218647" /><trkpt lat="-25.436675" lon="-49.218844" /><trkpt lat="-25.436873" lon="-49.218954" /><trkpt lat="-25.437359" lon="-49.219209" /><trkpt lat="-25.437826" lon="-49.219462" /><trkpt lat="-25.438052" lon="-49.219557" /><trkpt lat="-25.438341" lon="-49.219707" /><trkpt lat="-25.437625" lon="-49.221321" /><trkpt lat="-25.438116" lon="-49.221596" /><trkpt lat="-25.438616" lon="-49.221873" /><trkpt lat="-25.439071" lon="-49.222162" /><trkpt lat="-25.439515" lon="-49.222396" /><trkpt lat="-25.439575" lon="-49.222416" /><trkpt lat="-25.439628" lon="-49.222425" /><trkpt lat="-25.439679" lon="-49.222408" /><trkpt lat="-25.439709" lon="-49.222375" /><trkpt lat="-25.439729" lon="-49.222347" /><trkpt lat="-25.439778" lon="-49.222239" /><trkpt lat="-25.440086" lon="-49.221561" /><trkpt lat="-25.440210" lon="-49.221310" /><trkpt lat="-25.440215" lon="-49.221199" /><trkpt lat="-25.440247" lon="-49.220982" /><trkpt lat="-25.440317" lon="-49.220812" /><trkpt lat="-25.440501" lon="-49.220924" /><trkpt lat="-25.440742" lon="-49.221056" /><trkpt lat="-25.441277" lon="-49.221351" /><trkpt lat="-25.441717" lon="-49.221592" /><trkpt lat="-25.442027" lon="-49.221755" /><trkpt lat="-25.443021" lon="-49.222278" /><trkpt lat="-25.443355" lon="-49.222458" /><trkpt lat="-25.444135" lon="-49.222878" /><trkpt lat="-25.444334" lon="-49.222982" /><trkpt lat="-25.444614" lon="-49.223127" /><trkpt lat="-25.445134" lon="-49.223401" /><trkpt lat="-25.445651" lon="-49.223675" /><trkpt lat="-25.445939" lon="-49.223830" /><trkpt lat="-25.446459" lon="-49.224109" /><trkpt lat="-25.446901" lon="-49.224354" /><trkpt lat="-25.446728" lon="-49.224751" /><trkpt lat="-25.446565" lon="-49.225151" /><trkpt lat="-25.447201" lon="-49.225483" /><trkpt lat="-25.447555" lon="-49.225674" /><trkpt lat="-25.447648" lon="-49.225745" /><trkpt lat="-25.447743" lon="-49.225835" /><trkpt lat="-25.447961" lon="-49.226105" /><trkpt lat="-25.448166" lon="-49.226342" /><trkpt lat="-25.448300" lon="-49.226504" /><trkpt lat="-25.448645" lon="-49.226926" /><trkpt lat="-25.448770" lon="-49.227084" /><trkpt lat="-25.448957" lon="-49.227294" /><trkpt lat="-25.449196" lon="-49.227594" /><trkpt lat="-25.449370" lon="-49.227799" /><trkpt lat="-25.449526" lon="-49.228024" /><trkpt lat="-25.449543" lon="-49.228070" /><trkpt lat="-25.449658" lon="-49.228148" /><trkpt lat="-25.449699" lon="-49.228160" /><trkpt lat="-25.449740" lon="-49.228161" /><trkpt lat="-25.449810" lon="-49.228144" /><trkpt lat="-25.450440" lon="-49.227673" /><trkpt lat="-25.450474" lon="-49.227719" /><trkpt lat="-25.450514" lon="-49.227808" /><trkpt lat="-25.450660" lon="-49.228252" /><trkpt lat="-25.450819" lon="-49.228879" /><trkpt lat="-25.450858" lon="-49.229075" /><trkpt lat="-25.450896" lon="-49.229275" /><trkpt lat="-25.450984" lon="-49.229534" /><trkpt lat="-25.451254" lon="-49.229810" /><trkpt lat="-25.451612" lon="-49.229852" /><trkpt lat="-25.452924" lon="-49.230193" /><trkpt lat="-25.453427" lon="-49.230338" /><trkpt lat="-25.453656" lon="-49.230419" /><trkpt lat="-25.453962" lon="-49.230554" /><trkpt lat="-25.454047" lon="-49.230581" /><trkpt lat="-25.454350" lon="-49.230725" /><trkpt lat="-25.454801" lon="-49.230936" /><trkpt lat="-25.455187" lon="-49.231110" /><trkpt lat="-25.455759" lon="-49.231369" /><trkpt lat="-25.456334" lon="-49.231642" /><trkpt lat="-25.456604" lon="-49.231772" /><trkpt lat="-25.456894" lon="-49.231888" /><trkpt lat="-25.457216" lon="-49.232039" /><trkpt lat="-25.457846" lon="-49.232321" /><trkpt lat="-25.458081" lon="-49.232421" /><trkpt lat="-25.458690" lon="-49.232708" /><trkpt lat="-25.459405" lon="-49.233008" /><trkpt lat="-25.459966" lon="-49.233228" /><trkpt lat="-25.460449" lon="-49.233421" /><trkpt lat="-25.460700" lon="-49.233499" /><trkpt lat="-25.460937" lon="-49.233596" /><trkpt lat="-25.461155" lon="-49.233703" /><trkpt lat="-25.461545" lon="-49.233873" /><trkpt lat="-25.461735" lon="-49.233955" /><trkpt lat="-25.461867" lon="-49.234003" /><trkpt lat="-25.462200" lon="-49.234137" /><trkpt lat="-25.462398" lon="-49.234217" /><trkpt lat="-25.462503" lon="-49.234263" /><trkpt lat="-25.462632" lon="-49.234309" /><trkpt lat="-25.462762" lon="-49.234348" /><trkpt lat="-25.462926" lon="-49.234395" /><trkpt lat="-25.463163" lon="-49.234444" /><trkpt lat="-25.463421" lon="-49.234472" /><trkpt lat="-25.463554" lon="-49.234487" /><trkpt lat="-25.463761" lon="-49.234504" /><trkpt lat="-25.464216" lon="-49.234553" /><trkpt lat="-25.464488" lon="-49.234581" /><trkpt lat="-25.464807" lon="-49.234606" /><trkpt lat="-25.465397" lon="-49.234657" /><trkpt lat="-25.465740" lon="-49.234681" /><trkpt lat="-25.466213" lon="-49.234704" /><trkpt lat="-25.466266" lon="-49.234708" /><trkpt lat="-25.466483" lon="-49.234747" /><trkpt lat="-25.466619" lon="-49.234787" /><trkpt lat="-25.466791" lon="-49.234836" /><trkpt lat="-25.466929" lon="-49.234886" /><trkpt lat="-25.467148" lon="-49.234946" /><trkpt lat="-25.467329" lon="-49.234986" /><trkpt lat="-25.467521" lon="-49.235016" /><trkpt lat="-25.467648" lon="-49.235033" /><trkpt lat="-25.467886" lon="-49.235028" /><trkpt lat="-25.468564" lon="-49.235187" /><trkpt lat="-25.468850" lon="-49.235251" /><trkpt lat="-25.468962" lon="-49.235308" /><trkpt lat="-25.469113" lon="-49.235380" /><trkpt lat="-25.469197" lon="-49.235438" /><trkpt lat="-25.469348" lon="-49.235579" /><trkpt lat="-25.469494" lon="-49.235745" /><trkpt lat="-25.470028" lon="-49.236387" /><trkpt lat="-25.470165" lon="-49.236556" /><trkpt lat="-25.470457" lon="-49.236843" /><trkpt lat="-25.470581" lon="-49.236933" /><trkpt lat="-25.470746" lon="-49.237042" /><trkpt lat="-25.470970" lon="-49.237157" /><trkpt lat="-25.471656" lon="-49.237477" /><trkpt lat="-25.472068" lon="-49.237677" /><trkpt lat="-25.472479" lon="-49.237909" /><trkpt lat="-25.472891" lon="-49.238157" /><trkpt lat="-25.473348" lon="-49.238425" /><trkpt lat="-25.473391" lon="-49.238489" /><trkpt lat="-25.473523" lon="-49.238572" /><trkpt lat="-25.473753" lon="-49.238719" /><trkpt lat="-25.474192" lon="-49.238982" /><trkpt lat="-25.474615" lon="-49.239238" /><trkpt lat="-25.474716" lon="-49.239301" /><trkpt lat="-25.474874" lon="-49.239364" /><trkpt lat="-25.474947" lon="-49.239392" /><trkpt lat="-25.475105" lon="-49.239495" /><trkpt lat="-25.475464" lon="-49.239741" /><trkpt lat="-25.475860" lon="-49.239937" /><trkpt lat="-25.476363" lon="-49.240278" /><trkpt lat="-25.476523" lon="-49.240421" /><trkpt lat="-25.476644" lon="-49.240566" /><trkpt lat="-25.476893" lon="-49.240996" /><trkpt lat="-25.477084" lon="-49.241346" /><trkpt lat="-25.477294" lon="-49.241743" /><trkpt lat="-25.477557" lon="-49.242400" /><trkpt lat="-25.477801" lon="-49.242994" /><trkpt lat="-25.478029" lon="-49.243555" /><trkpt lat="-25.478277" lon="-49.244158" /><trkpt lat="-25.478520" lon="-49.244749" /><trkpt lat="-25.479001" lon="-49.245943" /><trkpt lat="-25.479426" lon="-49.246999" /><trkpt lat="-25.479870" lon="-49.248097" /><trkpt lat="-25.480509" lon="-49.247781" /><trkpt lat="-25.481006" lon="-49.247540" /><trkpt lat="-25.481101" lon="-49.247478" /><trkpt lat="-25.481218" lon="-49.247404" /><trkpt lat="-25.481407" lon="-49.247283" /><trkpt lat="-25.481876" lon="-49.247065" /><trkpt lat="-25.482162" lon="-49.246920" /><trkpt lat="-25.482328" lon="-49.246835" /><trkpt lat="-25.482418" lon="-49.246788" /><trkpt lat="-25.482648" lon="-49.246671" /><trkpt lat="-25.482860" lon="-49.246661" /><trkpt lat="-25.482901" lon="-49.246775" /><trkpt lat="-25.483296" lon="-49.247776" /><trkpt lat="-25.483393" lon="-49.247996" /><trkpt lat="-25.483493" lon="-49.248246" /><trkpt lat="-25.483723" lon="-49.248757" /><trkpt lat="-25.483926" lon="-49.249262" /><trkpt lat="-25.484218" lon="-49.249965" /><trkpt lat="-25.484503" lon="-49.250800" /><trkpt lat="-25.484662" lon="-49.251174" /><trkpt lat="-25.484907" lon="-49.251762" /><trkpt lat="-25.485067" lon="-49.252152" /><trkpt lat="-25.485170" lon="-49.252350" /><trkpt lat="-25.485275" lon="-49.252621" /><trkpt lat="-25.485425" lon="-49.252951" /><trkpt lat="-25.485662" lon="-49.253499" /><trkpt lat="-25.485891" lon="-49.254117" /><trkpt lat="-25.486109" lon="-49.254743" /><trkpt lat="-25.486349" lon="-49.255325" /><trkpt lat="-25.486591" lon="-49.255923" /><trkpt lat="-25.486837" lon="-49.256506" /><trkpt lat="-25.487087" lon="-49.257106" /><trkpt lat="-25.488915" lon="-49.256207" /><trkpt lat="-25.489884" lon="-49.255755" /><trkpt lat="-25.490355" lon="-49.255520" /><trkpt lat="-25.490657" lon="-49.255371" /><trkpt lat="-25.490800" lon="-49.255293" /><trkpt lat="-25.490831" lon="-49.255419" /><trkpt lat="-25.490981" lon="-49.255786" /><trkpt lat="-25.491258" lon="-49.256477" /><trkpt lat="-25.491501" lon="-49.257073" /><trkpt lat="-25.491738" lon="-49.257664" /><trkpt lat="-25.492193" lon="-49.258850" /><trkpt lat="-25.492510" lon="-49.259691" /><trkpt lat="-25.492685" lon="-49.260141" /><trkpt lat="-25.492863" lon="-49.260590" /><trkpt lat="-25.493099" lon="-49.261175" /><trkpt lat="-25.493342" lon="-49.261786" /><trkpt lat="-25.493601" lon="-49.262419" /><trkpt lat="-25.493897" lon="-49.263116" /><trkpt lat="-25.494098" lon="-49.263596" /><trkpt lat="-25.494279" lon="-49.264029" /><trkpt lat="-25.494425" lon="-49.264324" /><trkpt lat="-25.494649" lon="-49.264827" /><trkpt lat="-25.494817" lon="-49.265430" /><trkpt lat="-25.494933" lon="-49.265879" /><trkpt lat="-25.494973" lon="-49.266006" /><trkpt lat="-25.495112" lon="-49.266521" /><trkpt lat="-25.495450" lon="-49.267772" /><trkpt lat="-25.495520" lon="-49.268030" /><trkpt lat="-25.495600" lon="-49.268314" /><trkpt lat="-25.495831" lon="-49.269247" /><trkpt lat="-25.495863" lon="-49.269382" /><trkpt lat="-25.495950" lon="-49.269785" /><trkpt lat="-25.496030" lon="-49.270019" /><trkpt lat="-25.496068" lon="-49.270111" /><trkpt lat="-25.496159" lon="-49.270289" /><trkpt lat="-25.496329" lon="-49.270447" /><trkpt lat="-25.496511" lon="-49.270603" /><trkpt lat="-25.496510" lon="-49.270741" /><trkpt lat="-25.496552" lon="-49.271581" /><trkpt lat="-25.496595" lon="-49.272311" /><trkpt lat="-25.496600" lon="-49.272579" /><trkpt lat="-25.496599" lon="-49.272821" /><trkpt lat="-25.496578" lon="-49.273072" /><trkpt lat="-25.496553" lon="-49.273270" /><trkpt lat="-25.496521" lon="-49.273332" /><trkpt lat="-25.496471" lon="-49.273632" /><trkpt lat="-25.496433" lon="-49.273801" /><trkpt lat="-25.496368" lon="-49.274047" /><trkpt lat="-25.496313" lon="-49.274225" /><trkpt lat="-25.496210" lon="-49.274516" /><trkpt lat="-25.496036" lon="-49.274994" /><trkpt lat="-25.495869" lon="-49.275472" /><trkpt lat="-25.495753" lon="-49.275778" /><trkpt lat="-25.495647" lon="-49.276089" /><trkpt lat="-25.495496" lon="-49.276553" /><trkpt lat="-25.495348" lon="-49.277012" /><trkpt lat="-25.495143" lon="-49.277645" /><trkpt lat="-25.495137" lon="-49.277746" /><trkpt lat="-25.494923" lon="-49.278394" /><trkpt lat="-25.494816" lon="-49.278713" /><trkpt lat="-25.494743" lon="-49.278966" /><trkpt lat="-25.494642" lon="-49.279368" /><trkpt lat="-25.494581" lon="-49.279758" /><trkpt lat="-25.494411" lon="-49.280892" /><trkpt lat="-25.494388" lon="-49.281211" /><trkpt lat="-25.494409" lon="-49.281618" /><trkpt lat="-25.494448" lon="-49.282118" /><trkpt lat="-25.494494" lon="-49.282626" /><trkpt lat="-25.494535" lon="-49.282964" /><trkpt lat="-25.494603" lon="-49.283754" /><trkpt lat="-25.494628" lon="-49.284310" /><trkpt lat="-25.494643" lon="-49.284828" /><trkpt lat="-25.494643" lon="-49.285333" /><trkpt lat="-25.494629" lon="-49.285872" /><trkpt lat="-25.494650" lon="-49.286049" /><trkpt lat="-25.494701" lon="-49.286275" /><trkpt lat="-25.494767" lon="-49.286401" /><trkpt lat="-25.494932" lon="-49.286744" /><trkpt lat="-25.494984" lon="-49.286915" /><trkpt lat="-25.495010" lon="-49.287052" /><trkpt lat="-25.495009" lon="-49.287169" /><trkpt lat="-25.494987" lon="-49.287317" /><trkpt lat="-25.494898" lon="-49.287514" /><trkpt lat="-25.494802" lon="-49.287658" /><trkpt lat="-25.494696" lon="-49.287796" /><trkpt lat="-25.494156" lon="-49.288375" /><trkpt lat="-25.494470" lon="-49.289536" /><trkpt lat="-25.494809" lon="-49.290756" /><trkpt lat="-25.494845" lon="-49.290856" /><trkpt lat="-25.495068" lon="-49.291280" /><trkpt lat="-25.495278" lon="-49.291651" /><trkpt lat="-25.494951" lon="-49.292328" /><trkpt lat="-25.494250" lon="-49.291826" /><trkpt lat="-25.493800" lon="-49.291516" /><trkpt lat="-25.493621" lon="-49.291419" /><trkpt lat="-25.493314" lon="-49.291310" /><trkpt lat="-25.493121" lon="-49.291273" /><trkpt lat="-25.493121" lon="-49.291273" /><trkpt lat="-25.492963" lon="-49.291264" /><trkpt lat="-25.492839" lon="-49.291267" /><trkpt lat="-25.492531" lon="-49.291299" /><trkpt lat="-25.492515" lon="-49.291405" /><trkpt lat="-25.492526" lon="-49.291894" /><trkpt lat="-25.492568" lon="-49.292541" /><trkpt lat="-25.492623" lon="-49.293039" /><trkpt lat="-25.492286" lon="-49.293103" /></trkseg></trk><wpt lat="-25.492282" lon="-49.293082"><name>1 - 104805 - Terminal Capão Raso - /n020 - Interbairros II (Horário)/n027 - C.Raso/C. do Siqueira (Sentido Campina do Siqueira).</name><desc>ID: 300425; Tipo: OBRIGATÓRIO; Distância: 0,000 km</desc></wpt><wpt lat="-25.491595" lon="-49.297085"><name>2 - 170002 - 020 - Interbairros II (Horário - Sentido Terminal  Campina do Siqueira)/n021 - Interbairros II (Anti-Horário)/n027 - C. Raso / Camp. Siqueira (Sentido Terminal Campina do Siqueira)/n622- Rondon (Sentido Rondon)/n628 - Carbomafra (Sentido Carbomafra)/n658 - C. Raso - Caiuá  (Sentido Terminal Caiuá)</name><desc>ID: 300426; Tipo: INTERMEDIÁRIO; Distância: 0,448 km</desc></wpt><wpt lat="-25.490980" lon="-49.299560"><name>3 - 170004 - 020 - Interbairros II (Horário - Sentido Campina do Siqueira)/n021 - Interbairros II (Anti-Horário)/n027 - C. Raso / Camp. Siqueira (Sentido C. Siqueira)</name><desc>ID: 300427; Tipo: INTERMEDIÁRIO; Distância: 0,831 km</desc></wpt><wpt lat="-25.488359" lon="-49.299567"><name>4 - 170005 - 020 - Interbairros II (Horário) - Sentido Campina do Siqueira/n021 - Interbairros II (Anti-Horário)/n027 - C. Raso / Camp. Siqueira - Sentido Campina do Siqueira</name><desc>ID: 300428; Tipo: INTERMEDIÁRIO; Distância: 1,026 km</desc></wpt><wpt lat="-25.486406" lon="-49.299583"><name>5 - 170008 - 020 - Interbairros II(Horário - Sentido Campina do Siqueira)/n021 - Interbairros II (Anti-Horário)/n027 - C. Raso / Camp. Siqueira (Sentido C. Siqueira)</name><desc>ID: 300429; Tipo: INTERMEDIÁRIO; Distância: 1,392 km</desc></wpt><wpt lat="-25.483289" lon="-49.298261"><name>6 - 170010 - 020-Interbairros II (Horário - Sentido Campina do Siqueira)/n021 - Interbairros II (Anri-Horário)/n027 - C. Raso / Camp. Siqueira (Sentido C. Siqueira)</name><desc>ID: 300430; Tipo: INTERMEDIÁRIO; Distância: 1,759 km</desc></wpt><wpt lat="-25.480605" lon="-49.298331"><name>7 - 170012 - 020 - Interbairros II (Horário - Sentido Campina do Siqueira)/n021 - Interbairros II (Anti-Horário)/n027 - C. Raso / Camp. Siqueira (Sentido C. Siqueira)</name><desc>ID: 300431; Tipo: INTERMEDIÁRIO; Distância: 2,062 km</desc></wpt><wpt lat="-25.479103" lon="-49.296791"><name>8 - 170014 - 020 - Interbairros II (Horário - Sentido Campina do Siqueira)/n021 - Interbairros II (Anti-Horário)/n027 - C. Raso / Camp. Siqueira (sentido C. Siqueira)/n612 - Portão / CIC (Sentido  Terminal Portão)/n615 - Uberlândia (sentido Terminal Portão)/n671-Portão (Sentido Praça Rui Barbosa)</name><desc>ID: 300432; Tipo: INTERMEDIÁRIO; Distância: 2,369 km</desc></wpt><wpt lat="-25.477029" lon="-49.296856"><name>9 - 170015 - 020 - Interbairros II (Horário - Sentido Terminal Campina do Siqueira)/n021 - Interbairros II (Anti-Horário)/n027 - C. Raso / Camp. Siqueira (Sentido Terminal C. Siqueira)/n050 - Interbairros V (Sentido Terminal Fazendinha)/n611 - Fazendinha / Portão (Terminal Fazendinha)/n612 - Portão / CIC (Sentido Terminal Portão)/n615 - Uberlândia - (Sentido Terminal Portão)/n671 - Portão (sentido Praça Rui Barbosa)</name><desc>ID: 300433; Tipo: INTERMEDIÁRIO; Distância: 2,648 km</desc></wpt><wpt lat="-25.472654" lon="-49.296993"><name>10 - 180102 - 020 - Interbairros II (Horário - Sentido Campina do Siqueira)/n021 - Interbairros II (Anti-Horário)/n027 - C. Raso / Camp. Siqueira (Sentido C. Siqueira)/n611 - Fazendinha / Portão (Sentido Fazendinha)</name><desc>ID: 300434; Tipo: INTERMEDIÁRIO; Distância: 3,135 km</desc></wpt><wpt lat="-25.471576" lon="-49.299072"><name>11 - 181048 - 020 - Interbairros II (Horário)/n027 - C. Raso / C. do Siqueira/n611 - Fazendinha / Portão</name><desc>ID: 300435; Tipo: INTERMEDIÁRIO; Distância: 3,369 km</desc></wpt><wpt lat="-25.468682" lon="-49.300689"><name>12 - 180106 - 020 - Interbairros II (Horário - Sentido Campina do Siqueira)/n021 - Interbairros II (Anti-Horário)/n027 - C. Raso / Camp. Siqueira (Sentido C. Siqueira)</name><desc>ID: 300436; Tipo: INTERMEDIÁRIO; Distância: 3,780 km</desc></wpt><wpt lat="-25.468090" lon="-49.300100"><name>13 - 180107 - 020 - Interbairros II (Horário - Sentido Campina do Siqueira)/n027 - C. Raso / Camp. Siqueira (sentido C. Siqueira)</name><desc>ID: 300437; Tipo: INTERMEDIÁRIO; Distância: 3,824 km</desc></wpt><wpt lat="-25.465404" lon="-49.300395"><name>14 - 180110 - 020 - Interbairros II (Horário - Sentido Campina do Siqueira)/n021 - Interbairros II (Anti-Horário)/n027 - C. Raso / Camp. Siqueira (sentido C. Siqueira)</name><desc>ID: 300438; Tipo: INTERMEDIÁRIO; Distância: 4,214 km</desc></wpt><wpt lat="-25.461368" lon="-49.301499"><name>15 - 180112 - 020 - Interbairros II (Horário - Sentido Campina do Siqueira)/n021 - Interbairros II (Anti-Horário)/n027 - C. Raso / Camp. Siqueira (Sentido C. Siqueira)</name><desc>ID: 300439; Tipo: INTERMEDIÁRIO; Distância: 4,692 km</desc></wpt><wpt lat="-25.459296" lon="-49.301964"><name>16 - 180114 - 020 - Interbairros II (Horário - Sentido Terminal  Campina do Siqueira)/n021 - Interbairros II (Anti-Horário)/n027 - C. Raso / Camp. Siqueira (Sentido Terminal Campina  Siqueira)/n701 - Fazendinha (Sentido Praça Rui Barbosa)/n703 - Caiuá (Sentido  Praça Rui Barbosa)/n706 - Caiua/Faz/Centro (Sentido Praça Rui Barbosa)</name><desc>ID: 300440; Tipo: INTERMEDIÁRIO; Distância: 4,918 km</desc></wpt><wpt lat="-25.456293" lon="-49.303043"><name>17 - 181065 - 020 - Interbairros II (Horário)/n027 - Capão Raso / Campina do Siqueira/n779 - Vila Velha / Buriti</name><desc>ID: 300441; Tipo: INTERMEDIÁRIO; Distância: 5,302 km</desc></wpt><wpt lat="-25.452618" lon="-49.304228"><name>18 - 180118 - 020 - Interbairros II (Horário - Sentido Campina do Siqueira)/n021 - Interbairros II (Anti-Horário)/n027 - C. Raso / Camp. Siqueira (Sentido C. Siqueira)</name><desc>ID: 300442; Tipo: INTERMEDIÁRIO; Distância: 5,696 km</desc></wpt><wpt lat="-25.451073" lon="-49.304514"><name>19 - 181052 - 020 - Interbairros II (Horário)/n021 - Interbairros II (Anti-Horário)/n027 - C. Raso / C. do Siqueira</name><desc>ID: 300443; Tipo: INTERMEDIÁRIO; Distância: 5,890 km</desc></wpt><wpt lat="-25.444737" lon="-49.304682"><name>20 - 180122 - 020 - Interbairros II (Horário - Sentido Campina do Siqueira)/n021 - Interbairros II (Anti-Horário)/n027 - C. Raso / Camp. Siqueira (Sentido C. Siqueira)</name><desc>ID: 300444; Tipo: INTERMEDIÁRIO; Distância: 6,599 km</desc></wpt><wpt lat="-25.441870" lon="-49.305640"><name>21 - 180125 - 020 - Interbairros II (Horário - Sentido Campina do Siqueira)/n021 - Interbairros II (Anti-Horário)/n027 - C. Raso / Camp. Siqueira (Sentido C. Siqueira)</name><desc>ID: 300445; Tipo: INTERMEDIÁRIO; Distância: 6,886 km</desc></wpt><wpt lat="-25.439584" lon="-49.306922"><name>22 - 180126 - 020 - Interbairros II (Horário - Sentido Campina do Siqueira)/n021 - Interbairros II (Anti-Horário)/n027 - C. Raso / Camp. Siqueira (Sentido C. Siqueira)</name><desc>ID: 300446; Tipo: INTERMEDIÁRIO; Distância: 7,198 km</desc></wpt><wpt lat="-25.435877" lon="-49.306887"><name>23 - 104501 - Terminal Campina do Siqueira /n020 - Interbairros II (Horário) (Sentido Cabral)/n027 - C.Raso/C.do Siqueira.</name><desc>ID: 300447; Tipo: OBRIGATÓRIO; Distância: 7,739 km</desc></wpt><wpt lat="-25.435589" lon="-49.302904"><name>24 - 190201 - 020 - Interbairros II (Horário - Sentido Terminal  Cabral)/n870 - São Bráz (Sentido Praça Tiradentes)/n889 - Mad. São Bráz (Sentido Praça  Rui Barbosa)</name><desc>ID: 300448; Tipo: INTERMEDIÁRIO; Distância: 8,186 km</desc></wpt><wpt lat="-25.432634" lon="-49.298883"><name>25 - 190203 - 020 - Interbairros II (Horário - Sentido Cabral)/n875 - Bigorrilho (Sentido Bigorrilho)</name><desc>ID: 300449; Tipo: INTERMEDIÁRIO; Distância: 8,782 km</desc></wpt><wpt lat="-25.429302" lon="-49.300548"><name>26 - 190204 - 020 - Interbairros II (Horário - Terminal Sentido Cabral)/n875 - Bigorrilho (Sentido Bigorrilho)</name><desc>ID: 300450; Tipo: INTERMEDIÁRIO; Distância: 9,171 km</desc></wpt><wpt lat="-25.426215" lon="-49.299802"><name>27 - 190208 - 020 - Interbairros II (Horáririo - Sentido Cabral)</name><desc>ID: 300451; Tipo: INTERMEDIÁRIO; Distância: 9,638 km</desc></wpt><wpt lat="-25.424277" lon="-49.295200"><name>28 - 190210 - 020 - Interbairros II (Horário - Sentido Cabral)</name><desc>ID: 300452; Tipo: INTERMEDIÁRIO; Distância: 10,055 km</desc></wpt><wpt lat="-25.420855" lon="-49.291344"><name>29 - 190213 - 020 - Interbairros II (Horário - Sentido Cabral)</name><desc>ID: 300453; Tipo: INTERMEDIÁRIO; Distância: 11,320 km</desc></wpt><wpt lat="-25.417685" lon="-49.290508"><name>30 - 190215 - 020 - Interbairros II (Horário - Sentido Cabral)/n150 - C. da Música / V. Alegre (Sentido Vista Alegre) /n160 - Jd. Mercês / Guanabara (Sentido Jd. Mercês)/n167 - Fredolin Wolf (Sentido Fredolin Wolf)/n168 - Raposo Tavares (Sentido Raposo Tavares)</name><desc>ID: 300454; Tipo: INTERMEDIÁRIO; Distância: 11,654 km</desc></wpt><wpt lat="-25.414928" lon="-49.289786"><name>31 - 190634 - 020 - Interbairros II (Horário - Sentido Cabral)/n150 - C. da Música / Vista Alegre (Sentido Vista Alegre)/n160 - Jd. Mercês / Guanabara (Sentido Jd. Mercês)/n167 - Fredolin Wolf (Sentido Fredolin Wolf)/n168 - Raposo Tavares (Sentido Raposo Tavares)</name><desc>ID: 300455; Tipo: INTERMEDIÁRIO; Distância: 12,006 km</desc></wpt><wpt lat="-25.412541" lon="-49.291303"><name>32 - 190218 - 020 - Interbairros II (Horário - Sentido Cabral)/n150 - C. da Música / V. Alegre (Sentido Vista Alegre) /n160 - Jd. Mercês / Guanabara (Sentido Jd. Mercês)/n167 - Fredolin Wolf (Sentido Fredolim Wolf)/n168 - Raposo Tavares (Sentido Raposo Tavares)</name><desc>ID: 300456; Tipo: INTERMEDIÁRIO; Distância: 12,299 km</desc></wpt><wpt lat="-25.409937" lon="-49.291784"><name>33 - 190221 - 020 - Interbairros II (Horário - Sentido Cabral)/n160 - Jd. Mercês / Guanabara (Sentido Jd. Mercês)/n167 - Fredolin Wolf (Sentido Fredolin Wolf)/n168 - Raposo Tavares (Sentido Raposo Tavares)</name><desc>ID: 300457; Tipo: INTERMEDIÁRIO; Distância: 12,610 km</desc></wpt><wpt lat="-25.408395" lon="-49.292020"><name>34 - 190222 - 020 - Interbairros II (Horário - Sentido Cabral)/n160 - Jd. Mercês / Guanabara (Sentido Jd. Mercês)/n167 - Fredolin Wolf (Sentido Fredolin Wolf)/n168 - Raposo Tavares (Sentido Raposo Tavares)</name><desc>ID: 300458; Tipo: INTERMEDIÁRIO; Distância: 12,803 km</desc></wpt><wpt lat="-25.406479" lon="-49.291687"><name>35 - 190224 - 020 - Interbairros II (Horário - Sentido Cabral)/n160 - Jd. Mercês / Guanabara (Sentido Jd. Mercês)/n167 - Fredolin Wolf (Sentido Fredolin Wolf)/n168 - Raposo Tavares (Sentido Raposo Tavares)</name><desc>ID: 300459; Tipo: INTERMEDIÁRIO; Distância: 13,036 km</desc></wpt><wpt lat="-25.404314" lon="-49.290021"><name>36 - 190226 - 020 - Interbairros II (Horário - Sentido Cabral)/n160 - Jd. Mercês / Guanabara (Sentido Jd. Mercês)</name><desc>ID: 300460; Tipo: INTERMEDIÁRIO; Distância: 13,358 km</desc></wpt><wpt lat="-25.402265" lon="-49.287720"><name>37 - 190228 - 020 - Interbairros II (Horário - Sentido Cabral)/n160 - Jd. Mercês / Guanabara (Sentido Jd. Mercês)</name><desc>ID: 300461; Tipo: INTERMEDIÁRIO; Distância: 13,691 km</desc></wpt><wpt lat="-25.399581" lon="-49.288017"><name>38 - 190230 - 020 - Interbairros II (Horário - Sentido Cabral)</name><desc>ID: 300462; Tipo: INTERMEDIÁRIO; Distância: 14,016 km</desc></wpt><wpt lat="-25.397184" lon="-49.287880"><name>39 - 120024 - 020 - Interbairros II (Horário - Sentido Cabral)/n166 - Vila Nori (Sentido Vila Nori)/n170 - Bracatinga (Sentido Bracatinga)/n171 - Primavera (Sentido Primavera)/n188 - Madrugueiro Pilarzinho / Uberaba (Sentido Pilarzinho)</name><desc>ID: 300463; Tipo: INTERMEDIÁRIO; Distância: 14,302 km</desc></wpt><wpt lat="-25.395020" lon="-49.285214"><name>40 - 120032 - 020 - Interbairros II (Horário - Sentido Terminal Cabral)/n170 - Bracatinga (Sentido Bracatinga)/n171 - Primavera (Sentido Primavera)/n188 - Madrugueiro Pilarzinho / Uberaba (Sentido Pilarzinho)/n924 - Santa Felicidade / Santa Cândida (Sentido Terminal Santa Cândida)</name><desc>ID: 300464; Tipo: INTERMEDIÁRIO; Distância: 14,669 km</desc></wpt><wpt lat="-25.393232" lon="-49.283519"><name>41 - 120042 - 020 - Interbairros II (Horário - Sentido Terminal Cabral)/n170 - Bracatinga (Sentido Bracatinga)/n171 - Primavara (Sentido Primavera)/n188 - Madrugueiro Pilarzinho / Uberaba (Sentido Pilarzinho)/n924 - Santa Felicidade/ Santa Cândida (Sentido Terminal Santa Cândida)</name><desc>ID: 300465; Tipo: INTERMEDIÁRIO; Distância: 14,922 km</desc></wpt><wpt lat="-25.390875" lon="-49.283135"><name>42 - 120043 - 020 - Interbairros II (Horário - Sentido Terminal Cabral)/n170 - Bracatinga (Sentido Bracatinga)/n171 - Primavera (Sentido Primavera)/n188 - Madrugueiro Pilarzinho / Uberaba (Sentido Pilarzinho)/n924 - Santa Felicidade/ Santa Cândida (Sentido Terminal Santa Cândida)</name><desc>ID: 300466; Tipo: INTERMEDIÁRIO; Distância: 15,212 km</desc></wpt><wpt lat="-25.388121" lon="-49.282947"><name>43 - 120069 - 020 - Interbairros II (Horário - Sentido Terminal Cabral)/n170 - Bracatinga (Sentido Bracatinga)/n171 - Primavera (Sentido Primavera)/n188 - Madrugueiro Pilarzinho / Uberaba (Sentido Pilarzinho)/n924 - Santa Felicidade / Santa Cândida (Sentido Terminal Santa Cândida)</name><desc>ID: 300467; Tipo: INTERMEDIÁRIO; Distância: 15,517 km</desc></wpt><wpt lat="-25.386260" lon="-49.282410"><name>44 - 120609 - 170 - Bracatinga (Sentido Bracatinga)/n171 - Primavera (Sentido Primavera)/n188 - Madrugueiro Pilarzinho / Uberaba (Sentido Pilarzinho)/n924 - Santa Felicidade / Santa Cândida (Sentido Terminal Santa Cândida)/n020 - Interbairros II (Horário)</name><desc>ID: 300468; Tipo: INTERMEDIÁRIO; Distância: 15,738 km</desc></wpt><wpt lat="-25.385459" lon="-49.280687"><name>45 - 120070 - 020 - Interbairros II (Horário - Sentido Cabral)</name><desc>ID: 300469; Tipo: INTERMEDIÁRIO; Distância: 15,994 km</desc></wpt><wpt lat="-25.386348" lon="-49.277608"><name>46 - 120366 - 176 - Parque Tanguá  (Sentido Nestor de Castro)</name><desc>ID: 300470; Tipo: INTERMEDIÁRIO; Distância: 16,324 km</desc></wpt><wpt lat="-25.387650" lon="-49.275059"><name>47 - 120364 - 176 -  Parque Tanguá (Sentido Nestor de Castro)</name><desc>ID: 300471; Tipo: INTERMEDIÁRIO; Distância: 16,629 km</desc></wpt><wpt lat="-25.389193" lon="-49.272207"><name>48 - 120362 - 176 - Parque Tanguá  (Sentido Nestor de Castro)</name><desc>ID: 300472; Tipo: INTERMEDIÁRIO; Distância: 16,986 km</desc></wpt><wpt lat="-25.391727" lon="-49.272609"><name>49 - 120360 - 176 - Parque Tanguá  (Sentido Nestor de Castro)</name><desc>ID: 300473; Tipo: INTERMEDIÁRIO; Distância: 17,367 km</desc></wpt><wpt lat="-25.394741" lon="-49.272120"><name>50 - 121038 - R. Evaldo Wendler, 57 - São Lourenço</name><desc>ID: 300474; Tipo: INTERMEDIÁRIO; Distância: 17,643 km</desc></wpt><wpt lat="-25.393073" lon="-49.269535"><name>51 - 120516 - X54 - Natal Pq. Tanguá/n181 - Mateus Leme (sentido Mateus Leme)/n182 - Abranches (sentido Terminal Barreirinha)/n183 - Jd. Chaparral (sentido Jd. Chaparral)/n184 - V. Suiça (sentido V. Suiça)/n189 - Mad. Abranches (sentido Abranches)</name><desc>ID: 300475; Tipo: INTERMEDIÁRIO; Distância: 17,997 km</desc></wpt><wpt lat="-25.390608" lon="-49.267388"><name>52 - 120514 - X54 - Natal Pq. Tanguá/n181 - Mateus Leme (sentido Mateus Leme)/n182 - Abranches (sentido Terminal Barreirinha)/n183 - Jd. Chaparral (sentido Jd. Chaparral)/n184 - V. Suiça (sentido V. Suiça)/n189 - Mad. Abranches (sentido Abranches)</name><desc>ID: 300476; Tipo: INTERMEDIÁRIO; Distância: 18,421 km</desc></wpt><wpt lat="-25.388972" lon="-49.267452"><name>53 - 120512 - 181 - Mateus Leme (sentido Mateus Leme)/n182 - Abranches (sentido Terminal Barreirinha)/n183 - Jd. Chaparral (sentido Jd. Chaparral)/n184 - V. Suiça (sentido V. Suiça)/n189 - Mad. Abranches (sentido Abranches)</name><desc>ID: 300477; Tipo: INTERMEDIÁRIO; Distância: 18,531 km</desc></wpt><wpt lat="-25.388137" lon="-49.267002"><name>54 - 120080 - 020-Interbairros II (Horário -  Sentido Cabral)/n021 - Interbairros II (Anti-Horário)/n177 - Cabral / PQ. Tanguá</name><desc>ID: 300478; Tipo: INTERMEDIÁRIO; Distância: 18,689 km</desc></wpt><wpt lat="-25.388986" lon="-49.264374"><name>55 - 120083 - 020-Interbairros II (Horário - Sentido Cabral)/n177 - Cabral / PQ. Tanguá</name><desc>ID: 300479; Tipo: INTERMEDIÁRIO; Distância: 18,965 km</desc></wpt><wpt lat="-25.390336" lon="-49.259967"><name>56 - 120084 - 020 - Interbairros II (Horário -  Sentido Cabral)/n266 - Estribo Ahú (Sentido Estribo Ahú)/n177 - Cabral/PQ. Tanguá</name><desc>ID: 300480; Tipo: INTERMEDIÁRIO; Distância: 19,438 km</desc></wpt><wpt lat="-25.391206" lon="-49.256779"><name>57 - 120087 - 020 - Interbairros II (Horário - Sentido Cabral)/n266 - Estribo Ahú (Sentido Estribo Ahú)/n177 - Cabral/PQ. Tanguá</name><desc>ID: 300481; Tipo: INTERMEDIÁRIO; Distância: 19,788 km</desc></wpt><wpt lat="-25.393714" lon="-49.253350"><name>58 - 120089 - 020 - Interbairros II (Horário -  Sentido Cabral)/n177 - Cabral/PQ. Tanguá</name><desc>ID: 300482; Tipo: INTERMEDIÁRIO; Distância: 20,248 km</desc></wpt><wpt lat="-25.395470" lon="-49.251030"><name>59 - 120091 - 020 - Interbairros II (Horário -  Sentido Cabral)/n177 - Cabral/PQ. Tanguá</name><desc>ID: 300483; Tipo: INTERMEDIÁRIO; Distância: 20,544 km</desc></wpt><wpt lat="-25.398741" lon="-49.251970"><name>60 - 120092 - 020 - Interbairros II (Horário -  Sentido Cabral)/n280 - Nossa Sra. de Nazaré (Sentido Travessa Moreira Garcez)/n177 - Cabral/PQ. Tanguá</name><desc>ID: 300484; Tipo: INTERMEDIÁRIO; Distância: 21,026 km</desc></wpt><wpt lat="-25.399706" lon="-49.253483"><name>61 - 120396 - 020 - Interbairros II (Horário - Sentido Terminal Cabral)/n280 - Nossa Senhora de Nazaré (Sentido Travessa Moreira Garcez)/n177 - Cabral/PQ. Tanguá</name><desc>ID: 300485; Tipo: INTERMEDIÁRIO; Distância: 21,265 km</desc></wpt><wpt lat="-25.401490" lon="-49.253210"><name>62 - 120093 - 020 - Interbairros II (Horário - Sentido Cabral)/n280 - Nossa Sra. de Nazaré (Sentido Travessa Moreira Garcez)/n177 - Cabral/PQ. Tanguá</name><desc>ID: 300486; Tipo: INTERMEDIÁRIO; Distância: 21,442 km</desc></wpt><wpt lat="-25.403217" lon="-49.251451"><name>63 - 120095 - 020 - Interbairros II (Horário -  Sentido Terminal Cabral)/n280 - Nossa Sra. de Nazaré (Sentido Travessa Moreira Garcez)/n177 - Cabral/PQ. Tanguá</name><desc>ID: 300487; Tipo: INTERMEDIÁRIO; Distância: 21,741 km</desc></wpt><wpt lat="-25.406384" lon="-49.252353"><name>64 - 104406 - Terminal Cabral /n020 - Interbairros II (Horário) (Sentido Capão da Imbuia)/nX42 - Especial Cabral / C.Imbuia</name><desc>ID: 300488; Tipo: OBRIGATÓRIO; Distância: 22,196 km</desc></wpt><wpt lat="-25.409516" lon="-49.249253"><name>65 - 130110 - 020 - Interbairros II (Horário - Sentido Capão da Imbuia)</name><desc>ID: 300489; Tipo: INTERMEDIÁRIO; Distância: 22,854 km</desc></wpt><wpt lat="-25.411594" lon="-49.247466"><name>66 - 130113 - 020 - Interbairros II (Horário - Sentido Capão da Imbuia)</name><desc>ID: 300490; Tipo: INTERMEDIÁRIO; Distância: 23,175 km</desc></wpt><wpt lat="-25.414054" lon="-49.247121"><name>67 - 130115 - 020 - Interbairros II (Horário - Sentido Capão da Imbuia</name><desc>ID: 300491; Tipo: INTERMEDIÁRIO; Distância: 23,497 km</desc></wpt><wpt lat="-25.416333" lon="-49.247919"><name>68 - 130117 - 020 - Interbairros II (Horário - Sentido Capão da Imbuia</name><desc>ID: 300492; Tipo: INTERMEDIÁRIO; Distância: 23,834 km</desc></wpt><wpt lat="-25.417588" lon="-49.246481"><name>69 - 130119 - 020- Interbairros II (Horário - Sentido Capão da Imbuia/n361 - Augusto Stresser (Sentido Augusto Stresser)/n374 - Hugo Lange (Sentido Bairro Alto)</name><desc>ID: 300493; Tipo: INTERMEDIÁRIO; Distância: 24,070 km</desc></wpt><wpt lat="-25.417782" lon="-49.244086"><name>70 - 130121 - 020 - Interbairros II (Horário - Sentido Capão da Imbuia)/n361 - Augusto Stresser (Sentido Bairro Alto)/n374 - Hugo Lange (Sentido Bairro Alto)</name><desc>ID: 300494; Tipo: INTERMEDIÁRIO; Distância: 24,358 km</desc></wpt><wpt lat="-25.417965" lon="-49.241829"><name>71 - 130122 - 020 - Interbairros II (Horário - Sentido Capão da Imbuia)/n361 - Augusto Stresser (Sentido Bairro Alto)/n374 - Hugo Lange (Sentido Bairro Alto)</name><desc>ID: 300495; Tipo: INTERMEDIÁRIO; Distância: 24,586 km</desc></wpt><wpt lat="-25.420220" lon="-49.239922"><name>72 - 130124 - 020-Interbairros II (Horário - Sentido Capão da Imbuia)/n365 - Jd. Social / Batel (Batel)</name><desc>ID: 300496; Tipo: INTERMEDIÁRIO; Distância: 24,902 km</desc></wpt><wpt lat="-25.423102" lon="-49.241810"><name>73 - 130126 - 020 - Interbairros II (Horário - Sentido Capão da Imbuia)/n365 - Jd. Social / Batel (Sentido Batel)</name><desc>ID: 300497; Tipo: INTERMEDIÁRIO; Distância: 25,323 km</desc></wpt><wpt lat="-25.426200" lon="-49.242453"><name>74 - 130128 - 020 - Interbairros II (Horário - Sentido Capão da Imbuia)/n366 - Itupava / Hosp. Militar (Sentido Itupava)</name><desc>ID: 300498; Tipo: INTERMEDIÁRIO; Distância: 25,626 km</desc></wpt><wpt lat="-25.427748" lon="-49.237301"><name>75 - 130375 - 020 - Interbairros II (Horário - Sentido Capão da Imbuia)/n372 - Tarumã (Sentido Bairro Alto)/n373 - Alto Tarumã (Sentido Bairro Alto)/n375 - Sagrado Coração/n378 - Inter-Hospitais (Sentido Tarumã)/n380 - Detran / V. Machado (Sentido Detran)/n389 - Madrugueiro Tarumã / Augusta (Sentido Bairro Alto)/n393 - C. Imbuia / Parque Barigui (Sentido C. Imbuia)</name><desc>ID: 300499; Tipo: INTERMEDIÁRIO; Distância: 26,366 km</desc></wpt><wpt lat="-25.428080" lon="-49.234032"><name>76 - 130203 - 020 - Interbairros II (Horário - Sentido Capão da Imbuia)/n372 - Tarumã (Sentido Bairro Alto)/n373 - Alto Tarumã (Sentido Bairro Alto)/n375 - Sagrado Coração (Sentido Bairro Alto)/n378 - Inter-Hospitais (Sentido Tarumã)/n380 - Detran / V. Machado (Sentido Detran)/n389 - Madrugueiro Tarumã / Augusta (Sentido Bairro Alto)/n393 - C. Imbuia / Parque Barigui (Sentido C. Imbuia)</name><desc>ID: 300500; Tipo: INTERMEDIÁRIO; Distância: 26,693 km</desc></wpt><wpt lat="-25.428446" lon="-49.230623"><name>77 - 130207 - 020 - Interbairros II (Horário - Sentido Capão da Imbuia)/n372 - Tarumã (Sentido Bairro Alto)/n373 - Alto Tarumã (Sentido Bairro Alto)/n375 - Sagrado Coração (Sentido Bairro Alto)/n378 - Inter-Hospitais (Sentido Tarumã)/n380 - Detran / V. Machado (Sentido Detran)/n389 - Madrugueiro Tarumã / Augusta (Sentido Bairro Alto)/n393 - Capão da Imbuia / Parque Barigui (Sentido Capão da Imbuia)</name><desc>ID: 300501; Tipo: INTERMEDIÁRIO; Distância: 26,998 km</desc></wpt><wpt lat="-25.428805" lon="-49.227049"><name>78 - 130210 - 020 - Interbairros II (Horário - Sentido Capão da Imbuia)/n372 - Tarumã (Sentido Bairro Alto)/n373 - Alto Tarumã (Sentido Bairro Alto)/n375 - Sagrado Coração (Sentido Bairro Alto)/n378 - Inter-Hospitais (Sentido Tarumã)/n380 - Detran / V. Machado (Sentido Detran)/n389 - Madrugueiro Tarumã / Augusta (Sentido Bairro Alto)/n393 - C. Imbuia / Parque Barigui (Sentido C. Imbuia)</name><desc>ID: 300502; Tipo: INTERMEDIÁRIO; Distância: 27,360 km</desc></wpt><wpt lat="-25.429205" lon="-49.223837"><name>79 - 130212 - 020 - Interbairros II (Horário - Sentido Capão da Imbuia)/n372 - Tarumã (Sentido Bairro Alto)/n373 - Alto Tarumã (Sentido Bairro Alto)/n375 - Sagrado Coração (Sentido Bairro Alto)/n378 - Inter-Hospitais (Sentido Tarumã)/n380 - Detran / V. Machado (Sentido Detran)/n389 - Madrugueiro Tarumã / Augusta (Sentido Bairro Alto)/n393 - Capão da Imbuia / Parque Barigui (Sentido Capão da Imbuia)</name><desc>ID: 300503; Tipo: INTERMEDIÁRIO; Distância: 27,708 km</desc></wpt><wpt lat="-25.429812" lon="-49.218810"><name>80 - 130216 - 020 - Interbairros II (Horário - Sentido Capão da Imbuia)/n372 - Tarumã (Sentido Bairro Alto)/n373 - Alto Tarumã (Sentido Bairro Alto)/n375 - Sagrado Coração (Sentido Bairro Alto)/n378 - Inter-Hospitais (Sentido Tarumã)/n380 - Detran / V. Machado (Sentido Detran)/n389 - Madrugueiro Tarumã / Augusta (Sentido Bairro Alto)/n393 - C. Imbuia / Parque Barigui (Sentido C. Imbuia)</name><desc>ID: 300504; Tipo: INTERMEDIÁRIO; Distância: 28,208 km</desc></wpt><wpt lat="-25.430112" lon="-49.216123"><name>81 - 130218 - Av. Victor Ferreira do Amaral, 2422 - Capão da Imbuia</name><desc>ID: 300505; Tipo: INTERMEDIÁRIO; Distância: 28,421 km</desc></wpt><wpt lat="-25.431559" lon="-49.212154"><name>82 - 130220 - 020 - Interbairros II (Horário - Sentido Capão da Imbuia)</name><desc>ID: 300506; Tipo: INTERMEDIÁRIO; Distância: 29,069 km</desc></wpt><wpt lat="-25.434132" lon="-49.213552"><name>83 - 130225 - 020 - Interbairros II (Horário - Sentido Capão da Imbuia)/n393 - C. Imbuia / Parque Barigui (Sentido C. Imbuia)</name><desc>ID: 300507; Tipo: INTERMEDIÁRIO; Distância: 29,414 km</desc></wpt><wpt lat="-25.433663" lon="-49.216372"><name>84 - 130992 - R. Eng. Alberto Monteiro de Carvalho, 201 - Capão da Imbuia</name><desc>ID: 300508; Tipo: INTERMEDIÁRIO; Distância: 29,847 km</desc></wpt><wpt lat="-25.434998" lon="-49.217971"><name>85 - 130229 - 020 - Interbairros II (Horário - Sentido Terminal Capão da Imbuia)/n386 - Cajuru (Sentido Centro)</name><desc>ID: 300509; Tipo: INTERMEDIÁRIO; Distância: 30,090 km</desc></wpt><wpt lat="-25.437045" lon="-49.219117"><name>86 - 130231 - 020 - Interbairros II (Horário - Sentido Terminal Capão da Imbuia)/n386 - Cajuru (sentido Centro)</name><desc>ID: 300510; Tipo: INTERMEDIÁRIO; Distância: 30,266 km</desc></wpt><wpt lat="-25.440273" lon="-49.221235"><name>87 - 104706 - Terminal Capão da Imbuia/n020 - Interbairros II (Horário) (Sentido Hauer)/nX42 - Especial Cabral / C.Imbuia</name><desc>ID: 300511; Tipo: OBRIGATÓRIO; Distância: 31,008 km</desc></wpt><wpt lat="-25.444622" lon="-49.223203"><name>88 - 140125 - Z03 - Vicente de Carvalho / C. Imbuia (Sentido Vicente de Carvalho)/n020 - Interbairros II (Horário - Sentido Hauer)/n387-Palotinos (Sentido Praça Palotinos)</name><desc>ID: 300512; Tipo: INTERMEDIÁRIO; Distância: 31,575 km</desc></wpt><wpt lat="-25.447365" lon="-49.225614"><name>89 - 140167 - 020 - Interbairros II (Horário - Sentido Hauer)</name><desc>ID: 300513; Tipo: INTERMEDIÁRIO; Distância: 32,064 km</desc></wpt><wpt lat="-25.452079" lon="-49.230079"><name>90 - 140168 - 020 - Interbairros II (Horário - Sentido Hauer)/n050 - Interbairros V (Sentido Terminal Fazendinha)/n165 - Universidades (Sentido PUC)/n461 - Sta. Barbara/n466 - Estudantes</name><desc>ID: 300514; Tipo: INTERMEDIÁRIO; Distância: 32,772 km</desc></wpt><wpt lat="-25.455357" lon="-49.231268"><name>91 - 140170 - 020 - Interbairros II (Horário - Sentido Hauer)/n461 - Santa Bárbara (Sentido Sta. Bárbara)</name><desc>ID: 300515; Tipo: INTERMEDIÁRIO; Distância: 33,185 km</desc></wpt><wpt lat="-25.457834" lon="-49.232410"><name>92 - 140172 - 020 - Interbairros II (Horário - Sentido Hauer)/n461 - Santa Bárbara (Sentido Sta. Bárbara)</name><desc>ID: 300516; Tipo: INTERMEDIÁRIO; Distância: 33,501 km</desc></wpt><wpt lat="-25.461734" lon="-49.233991"><name>93 - 140174 - 020 - Interbairros II (Horário - Sentido Hauer)/n477 - V. Macedo Via Guabirotuba</name><desc>ID: 300517; Tipo: INTERMEDIÁRIO; Distância: 33,959 km</desc></wpt><wpt lat="-25.467764" lon="-49.235107"><name>94 - 140177 - 020 - Interbairros II (Horário - Sentido Hauer)</name><desc>ID: 300518; Tipo: INTERMEDIÁRIO; Distância: 34,615 km</desc></wpt><wpt lat="-25.470616" lon="-49.237030"><name>95 - 141018 - 020 - Interbairros II (horário)</name><desc>ID: 300519; Tipo: INTERMEDIÁRIO; Distância: 35,004 km</desc></wpt><wpt lat="-25.475951" lon="-49.240087"><name>96 - 140034 - X14 - Reforço Hauer/n020 - Interbairros II (Horário - Sentido Hauer)/n338 - Centenário / Hauer (Sentido Hauer)/n516 - Canal Belém/ Salgado Filho (Sentido Canal Belém)</name><desc>ID: 300520; Tipo: INTERMEDIÁRIO; Distância: 35,657 km</desc></wpt><wpt lat="-25.477880" lon="-49.243317"><name>97 - 140011 - X14 - Reforço Hauer/n020 - Interbairros II (Horário - Sentido Hauer)/n338 - Centenário / Hauer (Sentido Hauer)/n515-Iguape II (Sentido Hauer)/n516 - Canal Belém / Salgado Filho (Sentido Salgado Filho)/n519 - Mad. S. Francisco / Iguape (Sentido Hauer)</name><desc>ID: 300521; Tipo: INTERMEDIÁRIO; Distância: 36,099 km</desc></wpt><wpt lat="-25.479247" lon="-49.246702"><name>98 - 140010 - X14 - Reforço Hauer/n020 - Interbairros II (Horário - Sentido Hauer)/n338 - Centenário / Hauer (Sentido Hauer)/n515 - Iguape II (Sentido Hauer)/n516 - Canal Belém / Salgado Filho (Sentido Salgado Filho)/n519 - Mad. S. Francisco / Iguape (Sentido Hauer)</name><desc>ID: 300522; Tipo: INTERMEDIÁRIO; Distância: 36,477 km</desc></wpt><wpt lat="-25.481900" lon="-49.247077"><name>99 - 105512 - Terminal Hauer /n020 - Interbairros II (Horário) (Sentido Capão Raso)</name><desc>ID: 300523; Tipo: OBRIGATÓRIO; Distância: 36,840 km</desc></wpt><wpt lat="-25.483870" lon="-49.249394"><name>100 - 150204 - 020 - Interbairros II (Horário Sentido Capão Raso)/n511 - São Francisco (Sentido São Francisco)/n512 - Itamarati (Sentido Itamarati)/n513 - Hauer / Boqueirão (Sentido Terminal Boqueirão)/n621 - Fanny (Sentido Terminal  Capão Raso)/n519 - Mad. S. Francisco / Iguape (Sentido S. Cercado)</name><desc>ID: 300524; Tipo: INTERMEDIÁRIO; Distância: 37,240 km</desc></wpt><wpt lat="-25.484916" lon="-49.251993"><name>101 - 150205 - 020 - Interbairros II (Horário - Sentido Terminal  Capão Raso)/n511 - São Francisco (Sentido São Francisco)/n512 - Itamarati (Sentido Itamarati)/n513 - Hauer/Boqueirão (Sentido Terminal Boqueirão)/n519 - Mad. S. Francisco / Iguape (Sentido S. Cercado)/n621 - Fanny (Sentido Terminal  Capão Raso</name><desc>ID: 300525; Tipo: INTERMEDIÁRIO; Distância: 37,554 km</desc></wpt><wpt lat="-25.486440" lon="-49.255710"><name>102 - 150206 - 020 - Interbairros II (Horário - Sentido Capão Raso)/n512 - Itamarati/n513 - Hauer / Boqueirão</name><desc>ID: 300526; Tipo: INTERMEDIÁRIO; Distância: 37,965 km</desc></wpt><wpt lat="-25.487495" lon="-49.256958"><name>103 - 150207 - 020 - Interbairros II (Horário - Sentido Capão Raso)/n512 - Itamarati (Sentido Itamarati)</name><desc>ID: 300527; Tipo: INTERMEDIÁRIO; Distância: 38,095 km</desc></wpt><wpt lat="-25.490002" lon="-49.255755"><name>104 - 150209 - 020 - Interbairros II (Horário - Sentido Capão Raso)/n512 - Itamarati (Sentido Itamarati)</name><desc>ID: 300528; Tipo: INTERMEDIÁRIO; Distância: 38,433 km</desc></wpt><wpt lat="-25.491399" lon="-49.257001"><name>105 - 150211 - 020-Interbairros II (Horário - Sentido Capão Raso)/n512 - Itamarati (Sentido bairro)</name><desc>ID: 300529; Tipo: INTERMEDIÁRIO; Distância: 38,736 km</desc></wpt><wpt lat="-25.492413" lon="-49.259629"><name>106 - 150213 - 020 - Interbairros II (Horário - Sentido Capão Raso)/n512 - Itamarati (Sentido Itamarati)</name><desc>ID: 300530; Tipo: INTERMEDIÁRIO; Distância: 39,020 km</desc></wpt><wpt lat="-25.493896" lon="-49.263292"><name>107 - 150216 - 020 - Interbairros II (Horário - Sentido Capão Raso)</name><desc>ID: 300531; Tipo: INTERMEDIÁRIO; Distância: 39,395 km</desc></wpt><wpt lat="-25.495131" lon="-49.266737"><name>108 - 150218 - 020 - Interbairros II (Horário - Sentido Capão Raso)</name><desc>ID: 300532; Tipo: INTERMEDIÁRIO; Distância: 39,759 km</desc></wpt><wpt lat="-25.496509" lon="-49.271682"><name>109 - 150075 - 020 - Interbairros II (Horário - Sentido Capão Raso)/n629 - Alto Boqueirão (Sentido Terminal Capão Raso)</name><desc>ID: 300533; Tipo: INTERMEDIÁRIO; Distância: 40,299 km</desc></wpt><wpt lat="-25.494698" lon="-49.278792"><name>110 - 150219 - 020 - Interbairros II (Horário - Sentido Capão Raso)/n689 - Mad. S. Pedro / Rio Negro (Sentido Pç. Rui Barbosa)</name><desc>ID: 300534; Tipo: INTERMEDIÁRIO; Distância: 41,040 km</desc></wpt><wpt lat="-25.494404" lon="-49.282067"><name>111 - 150106 - 020 - Interbairros II (Horário - Sentido Terminal  Capão Raso)/n629 - Alto Boqueirão (Sentido Terminal Capão Raso)/n657 -  Xaxim / C. Raso (Sentido Terminal Capão Raso)/n666 - Novo Mundo (sentido Praça  Rui Barbosa)</name><desc>ID: 300535; Tipo: INTERMEDIÁRIO; Distância: 41,383 km</desc></wpt><wpt lat="-25.494590" lon="-49.285269"><name>112 - 150107 - 020 - Interbairros II (Horário - Sentido Terminal  Capão Raso)/n629 - Alto Boqueirão (Sentido Terminal Capão Raso)/n657 - Xaxim / C. Raso (Sentido Terminal Capão Raso)/n666 - Novo Mundo (sentido Praça Rui Barbosa)</name><desc>ID: 300536; Tipo: INTERMEDIÁRIO; Distância: 41,704 km</desc></wpt><wpt lat="-25.494948" lon="-49.291139"><name>113 - 150108 - 020 - Interbairros II (Horário) Sentido Capão Raso)/n621 - Fanny/n624 - Vila São Pedro (Sentido Vila São Pedro)/n629 - Alto Boqueirão (Sentido Terminal Capão Raso)/n657- Xaxim / C. Raso (Sentido Capão Raso)</name><desc>ID: 300537; Tipo: INTERMEDIÁRIO; Distância: 42,357 km</desc></wpt><wpt lat="-25.492282" lon="-49.293082"><name>114 - 104805 - Terminal Capão Raso - /n020 - Interbairros II (Horário)/n027 - C.Raso/C. do Siqueira (Sentido Campina do Siqueira).</name><desc>ID: 300425; Tipo: OBRIGATÓRIO; Distância: 42,981 km</desc></wpt></gpx>