<?xml version='1.0' encoding='utf-8'?>
<kml xmlns="http://www.opengis.net/kml/2.2"><Document><name>022-inter2-linha-direta-circular</name><Style id="trajeto"><LineStyle><color>ff0000ff</color><width>5</width></LineStyle></Style><Placemark><name>Trajeto</name><styleUrl>#trajeto</styleUrl><LineString><tessellate>1</tessellate><coordinates>-49.252163,-25.406631,0
-49.252031,-25.406486,0
-49.251886,-25.406337,0
-49.251459,-25.406844,0
-49.250904,-25.407484,0
-49.250408,-25.408057,0
-49.249572,-25.409024,0
-49.248787,-25.409934,0
-49.248775,-25.409979,0
-49.248726,-25.410054,0
-49.248690,-25.410106,0
-49.248437,-25.410412,0
-49.247992,-25.410908,0
-49.247775,-25.411146,0
-49.247719,-25.411195,0
-49.247685,-25.411214,0
-49.247587,-25.411312,0
-49.247431,-25.411486,0
-49.247279,-25.411656,0
-49.246735,-25.412268,0
-49.246602,-25.412417,0
-49.246556,-25.412474,0
-49.246325,-25.412791,0
-49.246284,-25.412858,0
-49.246257,-25.412913,0
-49.246231,-25.412986,0
-49.246234,-25.413052,0
-49.246248,-25.413134,0
-49.246291,-25.413281,0
-49.246331,-25.413361,0
-49.246369,-25.413428,0
-49.246424,-25.413499,0
-49.247056,-25.414082,0
-49.247666,-25.414644,0
-49.247680,-25.414856,0
-49.247708,-25.415030,0
-49.247743,-25.415346,0
-49.247790,-25.415750,0
-49.247821,-25.416033,0
-49.247850,-25.416394,0
-49.247876,-25.416757,0
-49.247925,-25.417374,0
-49.247268,-25.417431,0
-49.246640,-25.417486,0
-49.245388,-25.417581,0
-49.243772,-25.417725,0
-49.243518,-25.417754,0
-49.243242,-25.417777,0
-49.242637,-25.417823,0
-49.242028,-25.417877,0
-49.241491,-25.417923,0
-49.241143,-25.417941,0
-49.240931,-25.418282,0
-49.240826,-25.418447,0
-49.240722,-25.418616,0
-49.240503,-25.418973,0
-49.240297,-25.419306,0
-49.240093,-25.419648,0
-49.240003,-25.419813,0
-49.239950,-25.419905,0
-49.239872,-25.420087,0
-49.239827,-25.420218,0
-49.239808,-25.420307,0
-49.239800,-25.420394,0
-49.239811,-25.420568,0
-49.239830,-25.420653,0
-49.239865,-25.420746,0
-49.239989,-25.420936,0
-49.240161,-25.421156,0
-49.240570,-25.421686,0
-49.240693,-25.421827,0
-49.241088,-25.422328,0
-49.241335,-25.422640,0
-49.241490,-25.422835,0
-49.241691,-25.423078,0
-49.241974,-25.423420,0
-49.242281,-25.423863,0
-49.242416,-25.424102,0
-49.242458,-25.424192,0
-49.242503,-25.424314,0
-49.242539,-25.424439,0
-49.242621,-25.424803,0
-49.242632,-25.424933,0
-49.242630,-25.425121,0
-49.242616,-25.425270,0
-49.242515,-25.425735,0
-49.242417,-25.426102,0
-49.242312,-25.426457,0
-49.242223,-25.426692,0
-49.242138,-25.426913,0
-49.242016,-25.427236,0
-49.241956,-25.427381,0
-49.241879,-25.427538,0
-49.241827,-25.427634,0
-49.241760,-25.427759,0
-49.241677,-25.427911,0
-49.241597,-25.428058,0
-49.241464,-25.428289,0
-49.241335,-25.428369,0
-49.241242,-25.428409,0
-49.241211,-25.428414,0
-49.241177,-25.428411,0
-49.241141,-25.428401,0
-49.241120,-25.428387,0
-49.241072,-25.428245,0
-49.241027,-25.428078,0
-49.240995,-25.428013,0
-49.240959,-25.427961,0
-49.240902,-25.427894,0
-49.240856,-25.427849,0
-49.240806,-25.427810,0
-49.240653,-25.427697,0
-49.240515,-25.427625,0
-49.240253,-25.427525,0
-49.240090,-25.427466,0
-49.239952,-25.427427,0
-49.239899,-25.427416,0
-49.239834,-25.427403,0
-49.239758,-25.427395,0
-49.239639,-25.427391,0
-49.239457,-25.427398,0
-49.238753,-25.427474,0
-49.238500,-25.427496,0
-49.238060,-25.427564,0
-49.237890,-25.427583,0
-49.237096,-25.427661,0
-49.236673,-25.427703,0
-49.236261,-25.427754,0
-49.235637,-25.427822,0
-49.234714,-25.427922,0
-49.233931,-25.427985,0
-49.233555,-25.428018,0
-49.233344,-25.428042,0
-49.233081,-25.428084,0
-49.232349,-25.428172,0
-49.232003,-25.428215,0
-49.231885,-25.428230,0
-49.231343,-25.428295,0
-49.230939,-25.428347,0
-49.229986,-25.428455,0
-49.229218,-25.428552,0
-49.228865,-25.428553,0
-49.228323,-25.428621,0
-49.227630,-25.428682,0
-49.227318,-25.428710,0
-49.226839,-25.428768,0
-49.226093,-25.428853,0
-49.225427,-25.428932,0
-49.224496,-25.429010,0
-49.223512,-25.429119,0
-49.222622,-25.429213,0
-49.221966,-25.429280,0
-49.221611,-25.429331,0
-49.221354,-25.429380,0
-49.221118,-25.429397,0
-49.220881,-25.429443,0
-49.220672,-25.429466,0
-49.220511,-25.429494,0
-49.219850,-25.429556,0
-49.218396,-25.429690,0
-49.217301,-25.429800,0
-49.216794,-25.429849,0
-49.216489,-25.429883,0
-49.215389,-25.430009,0
-49.211499,-25.430428,0
-49.211526,-25.430533,0
-49.212218,-25.431846,0
-49.213372,-25.433899,0
-49.213614,-25.434419,0
-49.213897,-25.434907,0
-49.215487,-25.434188,0
-49.217106,-25.433478,0
-49.217639,-25.434456,0
-49.217912,-25.434960,0
-49.218176,-25.435445,0
-49.218443,-25.435900,0
-49.218576,-25.436162,0
-49.218696,-25.436400,0
-49.218953,-25.436869,0
-49.219083,-25.437120,0
-49.219209,-25.437359,0
-49.219470,-25.437842,0
-49.219555,-25.438048,0
-49.219709,-25.438338,0
-49.220501,-25.437983,0
-49.221323,-25.437625,0
-49.221518,-25.437976,0
-49.221730,-25.438360,0
-49.221870,-25.438609,0
-49.222159,-25.439063,0
-49.222396,-25.439516,0
-49.222417,-25.439574,0
-49.222451,-25.439632,0
-49.222447,-25.439653,0
-49.222432,-25.439683,0
-49.222406,-25.439709,0
-49.222372,-25.439731,0
-49.222030,-25.439884,0
-49.221679,-25.440046,0
-49.221313,-25.440208,0
-49.221198,-25.440213,0
-49.221063,-25.440237,0
-49.220989,-25.440255,0
-49.220895,-25.440282,0
-49.220811,-25.440315,0
-49.220918,-25.440495,0
-49.221053,-25.440738,0
-49.221331,-25.441241,0
-49.221594,-25.441721,0
-49.221937,-25.442374,0
-49.222113,-25.442709,0
-49.222278,-25.443020,0
-49.222630,-25.443675,0
-49.222983,-25.444337,0
-49.223325,-25.444991,0
-49.223676,-25.445650,0
-49.223998,-25.446255,0
-49.224181,-25.446588,0
-49.224351,-25.446901,0
-49.224700,-25.446748,0
-49.225148,-25.446566,0
-49.225425,-25.447092,0
-49.225537,-25.447302,0
-49.225675,-25.447553,0
-49.225746,-25.447650,0
-49.225829,-25.447736,0
-49.225978,-25.447864,0
-49.226110,-25.447964,0
-49.226311,-25.448139,0
-49.226547,-25.448335,0
-49.226928,-25.448646,0
-49.227080,-25.448770,0
-49.227455,-25.449082,0
-49.227796,-25.449367,0
-49.228028,-25.449527,0
-49.228071,-25.449546,0
-49.228148,-25.449654,0
-49.228161,-25.449706,0
-49.228163,-25.449758,0
-49.228142,-25.449811,0
-49.227895,-25.450148,0
-49.227668,-25.450445,0
-49.227802,-25.450513,0
-49.227941,-25.450560,0
-49.228219,-25.450652,0
-49.228313,-25.450672,0
-49.228888,-25.450820,0
-49.229276,-25.450897,0
-49.229545,-25.450987,0
-49.229654,-25.451103,0
-49.229712,-25.451160,0
-49.229812,-25.451262,0
-49.229819,-25.451321,0
-49.229852,-25.451599,0
-49.229884,-25.451735,0
-49.229980,-25.452100,0
-49.230068,-25.452455,0
-49.230159,-25.452800,0
-49.230257,-25.453153,0
-49.230337,-25.453419,0
-49.230374,-25.453517,0
-49.230417,-25.453648,0
-49.230500,-25.453842,0
-49.230558,-25.453980,0
-49.230619,-25.454128,0
-49.230851,-25.454611,0
-49.230991,-25.454922,0
-49.231196,-25.455376,0
-49.231370,-25.455760,0
-49.231637,-25.456325,0
-49.231709,-25.456463,0
-49.231772,-25.456599,0
-49.231893,-25.456906,0
-49.232083,-25.457312,0
-49.232219,-25.457606,0
-49.232322,-25.457848,0
-49.232419,-25.458073,0
-49.232557,-25.458372,0
-49.232692,-25.458653,0
-49.232952,-25.459269,0
-49.233193,-25.459880,0
-49.233422,-25.460458,0
-49.233498,-25.460699,0
-49.233592,-25.460927,0
-49.233688,-25.461126,0
-49.233796,-25.461371,0
-49.233955,-25.461729,0
-49.233962,-25.461774,0
-49.234077,-25.462052,0
-49.234148,-25.462215,0
-49.234209,-25.462372,0
-49.234283,-25.462552,0
-49.234311,-25.462635,0
-49.234387,-25.462896,0
-49.234445,-25.463167,0
-49.234457,-25.463292,0
-49.234476,-25.463443,0
-49.234490,-25.463602,0
-49.234504,-25.463738,0
-49.234523,-25.463972,0
-49.234561,-25.464282,0
-49.234581,-25.464513,0
-49.234599,-25.464743,0
-49.234620,-25.464982,0
-49.234641,-25.465232,0
-49.234664,-25.465504,0
-49.234688,-25.465902,0
-49.234707,-25.466271,0
-49.234748,-25.466494,0
-49.234839,-25.466785,0
-49.234898,-25.466968,0
-49.234934,-25.467086,0
-49.234988,-25.467333,0
-49.235018,-25.467542,0
-49.235033,-25.467655,0
-49.235029,-25.467886,0
-49.235081,-25.468091,0
-49.235151,-25.468401,0
-49.235190,-25.468572,0
-49.235238,-25.468812,0
-49.235256,-25.468857,0
-49.235316,-25.468984,0
-49.235369,-25.469096,0
-49.235414,-25.469168,0
-49.235574,-25.469340,0
-49.235978,-25.469686,0
-49.236387,-25.470026,0
-49.236559,-25.470169,0
-49.236706,-25.470312,0
-49.236839,-25.470459,0
-49.236921,-25.470566,0
-49.237041,-25.470744,0
-49.237147,-25.470959,0
-49.237239,-25.471143,0
-49.237371,-25.471421,0
-49.237508,-25.471717,0
-49.237679,-25.472068,0
-49.238044,-25.472700,0
-49.238155,-25.472890,0
-49.238413,-25.473330,0
-49.238486,-25.473390,0
-49.238567,-25.473511,0
-49.238717,-25.473754,0
-49.238976,-25.474181,0
-49.239209,-25.474566,0
-49.239303,-25.474718,0
-49.239352,-25.474837,0
-49.239395,-25.474947,0
-49.239502,-25.475115,0
-49.239620,-25.475289,0
-49.239735,-25.475454,0
-49.239840,-25.475661,0
-49.239934,-25.475854,0
-49.240120,-25.476133,0
-49.240281,-25.476367,0
-49.240414,-25.476517,0
-49.240568,-25.476645,0
-49.240960,-25.476872,0
-49.241345,-25.477084,0
-49.241718,-25.477282,0
-49.242040,-25.477413,0
-49.242401,-25.477552,0
-49.244163,-25.478278,0
-49.245341,-25.478756,0
-49.246999,-25.479426,0
-49.247991,-25.479829,0
-49.248191,-25.479909,0
-49.248062,-25.480205,0
-49.247858,-25.480629,0
-49.247722,-25.480910,0
-49.247642,-25.481055,0
-49.247536,-25.481296,0
-49.247427,-25.481536,0
-49.247318,-25.481771,0
-49.247208,-25.482005,0
-49.246775,-25.482900,0
-49.247771,-25.483295,0
-49.247970,-25.483381,0
-49.248179,-25.483464,0
-49.248762,-25.483724,0
-49.249366,-25.483967,0
-49.249965,-25.484218,0
-49.250351,-25.484351,0
-49.250801,-25.484500,0
-49.251167,-25.484659,0
-49.251759,-25.484904,0
-49.252152,-25.485067,0
-49.252349,-25.485172,0
-49.252634,-25.485280,0
-49.252946,-25.485423,0
-49.253234,-25.485546,0
-49.253496,-25.485664,0
-49.254110,-25.485888,0
-49.254747,-25.486112,0
-49.255919,-25.486588,0
-49.257103,-25.487085,0
-49.256653,-25.488012,0
-49.256318,-25.488697,0
-49.256208,-25.488915,0
-49.255984,-25.489395,0
-49.255870,-25.489642,0
-49.255539,-25.490321,0
-49.255420,-25.490562,0
-49.255342,-25.490714,0
-49.255296,-25.490795,0
-49.255422,-25.490831,0
-49.255931,-25.491039,0
-49.257072,-25.491498,0
-49.257651,-25.491735,0
-49.258833,-25.492188,0
-49.259282,-25.492355,0
-49.259688,-25.492507,0
-49.260135,-25.492684,0
-49.260592,-25.492864,0
-49.260950,-25.493008,0
-49.261783,-25.493341,0
-49.262413,-25.493599,0
-49.262743,-25.493739,0
-49.263113,-25.493896,0
-49.263584,-25.494092,0
-49.263793,-25.494179,0
-49.264029,-25.494280,0
-49.264312,-25.494420,0
-49.264559,-25.494530,0
-49.264823,-25.494649,0
-49.265117,-25.494731,0
-49.265662,-25.494878,0
-49.265882,-25.494934,0
-49.266237,-25.495035,0
-49.267143,-25.495280,0
-49.267774,-25.495451,0
-49.267903,-25.495487,0
-49.268316,-25.495598,0
-49.268798,-25.495721,0
-49.269246,-25.495831,0
-49.269780,-25.495950,0
-49.269901,-25.495988,0
-49.270002,-25.496027,0
-49.270111,-25.496069,0
-49.270288,-25.496158,0
-49.270471,-25.496356,0
-49.270604,-25.496511,0
-49.270742,-25.496509,0
-49.271290,-25.496538,0
-49.271727,-25.496562,0
-49.272312,-25.496596,0
-49.272665,-25.496599,0
-49.272823,-25.496598,0
-49.273265,-25.496556,0
-49.273320,-25.496524,0
-49.273651,-25.496466,0
-49.273976,-25.496387,0
-49.274219,-25.496315,0
-49.274443,-25.496237,0
-49.275020,-25.496029,0
-49.275315,-25.495923,0
-49.275999,-25.495679,0
-49.277081,-25.495325,0
-49.277542,-25.495176,0
-49.277649,-25.495140,0
-49.277742,-25.495141,0
-49.278398,-25.494921,0
-49.279026,-25.494725,0
-49.279379,-25.494640,0
-49.279757,-25.494582,0
-49.280244,-25.494506,0
-49.280796,-25.494426,0
-49.280920,-25.494410,0
-49.281216,-25.494389,0
-49.281445,-25.494398,0
-49.281614,-25.494411,0
-49.281824,-25.494423,0
-49.282282,-25.494465,0
-49.283091,-25.494546,0
-49.283785,-25.494605,0
-49.284522,-25.494632,0
-49.284826,-25.494643,0
-49.285329,-25.494641,0
-49.285636,-25.494628,0
-49.285828,-25.494628,0
-49.285926,-25.494630,0
-49.286056,-25.494648,0
-49.286143,-25.494671,0
-49.286277,-25.494700,0
-49.286471,-25.494801,0
-49.286675,-25.494900,0
-49.286778,-25.494944,0
-49.286917,-25.494985,0
-49.287054,-25.495012,0
-49.287155,-25.495010,0
-49.287248,-25.495000,0
-49.287327,-25.494984,0
-49.287503,-25.494903,0
-49.287652,-25.494805,0
-49.287791,-25.494699,0
-49.288075,-25.494437,0
-49.288375,-25.494155,0
-49.289617,-25.494495,0
-49.290321,-25.494687,0
-49.290704,-25.494793,0
-49.290850,-25.494841,0
-49.291389,-25.495129,0
-49.291649,-25.495275,0
-49.292327,-25.494952,0
-49.292072,-25.494590,0
-49.291787,-25.494197,0
-49.291518,-25.493802,0
-49.291418,-25.493621,0
-49.291366,-25.493484,0
-49.291311,-25.493315,0
-49.291272,-25.493125,0
-49.291263,-25.492965,0
-49.291269,-25.492820,0
-49.291298,-25.492531,0
-49.291398,-25.492515,0
-49.291897,-25.492526,0
-49.292542,-25.492567,0
-49.292937,-25.492614,0
-49.293057,-25.491517,0
-49.291451,-25.491482,0
-49.291478,-25.491364,0
-49.291615,-25.490376,0
-49.291661,-25.489985,0
-49.291696,-25.489667,0
-49.291735,-25.489225,0
-49.291753,-25.488952,0
-49.291847,-25.488491,0
-49.292041,-25.488147,0
-49.292209,-25.487754,0
-49.292405,-25.487268,0
-49.292472,-25.487080,0
-49.292512,-25.486957,0
-49.292544,-25.486797,0
-49.292539,-25.486693,0
-49.292525,-25.486568,0
-49.292465,-25.486266,0
-49.292364,-25.485751,0
-49.292315,-25.485501,0
-49.292269,-25.485258,0
-49.292161,-25.484777,0
-49.292087,-25.484429,0
-49.292067,-25.484305,0
-49.292010,-25.484193,0
-49.291896,-25.483978,0
-49.291720,-25.483637,0
-49.291424,-25.483090,0
-49.291286,-25.482837,0
-49.291188,-25.482648,0
-49.290994,-25.482216,0
-49.290917,-25.481965,0
-49.290865,-25.481771,0
-49.290841,-25.481633,0
-49.290820,-25.481393,0
-49.290816,-25.480540,0
-49.290793,-25.480244,0
-49.291234,-25.480161,0
-49.291671,-25.480079,0
-49.291979,-25.479997,0
-49.292267,-25.479922,0
-49.292213,-25.479764,0
-49.292189,-25.479598,0
-49.292166,-25.479363,0
-49.292137,-25.479067,0
-49.292095,-25.478666,0
-49.292050,-25.478230,0
-49.292030,-25.477912,0
-49.292034,-25.477855,0
-49.292067,-25.477771,0
-49.292149,-25.477588,0
-49.292257,-25.477342,0
-49.292405,-25.476946,0
-49.292395,-25.476805,0
-49.292353,-25.476733,0
-49.292293,-25.476661,0
-49.292201,-25.476606,0
-49.292127,-25.476570,0
-49.292277,-25.476163,0
-49.292428,-25.475756,0
-49.292008,-25.475603,0
-49.291865,-25.475517,0
-49.292085,-25.475369,0
-49.292356,-25.475182,0
-49.291258,-25.474754,0
-49.290711,-25.474554,0
-49.290285,-25.474395,0
-49.290231,-25.474357,0
-49.290180,-25.474338,0
-49.290122,-25.474306,0
-49.290089,-25.474280,0
-49.290068,-25.474230,0
-49.290070,-25.474179,0
-49.290059,-25.474104,0
-49.290238,-25.473723,0
-49.290432,-25.473302,0
-49.290562,-25.473039,0
-49.290685,-25.472795,0
-49.290962,-25.472242,0
-49.291037,-25.472049,0
-49.291074,-25.471889,0
-49.291102,-25.471652,0
-49.291104,-25.471468,0
-49.291096,-25.471255,0
-49.291042,-25.470997,0
-49.290992,-25.470812,0
-49.290946,-25.470691,0
-49.290842,-25.470454,0
-49.290686,-25.470107,0
-49.290557,-25.469803,0
-49.290432,-25.469510,0
-49.290189,-25.468938,0
-49.289980,-25.468393,0
-49.289915,-25.468201,0
-49.289890,-25.468041,0
-49.289894,-25.467869,0
-49.289907,-25.467771,0
-49.289933,-25.467618,0
-49.289954,-25.467551,0
-49.289983,-25.467492,0
-49.290040,-25.467359,0
-49.290171,-25.467132,0
-49.290284,-25.466903,0
-49.290380,-25.466713,0
-49.290413,-25.466598,0
-49.290427,-25.466522,0
-49.290442,-25.466431,0
-49.290449,-25.466355,0
-49.290463,-25.466153,0
-49.290478,-25.465923,0
-49.290466,-25.465883,0
-49.290428,-25.465755,0
-49.290331,-25.465508,0
-49.290288,-25.465403,0
-49.290244,-25.465289,0
-49.290231,-25.465261,0
-49.290096,-25.464946,0
-49.290006,-25.464750,0
-49.289355,-25.463538,0
-49.289092,-25.462910,0
-49.288947,-25.462569,0
-49.288837,-25.462302,0
-49.289447,-25.462085,0
-49.290070,-25.461868,0
-49.290225,-25.461844,0
-49.290323,-25.462033,0
-49.290823,-25.461933,0
-49.291177,-25.461867,0
-49.291630,-25.461786,0
-49.292227,-25.461678,0
-49.292860,-25.461566,0
-49.293463,-25.461457,0
-49.294115,-25.461342,0
-49.295411,-25.461130,0
-49.295888,-25.461046,0
-49.296496,-25.460936,0
-49.297189,-25.460821,0
-49.297788,-25.460723,0
-49.297958,-25.460688,0
-49.298575,-25.460576,0
-49.298884,-25.460521,0
-49.299216,-25.460470,0
-49.300110,-25.460311,0
-49.301236,-25.460114,0
-49.301341,-25.460101,0
-49.301795,-25.460017,0
-49.301984,-25.459572,0
-49.302210,-25.459374,0
-49.302290,-25.459304,0
-49.302352,-25.459182,0
-49.302386,-25.459074,0
-49.302419,-25.458954,0
-49.302402,-25.458861,0
-49.302373,-25.458761,0
-49.302324,-25.458588,0
-49.302504,-25.458032,0
-49.302688,-25.457484,0
-49.302868,-25.456978,0
-49.302917,-25.456832,0
-49.303059,-25.456478,0
-49.303201,-25.456120,0
-49.303396,-25.455559,0
-49.303605,-25.454947,0
-49.303906,-25.454027,0
-49.304062,-25.453553,0
-49.304169,-25.453236,0
-49.304251,-25.452940,0
-49.304290,-25.452678,0
-49.304290,-25.452438,0
-49.304312,-25.452387,0
-49.304382,-25.452296,0
-49.304356,-25.452247,0
-49.304349,-25.452207,0
-49.304352,-25.452162,0
-49.304362,-25.452121,0
-49.304384,-25.452083,0
-49.304427,-25.452030,0
-49.304488,-25.451996,0
-49.304530,-25.451902,0
-49.304558,-25.451825,0
-49.304582,-25.451760,0
-49.304601,-25.451722,0
-49.304631,-25.451627,0
-49.304643,-25.451549,0
-49.304615,-25.451172,0
-49.304603,-25.450992,0
-49.304570,-25.450698,0
-49.304558,-25.450541,0
-49.304550,-25.450444,0
-49.304529,-25.450155,0
-49.304538,-25.449823,0
-49.304567,-25.449541,0
-49.304595,-25.449389,0
-49.304629,-25.449213,0
-49.304647,-25.448989,0
-49.304661,-25.448805,0
-49.304670,-25.448560,0
-49.304682,-25.447981,0
-49.304692,-25.447780,0
-49.304681,-25.447191,0
-49.304693,-25.446702,0
-49.304711,-25.445869,0
-49.304699,-25.445716,0
-49.304697,-25.445588,0
-49.304701,-25.445345,0
-49.304714,-25.445130,0
-49.304734,-25.444769,0
-49.304748,-25.444543,0
-49.304774,-25.444408,0
-49.304824,-25.444037,0
-49.304845,-25.443897,0
-49.304885,-25.443703,0
-49.304994,-25.443383,0
-49.305081,-25.443137,0
-49.305157,-25.442966,0
-49.305286,-25.442666,0
-49.305558,-25.442145,0
-49.305684,-25.441921,0
-49.305815,-25.441683,0
-49.306157,-25.441063,0
-49.306340,-25.440758,0
-49.306443,-25.440585,0
-49.306801,-25.439914,0
-49.307047,-25.439427,0
-49.307181,-25.439126,0
-49.307299,-25.438900,0
-49.307414,-25.438674,0
-49.307524,-25.438386,0
-49.307699,-25.437936,0
-49.307806,-25.437670,0
-49.307916,-25.437448,0
-49.308124,-25.437001,0
-49.308237,-25.436742,0
-49.308320,-25.436565,0
-49.307296,-25.436204,0
-49.306241,-25.435783,0
-49.306058,-25.435973,0
-49.305843,-25.436172,0
-49.305694,-25.436278,0
-49.305368,-25.436432,0
-49.304813,-25.436225,0
-49.303947,-25.435905,0
-49.302756,-25.435465,0
-49.302060,-25.435199,0
-49.301659,-25.435036,0
-49.301288,-25.434898,0
-49.300569,-25.434623,0
-49.299473,-25.434201,0
-49.298429,-25.433799,0
-49.297588,-25.433459,0
-49.297136,-25.433273,0
-49.296572,-25.433064,0
-49.295413,-25.432614,0
-49.294902,-25.432402,0
-49.294212,-25.432131,0
-49.293738,-25.431944,0
-49.292610,-25.431518,0
-49.292079,-25.431299,0
-49.291642,-25.431120,0
-49.290558,-25.430705,0
-49.289422,-25.430277,0
-49.289544,-25.430016,0
-49.289755,-25.429575,0
-49.289850,-25.429378,0
-49.290498,-25.428001,0
-49.290664,-25.427696,0
-49.290969,-25.427125,0
-49.291084,-25.426874,0
-49.291268,-25.426478,0
-49.291605,-25.425793,0
-49.291903,-25.425185,0
-49.291963,-25.425068,0
-49.291991,-25.424999,0
-49.291810,-25.424903,0
-49.291205,-25.424455,0
-49.290859,-25.424206,0
-49.290795,-25.424005,0
-49.290728,-25.423805,0
-49.290593,-25.423403,0
-49.290398,-25.422787,0
-49.290354,-25.422708,0
-49.290539,-25.422682,0
-49.291263,-25.422476,0
-49.291318,-25.422447,0
-49.291394,-25.422378,0
-49.291423,-25.422356,0
-49.291625,-25.422206,0
-49.291821,-25.422049,0
-49.291754,-25.421979,0
-49.291704,-25.421876,0
-49.291688,-25.421823,0
-49.291539,-25.421260,0
-49.291460,-25.420957,0
-49.291264,-25.420134,0
-49.291157,-25.419702,0
-49.290828,-25.418519,0
-49.290681,-25.417962,0
-49.290557,-25.417482,0
-49.290493,-25.417316,0
-49.290366,-25.416826,0
-49.290236,-25.416331,0
-49.290034,-25.415533,0
-49.289932,-25.415131,0
-49.289824,-25.414718,0
-49.289789,-25.414571,0
-49.289737,-25.414303,0
-49.289690,-25.414301,0
-49.289652,-25.414270,0
-49.289505,-25.414293,0
-49.289339,-25.414308,0
-49.289183,-25.414322,0
-49.288913,-25.414383,0
-49.288199,-25.414530,0
-49.287041,-25.414769,0
-49.286349,-25.414928,0
-49.285702,-25.415076,0
-49.284637,-25.415315,0
-49.284101,-25.415408,0
-49.283542,-25.415533,0
-49.283147,-25.415622,0
-49.282667,-25.415720,0
-49.282170,-25.415828,0
-49.281729,-25.415922,0
-49.281068,-25.416073,0
-49.280695,-25.416158,0
-49.280374,-25.416232,0
-49.280236,-25.416285,0
-49.279746,-25.416381,0
-49.278933,-25.416559,0
-49.278660,-25.416613,0
-49.278494,-25.416642,0
-49.277569,-25.416838,0
-49.277101,-25.416938,0
-49.276742,-25.417030,0
-49.275822,-25.417196,0
-49.275190,-25.417334,0
-49.274399,-25.417471,0
-49.273889,-25.417578,0
-49.273386,-25.417684,0
-49.272776,-25.417818,0
-49.272080,-25.417961,0
-49.271388,-25.418096,0
-49.271271,-25.418125,0
-49.271112,-25.418156,0
-49.271018,-25.418182,0
-49.270937,-25.418212,0
-49.270873,-25.418243,0
-49.270807,-25.418282,0
-49.270678,-25.418381,0
-49.270552,-25.418434,0
-49.270326,-25.418485,0
-49.269779,-25.418602,0
-49.268990,-25.418828,0
-49.268783,-25.418936,0
-49.268719,-25.418698,0
-49.268604,-25.418200,0
-49.268466,-25.417542,0
-49.268353,-25.417067,0
-49.268258,-25.416679,0
-49.268209,-25.416666,0
-49.268182,-25.416649,0
-49.268149,-25.416616,0
-49.268125,-25.416577,0
-49.267708,-25.416640,0
-49.267535,-25.416670,0
-49.267348,-25.416688,0
-49.267187,-25.416695,0
-49.267053,-25.416673,0
-49.266698,-25.416545,0
-49.266597,-25.416497,0
-49.266560,-25.416453,0
-49.266517,-25.416326,0
-49.266433,-25.415963,0
-49.266382,-25.415749,0
-49.266239,-25.415162,0
-49.266133,-25.414730,0
-49.265985,-25.414136,0
-49.265925,-25.413923,0
-49.265831,-25.413577,0
-49.265742,-25.413187,0
-49.265738,-25.413129,0
-49.265744,-25.413018,0
-49.265761,-25.412803,0
-49.265719,-25.412755,0
-49.265703,-25.412727,0
-49.265697,-25.412691,0
-49.265694,-25.412641,0
-49.265560,-25.412645,0
-49.265204,-25.412677,0
-49.264472,-25.412741,0
-49.263867,-25.412802,0
-49.263651,-25.412839,0
-49.263204,-25.412957,0
-49.262602,-25.413110,0
-49.261980,-25.413265,0
-49.261711,-25.413346,0
-49.261553,-25.413413,0
-49.261436,-25.413483,0
-49.261071,-25.413747,0
-49.260358,-25.414259,0
-49.260061,-25.414500,0
-49.260220,-25.414577,0
-49.260173,-25.414808,0
-49.259930,-25.415157,0
-49.259774,-25.415386,0
-49.259693,-25.415472,0
-49.259503,-25.415248,0
-49.259286,-25.415015,0
-49.258861,-25.414564,0
-49.258578,-25.414265,0
-49.258342,-25.414016,0
-49.258210,-25.413903,0
-49.257920,-25.413765,0
-49.257798,-25.413714,0
-49.257609,-25.413661,0
-49.257459,-25.413640,0
-49.257220,-25.413612,0
-49.256692,-25.413541,0
-49.256362,-25.413496,0
-49.256086,-25.413460,0
-49.255714,-25.413411,0
-49.255540,-25.413364,0
-49.255455,-25.413319,0
-49.255337,-25.413241,0
-49.255293,-25.413203,0
-49.255234,-25.413126,0
-49.255178,-25.413038,0
-49.255049,-25.412750,0
-49.254846,-25.412280,0
-49.254735,-25.412080,0
-49.254649,-25.411926,0
-49.254618,-25.411852,0
-49.254605,-25.411750,0
-49.254628,-25.411656,0
-49.254646,-25.411576,0
-49.254670,-25.411498,0
-49.254691,-25.411381,0
-49.254690,-25.411304,0
-49.254680,-25.411250,0
-49.254599,-25.411109,0
-49.254506,-25.410958,0
-49.254458,-25.410881,0
-49.254416,-25.410776,0
-49.254376,-25.410605,0
-49.254303,-25.410173,0
-49.254255,-25.410003,0
-49.254193,-25.409851,0
-49.254121,-25.409719,0
-49.254080,-25.409651,0
-49.253853,-25.409410,0
-49.253607,-25.409149,0
-49.253254,-25.408777,0
-49.252406,-25.407863,0
-49.252671,-25.407659,0
-49.252939,-25.407445,0
-49.252730,-25.407224,0
-49.252566,-25.407052,0
-49.252425,-25.406902,0
-49.252290,-25.406759,0
-49.252169,-25.406638,0</coordinates></LineString></Placemark><Placemark><name>1 - 109086 - Estação Tubo Terminal Cabral/n022 - Inter 2 (Horário) (Sentido Capão da Imbuia)</name><description>ID: 306544&lt;br/&gt;Tipo: OBRIGATÓRIO&lt;br/&gt;Distância: 0,000 km</description><Point><coordinates>-49.252187,-25.406600,0</coordinates></Point></Placemark><Placemark><name>2 - 109001 - Estação Tubo Prisma Solar Agrárias - Cabral / Capão da Imbuia/n022 - Inter 2 (Horário)/n023 - Inter 2 (Anti-Horário)</name><description>ID: 306545&lt;br/&gt;Tipo: INTERMEDIÁRIO&lt;br/&gt;Distância: 0,608 km</description><Point><coordinates>-49.248223,-25.410621,0</coordinates></Point></Placemark><Placemark><name>3 - PRV[18056-1]</name><description>ID: 306546&lt;br/&gt;Tipo: INTERMEDIÁRIO&lt;br/&gt;Distância: 2,643 km</description><Point><coordinates>-49.240570,-25.421686,0</coordinates></Point></Placemark><Placemark><name>4 - 109048 - Estação Tubo Praça das Nações - Cabral / Capão da Imbuia / Bairro Alto / Santa Felicidade/n022 - Inter 2 (Horário)/n023 - Inter 2 (Anti-Horário)/n307 - B. Alto / Sta. Felicidade (Sentido Terminal Sta. Felicidade)</name><description>ID: 306547&lt;br/&gt;Tipo: INTERMEDIÁRIO&lt;br/&gt;Distância: 3,187 km</description><Point><coordinates>-49.242351,-25.425924,0</coordinates></Point></Placemark><Placemark><name>5 - 109021 - Estação Tubo Colégio Militar - Cabral / Capão da Imbuia / Bairro Alto / Santa Felicidade/n022 - Inter 2 (Horário)/n023 - Inter 2 (Anti-Horário)/n307 - B. Alto / Sta. Felicidade (Sentido Terminal Sta. Felicidade)</name><description>ID: 306548&lt;br/&gt;Tipo: INTERMEDIÁRIO&lt;br/&gt;Distância: 5,093 km</description><Point><coordinates>-49.225112,-25.428907,0</coordinates></Point></Placemark><Placemark><name>6 - 109024 - Estação Tubo Detran - Capão da Imbuia / Bairro Alto/n022 - Inter 2 (Horário)/n307 - B. Alto / Sta. Felicidade/n340 - Detran / B.Alto</name><description>ID: 306549&lt;br/&gt;Tipo: INTERMEDIÁRIO&lt;br/&gt;Distância: 6,504 km</description><Point><coordinates>-49.212455,-25.430284,0</coordinates></Point></Placemark><Placemark><name>7 - 109119 - Terminal Capão da Imbuia/n022 - Inter 2 (Horário) (Sentido Hauer)</name><description>ID: 306550&lt;br/&gt;Tipo: OBRIGATÓRIO&lt;br/&gt;Distância: 8,436 km</description><Point><coordinates>-49.222280,-25.439824,0</coordinates></Point></Placemark><Placemark><name>8 - 109034 - Jardim das América/n022 - Inter 2 (Horário)/n023 - Inter 2 (Anti-Horário)/n469 - Centro Politécnico</name><description>ID: 306551&lt;br/&gt;Tipo: INTERMEDIÁRIO&lt;br/&gt;Distância: 10,418 km</description><Point><coordinates>-49.229970,-25.452382,0</coordinates></Point></Placemark><Placemark><name>9 - PRV[18056-2]</name><description>ID: 306552&lt;br/&gt;Tipo: INTERMEDIÁRIO&lt;br/&gt;Distância: 12,472 km</description><Point><coordinates>-49.236387,-25.470026,0</coordinates></Point></Placemark><Placemark><name>10 - 109065 - Estação Tubo Salgado Filho -Sentido  Aeroporto /  Hauer / Centro Cívico / Capão da Imbuia/n022 - Inter 2 (Horário)/n023 - Inter 2 (Anti-Horário)</name><description>ID: 306553&lt;br/&gt;Tipo: INTERMEDIÁRIO&lt;br/&gt;Distância: 12,690 km</description><Point><coordinates>-49.237493,-25.471695,0</coordinates></Point></Placemark><Placemark><name>11 - 109108 - Terminal Hauer/n022 - Inter 2 (Horário) (Sentido Capão Raso)</name><description>ID: 306554&lt;br/&gt;Tipo: OBRIGATÓRIO&lt;br/&gt;Distância: 14,347 km</description><Point><coordinates>-49.247394,-25.481449,0</coordinates></Point></Placemark><Placemark><name>12 - PRV[18056-3]</name><description>ID: 306555&lt;br/&gt;Tipo: INTERMEDIÁRIO&lt;br/&gt;Distância: 16,470 km</description><Point><coordinates>-49.258833,-25.492188,0</coordinates></Point></Placemark><Placemark><name>13 - 109077 - Estação Tubo Xaxim - Hauer / Capão Raso/n022 - Inter 2 (Horário)/n023 - Inter 2 (Anti-Horário)</name><description>ID: 306556&lt;br/&gt;Tipo: INTERMEDIÁRIO&lt;br/&gt;Distância: 17,720 km</description><Point><coordinates>-49.270365,-25.496289,0</coordinates></Point></Placemark><Placemark><name>14 - PRV[18056-4]</name><description>ID: 306557&lt;br/&gt;Tipo: INTERMEDIÁRIO&lt;br/&gt;Distância: 19,714 km</description><Point><coordinates>-49.289617,-25.494495,0</coordinates></Point></Placemark><Placemark><name>15 - 109095 - Terminal Capão Raso/n022 - Inter 2 (Horário)  (Sentido Portão)/n023 - Inter 2 (Anti-Horário)/n024 - C.Raso/Camp. Siqueira.</name><description>ID: 306558&lt;br/&gt;Tipo: OBRIGATÓRIO&lt;br/&gt;Distância: 20,588 km</description><Point><coordinates>-49.293088,-25.491786,0</coordinates></Point></Placemark><Placemark><name>16 - 109091 - Terminal Portão/n022 - Inter 2 (Horário) (Sentido Campina do Siqueira)/n023 - Inter 2 (Anti-Horário)/n024 - C. Raso / Camp. Siqueira.</name><description>ID: 306559&lt;br/&gt;Tipo: OBRIGATÓRIO&lt;br/&gt;Distância: 22,609 km</description><Point><coordinates>-49.292383,-25.475997,0</coordinates></Point></Placemark><Placemark><name>17 - PRV[18056-5]</name><description>ID: 306560&lt;br/&gt;Tipo: INTERMEDIÁRIO&lt;br/&gt;Distância: 24,639 km</description><Point><coordinates>-49.290823,-25.461933,0</coordinates></Point></Placemark><Placemark><name>18 - 109066 - Estação Tubo Santa Quitéria -Sentido Guadalupe / T. Campina do Siqueira/nX36 - Ref. Guadalupe / Fazendinha/n022 - Inter 2 (Horário)/n023 - Inter 2 (Anti-Horário)/n024 - C. Raso / Camp. Siqueira/n702 - Caiuá / Cachoeira</name><description>ID: 306561&lt;br/&gt;Tipo: INTERMEDIÁRIO&lt;br/&gt;Distância: 25,872 km</description><Point><coordinates>-49.302406,-25.459129,0</coordinates></Point></Placemark><Placemark><name>19 - PRV[18056-6]</name><description>ID: 306562&lt;br/&gt;Tipo: INTERMEDIÁRIO&lt;br/&gt;Distância: 27,913 km</description><Point><coordinates>-49.306157,-25.441063,0</coordinates></Point></Placemark><Placemark><name>20 - 109125 - Terminal Campina do Siqueira - 022 - Inter 2 (Horário) (Sentido Cabral)./n022 - Inter 2 (Horário)/n024 - C. Raso / Camp. Siqueira</name><description>ID: 306563&lt;br/&gt;Tipo: OBRIGATÓRIO&lt;br/&gt;Distância: 28,561 km</description><Point><coordinates>-49.307513,-25.436224,0</coordinates></Point></Placemark><Placemark><name>21 - PRV[18056-7]</name><description>ID: 306564&lt;br/&gt;Tipo: INTERMEDIÁRIO&lt;br/&gt;Distância: 30,603 km</description><Point><coordinates>-49.289755,-25.429575,0</coordinates></Point></Placemark><Placemark><name>22 - 109046 - Estação Tubo Mêrces - Cabral / Santa Felicidade/n022 - Inter 2 (Horário)/n307 - B. Alto / Sta. Felicidade (Sentido Terminal Sta. Felicidade)/n902 - Sta. Felicidade L.D.</name><description>ID: 306565&lt;br/&gt;Tipo: INTERMEDIÁRIO&lt;br/&gt;Distância: 31,582 km</description><Point><coordinates>-49.291559,-25.422359,0</coordinates></Point></Placemark><Placemark><name>23 - 109045 - Estação Tubo Praça da Bandeira - Cabral/n022 - Inter 2 (Horário)</name><description>ID: 306566&lt;br/&gt;Tipo: INTERMEDIÁRIO&lt;br/&gt;Distância: 33,618 km</description><Point><coordinates>-49.279266,-25.416557,0</coordinates></Point></Placemark><Placemark><name>24 - 109011 - Estação Tubo Centro Cívico  - Assembléia - Sentido Museu Oscar Niemeyer / Cabral / Barreirinha/n022 - Inter 2 (HORÁRIO)/n206 - Barreirinha / São José/n505 - Boqueirão / C. Cívico/n702 - Caiuá / Cachoeira</name><description>ID: 306567&lt;br/&gt;Tipo: INTERMEDIÁRIO&lt;br/&gt;Distância: 35,175 km</description><Point><coordinates>-49.266380,-25.415626,0</coordinates></Point></Placemark><Placemark><name>25 - PRV[18056-8]</name><description>ID: 306568&lt;br/&gt;Tipo: INTERMEDIÁRIO&lt;br/&gt;Distância: 37,181 km</description><Point><coordinates>-49.254193,-25.409851,0</coordinates></Point></Placemark><Placemark><name>26 - 109086 - Estação Tubo Terminal Cabral/n022 - Inter 2 (Horário) (Sentido Capão da Imbuia)</name><description>ID: 306544&lt;br/&gt;Tipo: OBRIGATÓRIO&lt;br/&gt;Distância: 37,649 km</description><Point><coordinates>-49.252187,-25.406600,0</coordinates></Point></Placemark></Document></kml>