<?xml version='1.0' encoding='utf-8'?>
<gpx version="1.1" creator="Conversor" xmlns="http://www.topografix.com/GPX/1/1" xmlns:xsi="http://www.w3.org/2001/XMLSchema-instance" xsi:schemaLocation="http://www.topografix.com/GPX/1/1 http://www.topografix.com/GPX/1/1/gpx.xsd"><metadata><name>022-inter2-linha-direta-circular</name></metadata><trk><name>022-inter2-linha-direta-circular</name><trkseg><trkpt lat="-25.406631" lon="-49.252163" /><trkpt lat="-25.406486" lon="-49.252031" /><trkpt lat="-25.406337" lon="-49.251886" /><trkpt lat="-25.406844" lon="-49.251459" /><trkpt lat="-25.407484" lon="-49.250904" /><trkpt lat="-25.408057" lon="-49.250408" /><trkpt lat="-25.409024" lon="-49.249572" /><trkpt lat="-25.409934" lon="-49.248787" /><trkpt lat="-25.409979" lon="-49.248775" /><trkpt lat="-25.410054" lon="-49.248726" /><trkpt lat="-25.410106" lon="-49.248690" /><trkpt lat="-25.410412" lon="-49.248437" /><trkpt lat="-25.410908" lon="-49.247992" /><trkpt lat="-25.411146" lon="-49.247775" /><trkpt lat="-25.411195" lon="-49.247719" /><trkpt lat="-25.411214" lon="-49.247685" /><trkpt lat="-25.411312" lon="-49.247587" /><trkpt lat="-25.411486" lon="-49.247431" /><trkpt lat="-25.411656" lon="-49.247279" /><trkpt lat="-25.412268" lon="-49.246735" /><trkpt lat="-25.412417" lon="-49.246602" /><trkpt lat="-25.412474" lon="-49.246556" /><trkpt lat="-25.412791" lon="-49.246325" /><trkpt lat="-25.412858" lon="-49.246284" /><trkpt lat="-25.412913" lon="-49.246257" /><trkpt lat="-25.412986" lon="-49.246231" /><trkpt lat="-25.413052" lon="-49.246234" /><trkpt lat="-25.413134" lon="-49.246248" /><trkpt lat="-25.413281" lon="-49.246291" /><trkpt lat="-25.413361" lon="-49.246331" /><trkpt lat="-25.413428" lon="-49.246369" /><trkpt lat="-25.413499" lon="-49.246424" /><trkpt lat="-25.414082" lon="-49.247056" /><trkpt lat="-25.414644" lon="-49.247666" /><trkpt lat="-25.414856" lon="-49.247680" /><trkpt lat="-25.415030" lon="-49.247708" /><trkpt lat="-25.415346" lon="-49.247743" /><trkpt lat="-25.415750" lon="-49.247790" /><trkpt lat="-25.416033" lon="-49.247821" /><trkpt lat="-25.416394" lon="-49.247850" /><trkpt lat="-25.416757" lon="-49.247876" /><trkpt lat="-25.417374" lon="-49.247925" /><trkpt lat="-25.417431" lon="-49.247268" /><trkpt lat="-25.417486" lon="-49.246640" /><trkpt lat="-25.417581" lon="-49.245388" /><trkpt lat="-25.417725" lon="-49.243772" /><trkpt lat="-25.417754" lon="-49.243518" /><trkpt lat="-25.417777" lon="-49.243242" /><trkpt lat="-25.417823" lon="-49.242637" /><trkpt lat="-25.417877" lon="-49.242028" /><trkpt lat="-25.417923" lon="-49.241491" /><trkpt lat="-25.417941" lon="-49.241143" /><trkpt lat="-25.418282" lon="-49.240931" /><trkpt lat="-25.418447" lon="-49.240826" /><trkpt lat="-25.418616" lon="-49.240722" /><trkpt lat="-25.418973" lon="-49.240503" /><trkpt lat="-25.419306" lon="-49.240297" /><trkpt lat="-25.419648" lon="-49.240093" /><trkpt lat="-25.419813" lon="-49.240003" /><trkpt lat="-25.419905" lon="-49.239950" /><trkpt lat="-25.420087" lon="-49.239872" /><trkpt lat="-25.420218" lon="-49.239827" /><trkpt lat="-25.420307" lon="-49.239808" /><trkpt lat="-25.420394" lon="-49.239800" /><trkpt lat="-25.420568" lon="-49.239811" /><trkpt lat="-25.420653" lon="-49.239830" /><trkpt lat="-25.420746" lon="-49.239865" /><trkpt lat="-25.420936" lon="-49.239989" /><trkpt lat="-25.421156" lon="-49.240161" /><trkpt lat="-25.421686" lon="-49.240570" /><trkpt lat="-25.421827" lon="-49.240693" /><trkpt lat="-25.422328" lon="-49.241088" /><trkpt lat="-25.422640" lon="-49.241335" /><trkpt lat="-25.422835" lon="-49.241490" /><trkpt lat="-25.423078" lon="-49.241691" /><trkpt lat="-25.423420" lon="-49.241974" /><trkpt lat="-25.423863" lon="-49.242281" /><trkpt lat="-25.424102" lon="-49.242416" /><trkpt lat="-25.424192" lon="-49.242458" /><trkpt lat="-25.424314" lon="-49.242503" /><trkpt lat="-25.424439" lon="-49.242539" /><trkpt lat="-25.424803" lon="-49.242621" /><trkpt lat="-25.424933" lon="-49.242632" /><trkpt lat="-25.425121" lon="-49.242630" /><trkpt lat="-25.425270" lon="-49.242616" /><trkpt lat="-25.425735" lon="-49.242515" /><trkpt lat="-25.426102" lon="-49.242417" /><trkpt lat="-25.426457" lon="-49.242312" /><trkpt lat="-25.426692" lon="-49.242223" /><trkpt lat="-25.426913" lon="-49.242138" /><trkpt lat="-25.427236" lon="-49.242016" /><trkpt lat="-25.427381" lon="-49.241956" /><trkpt lat="-25.427538" lon="-49.241879" /><trkpt lat="-25.427634" lon="-49.241827" /><trkpt lat="-25.427759" lon="-49.241760" /><trkpt lat="-25.427911" lon="-49.241677" /><trkpt lat="-25.428058" lon="-49.241597" /><trkpt lat="-25.428289" lon="-49.241464" /><trkpt lat="-25.428369" lon="-49.241335" /><trkpt lat="-25.428409" lon="-49.241242" /><trkpt lat="-25.428414" lon="-49.241211" /><trkpt lat="-25.428411" lon="-49.241177" /><trkpt lat="-25.428401" lon="-49.241141" /><trkpt lat="-25.428387" lon="-49.241120" /><trkpt lat="-25.428245" lon="-49.241072" /><trkpt lat="-25.428078" lon="-49.241027" /><trkpt lat="-25.428013" lon="-49.240995" /><trkpt lat="-25.427961" lon="-49.240959" /><trkpt lat="-25.427894" lon="-49.240902" /><trkpt lat="-25.427849" lon="-49.240856" /><trkpt lat="-25.427810" lon="-49.240806" /><trkpt lat="-25.427697" lon="-49.240653" /><trkpt lat="-25.427625" lon="-49.240515" /><trkpt lat="-25.427525" lon="-49.240253" /><trkpt lat="-25.427466" lon="-49.240090" /><trkpt lat="-25.427427" lon="-49.239952" /><trkpt lat="-25.427416" lon="-49.239899" /><trkpt lat="-25.427403" lon="-49.239834" /><trkpt lat="-25.427395" lon="-49.239758" /><trkpt lat="-25.427391" lon="-49.239639" /><trkpt lat="-25.427398" lon="-49.239457" /><trkpt lat="-25.427474" lon="-49.238753" /><trkpt lat="-25.427496" lon="-49.238500" /><trkpt lat="-25.427564" lon="-49.238060" /><trkpt lat="-25.427583" lon="-49.237890" /><trkpt lat="-25.427661" lon="-49.237096" /><trkpt lat="-25.427703" lon="-49.236673" /><trkpt lat="-25.427754" lon="-49.236261" /><trkpt lat="-25.427822" lon="-49.235637" /><trkpt lat="-25.427922" lon="-49.234714" /><trkpt lat="-25.427985" lon="-49.233931" /><trkpt lat="-25.428018" lon="-49.233555" /><trkpt lat="-25.428042" lon="-49.233344" /><trkpt lat="-25.428084" lon="-49.233081" /><trkpt lat="-25.428172" lon="-49.232349" /><trkpt lat="-25.428215" lon="-49.232003" /><trkpt lat="-25.428230" lon="-49.231885" /><trkpt lat="-25.428295" lon="-49.231343" /><trkpt lat="-25.428347" lon="-49.230939" /><trkpt lat="-25.428455" lon="-49.229986" /><trkpt lat="-25.428552" lon="-49.229218" /><trkpt lat="-25.428553" lon="-49.228865" /><trkpt lat="-25.428621" lon="-49.228323" /><trkpt lat="-25.428682" lon="-49.227630" /><trkpt lat="-25.428710" lon="-49.227318" /><trkpt lat="-25.428768" lon="-49.226839" /><trkpt lat="-25.428853" lon="-49.226093" /><trkpt lat="-25.428932" lon="-49.225427" /><trkpt lat="-25.429010" lon="-49.224496" /><trkpt lat="-25.429119" lon="-49.223512" /><trkpt lat="-25.429213" lon="-49.222622" /><trkpt lat="-25.429280" lon="-49.221966" /><trkpt lat="-25.429331" lon="-49.221611" /><trkpt lat="-25.429380" lon="-49.221354" /><trkpt lat="-25.429397" lon="-49.221118" /><trkpt lat="-25.429443" lon="-49.220881" /><trkpt lat="-25.429466" lon="-49.220672" /><trkpt lat="-25.429494" lon="-49.220511" /><trkpt lat="-25.429556" lon="-49.219850" /><trkpt lat="-25.429690" lon="-49.218396" /><trkpt lat="-25.429800" lon="-49.217301" /><trkpt lat="-25.429849" lon="-49.216794" /><trkpt lat="-25.429883" lon="-49.216489" /><trkpt lat="-25.430009" lon="-49.215389" /><trkpt lat="-25.430428" lon="-49.211499" /><trkpt lat="-25.430533" lon="-49.211526" /><trkpt lat="-25.431846" lon="-49.212218" /><trkpt lat="-25.433899" lon="-49.213372" /><trkpt lat="-25.434419" lon="-49.213614" /><trkpt lat="-25.434907" lon="-49.213897" /><trkpt lat="-25.434188" lon="-49.215487" /><trkpt lat="-25.433478" lon="-49.217106" /><trkpt lat="-25.434456" lon="-49.217639" /><trkpt lat="-25.434960" lon="-49.217912" /><trkpt lat="-25.435445" lon="-49.218176" /><trkpt lat="-25.435900" lon="-49.218443" /><trkpt lat="-25.436162" lon="-49.218576" /><trkpt lat="-25.436400" lon="-49.218696" /><trkpt lat="-25.436869" lon="-49.218953" /><trkpt lat="-25.437120" lon="-49.219083" /><trkpt lat="-25.437359" lon="-49.219209" /><trkpt lat="-25.437842" lon="-49.219470" /><trkpt lat="-25.438048" lon="-49.219555" /><trkpt lat="-25.438338" lon="-49.219709" /><trkpt lat="-25.437983" lon="-49.220501" /><trkpt lat="-25.437625" lon="-49.221323" /><trkpt lat="-25.437976" lon="-49.221518" /><trkpt lat="-25.438360" lon="-49.221730" /><trkpt lat="-25.438609" lon="-49.221870" /><trkpt lat="-25.439063" lon="-49.222159" /><trkpt lat="-25.439516" lon="-49.222396" /><trkpt lat="-25.439574" lon="-49.222417" /><trkpt lat="-25.439632" lon="-49.222451" /><trkpt lat="-25.439653" lon="-49.222447" /><trkpt lat="-25.439683" lon="-49.222432" /><trkpt lat="-25.439709" lon="-49.222406" /><trkpt lat="-25.439731" lon="-49.222372" /><trkpt lat="-25.439884" lon="-49.222030" /><trkpt lat="-25.440046" lon="-49.221679" /><trkpt lat="-25.440208" lon="-49.221313" /><trkpt lat="-25.440213" lon="-49.221198" /><trkpt lat="-25.440237" lon="-49.221063" /><trkpt lat="-25.440255" lon="-49.220989" /><trkpt lat="-25.440282" lon="-49.220895" /><trkpt lat="-25.440315" lon="-49.220811" /><trkpt lat="-25.440495" lon="-49.220918" /><trkpt lat="-25.440738" lon="-49.221053" /><trkpt lat="-25.441241" lon="-49.221331" /><trkpt lat="-25.441721" lon="-49.221594" /><trkpt lat="-25.442374" lon="-49.221937" /><trkpt lat="-25.442709" lon="-49.222113" /><trkpt lat="-25.443020" lon="-49.222278" /><trkpt lat="-25.443675" lon="-49.222630" /><trkpt lat="-25.444337" lon="-49.222983" /><trkpt lat="-25.444991" lon="-49.223325" /><trkpt lat="-25.445650" lon="-49.223676" /><trkpt lat="-25.446255" lon="-49.223998" /><trkpt lat="-25.446588" lon="-49.224181" /><trkpt lat="-25.446901" lon="-49.224351" /><trkpt lat="-25.446748" lon="-49.224700" /><trkpt lat="-25.446566" lon="-49.225148" /><trkpt lat="-25.447092" lon="-49.225425" /><trkpt lat="-25.447302" lon="-49.225537" /><trkpt lat="-25.447553" lon="-49.225675" /><trkpt lat="-25.447650" lon="-49.225746" /><trkpt lat="-25.447736" lon="-49.225829" /><trkpt lat="-25.447864" lon="-49.225978" /><trkpt lat="-25.447964" lon="-49.226110" /><trkpt lat="-25.448139" lon="-49.226311" /><trkpt lat="-25.448335" lon="-49.226547" /><trkpt lat="-25.448646" lon="-49.226928" /><trkpt lat="-25.448770" lon="-49.227080" /><trkpt lat="-25.449082" lon="-49.227455" /><trkpt lat="-25.449367" lon="-49.227796" /><trkpt lat="-25.449527" lon="-49.228028" /><trkpt lat="-25.449546" lon="-49.228071" /><trkpt lat="-25.449654" lon="-49.228148" /><trkpt lat="-25.449706" lon="-49.228161" /><trkpt lat="-25.449758" lon="-49.228163" /><trkpt lat="-25.449811" lon="-49.228142" /><trkpt lat="-25.450148" lon="-49.227895" /><trkpt lat="-25.450445" lon="-49.227668" /><trkpt lat="-25.450513" lon="-49.227802" /><trkpt lat="-25.450560" lon="-49.227941" /><trkpt lat="-25.450652" lon="-49.228219" /><trkpt lat="-25.450672" lon="-49.228313" /><trkpt lat="-25.450820" lon="-49.228888" /><trkpt lat="-25.450897" lon="-49.229276" /><trkpt lat="-25.450987" lon="-49.229545" /><trkpt lat="-25.451103" lon="-49.229654" /><trkpt lat="-25.451160" lon="-49.229712" /><trkpt lat="-25.451262" lon="-49.229812" /><trkpt lat="-25.451321" lon="-49.229819" /><trkpt lat="-25.451599" lon="-49.229852" /><trkpt lat="-25.451735" lon="-49.229884" /><trkpt lat="-25.452100" lon="-49.229980" /><trkpt lat="-25.452455" lon="-49.230068" /><trkpt lat="-25.452800" lon="-49.230159" /><trkpt lat="-25.453153" lon="-49.230257" /><trkpt lat="-25.453419" lon="-49.230337" /><trkpt lat="-25.453517" lon="-49.230374" /><trkpt lat="-25.453648" lon="-49.230417" /><trkpt lat="-25.453842" lon="-49.230500" /><trkpt lat="-25.453980" lon="-49.230558" /><trkpt lat="-25.454128" lon="-49.230619" /><trkpt lat="-25.454611" lon="-49.230851" /><trkpt lat="-25.454922" lon="-49.230991" /><trkpt lat="-25.455376" lon="-49.231196" /><trkpt lat="-25.455760" lon="-49.231370" /><trkpt lat="-25.456325" lon="-49.231637" /><trkpt lat="-25.456463" lon="-49.231709" /><trkpt lat="-25.456599" lon="-49.231772" /><trkpt lat="-25.456906" lon="-49.231893" /><trkpt lat="-25.457312" lon="-49.232083" /><trkpt lat="-25.457606" lon="-49.232219" /><trkpt lat="-25.457848" lon="-49.232322" /><trkpt lat="-25.458073" lon="-49.232419" /><trkpt lat="-25.458372" lon="-49.232557" /><trkpt lat="-25.458653" lon="-49.232692" /><trkpt lat="-25.459269" lon="-49.232952" /><trkpt lat="-25.459880" lon="-49.233193" /><trkpt lat="-25.460458" lon="-49.233422" /><trkpt lat="-25.460699" lon="-49.233498" /><trkpt lat="-25.460927" lon="-49.233592" /><trkpt lat="-25.461126" lon="-49.233688" /><trkpt lat="-25.461371" lon="-49.233796" /><trkpt lat="-25.461729" lon="-49.233955" /><trkpt lat="-25.461774" lon="-49.233962" /><trkpt lat="-25.462052" lon="-49.234077" /><trkpt lat="-25.462215" lon="-49.234148" /><trkpt lat="-25.462372" lon="-49.234209" /><trkpt lat="-25.462552" lon="-49.234283" /><trkpt lat="-25.462635" lon="-49.234311" /><trkpt lat="-25.462896" lon="-49.234387" /><trkpt lat="-25.463167" lon="-49.234445" /><trkpt lat="-25.463292" lon="-49.234457" /><trkpt lat="-25.463443" lon="-49.234476" /><trkpt lat="-25.463602" lon="-49.234490" /><trkpt lat="-25.463738" lon="-49.234504" /><trkpt lat="-25.463972" lon="-49.234523" /><trkpt lat="-25.464282" lon="-49.234561" /><trkpt lat="-25.464513" lon="-49.234581" /><trkpt lat="-25.464743" lon="-49.234599" /><trkpt lat="-25.464982" lon="-49.234620" /><trkpt lat="-25.465232" lon="-49.234641" /><trkpt lat="-25.465504" lon="-49.234664" /><trkpt lat="-25.465902" lon="-49.234688" /><trkpt lat="-25.466271" lon="-49.234707" /><trkpt lat="-25.466494" lon="-49.234748" /><trkpt lat="-25.466785" lon="-49.234839" /><trkpt lat="-25.466968" lon="-49.234898" /><trkpt lat="-25.467086" lon="-49.234934" /><trkpt lat="-25.467333" lon="-49.234988" /><trkpt lat="-25.467542" lon="-49.235018" /><trkpt lat="-25.467655" lon="-49.235033" /><trkpt lat="-25.467886" lon="-49.235029" /><trkpt lat="-25.468091" lon="-49.235081" /><trkpt lat="-25.468401" lon="-49.235151" /><trkpt lat="-25.468572" lon="-49.235190" /><trkpt lat="-25.468812" lon="-49.235238" /><trkpt lat="-25.468857" lon="-49.235256" /><trkpt lat="-25.468984" lon="-49.235316" /><trkpt lat="-25.469096" lon="-49.235369" /><trkpt lat="-25.469168" lon="-49.235414" /><trkpt lat="-25.469340" lon="-49.235574" /><trkpt lat="-25.469686" lon="-49.235978" /><trkpt lat="-25.470026" lon="-49.236387" /><trkpt lat="-25.470169" lon="-49.236559" /><trkpt lat="-25.470312" lon="-49.236706" /><trkpt lat="-25.470459" lon="-49.236839" /><trkpt lat="-25.470566" lon="-49.236921" /><trkpt lat="-25.470744" lon="-49.237041" /><trkpt lat="-25.470959" lon="-49.237147" /><trkpt lat="-25.471143" lon="-49.237239" /><trkpt lat="-25.471421" lon="-49.237371" /><trkpt lat="-25.471717" lon="-49.237508" /><trkpt lat="-25.472068" lon="-49.237679" /><trkpt lat="-25.472700" lon="-49.238044" /><trkpt lat="-25.472890" lon="-49.238155" /><trkpt lat="-25.473330" lon="-49.238413" /><trkpt lat="-25.473390" lon="-49.238486" /><trkpt lat="-25.473511" lon="-49.238567" /><trkpt lat="-25.473754" lon="-49.238717" /><trkpt lat="-25.474181" lon="-49.238976" /><trkpt lat="-25.474566" lon="-49.239209" /><trkpt lat="-25.474718" lon="-49.239303" /><trkpt lat="-25.474837" lon="-49.239352" /><trkpt lat="-25.474947" lon="-49.239395" /><trkpt lat="-25.475115" lon="-49.239502" /><trkpt lat="-25.475289" lon="-49.239620" /><trkpt lat="-25.475454" lon="-49.239735" /><trkpt lat="-25.475661" lon="-49.239840" /><trkpt lat="-25.475854" lon="-49.239934" /><trkpt lat="-25.476133" lon="-49.240120" /><trkpt lat="-25.476367" lon="-49.240281" /><trkpt lat="-25.476517" lon="-49.240414" /><trkpt lat="-25.476645" lon="-49.240568" /><trkpt lat="-25.476872" lon="-49.240960" /><trkpt lat="-25.477084" lon="-49.241345" /><trkpt lat="-25.477282" lon="-49.241718" /><trkpt lat="-25.477413" lon="-49.242040" /><trkpt lat="-25.477552" lon="-49.242401" /><trkpt lat="-25.478278" lon="-49.244163" /><trkpt lat="-25.478756" lon="-49.245341" /><trkpt lat="-25.479426" lon="-49.246999" /><trkpt lat="-25.479829" lon="-49.247991" /><trkpt lat="-25.479909" lon="-49.248191" /><trkpt lat="-25.480205" lon="-49.248062" /><trkpt lat="-25.480629" lon="-49.247858" /><trkpt lat="-25.480910" lon="-49.247722" /><trkpt lat="-25.481055" lon="-49.247642" /><trkpt lat="-25.481296" lon="-49.247536" /><trkpt lat="-25.481536" lon="-49.247427" /><trkpt lat="-25.481771" lon="-49.247318" /><trkpt lat="-25.482005" lon="-49.247208" /><trkpt lat="-25.482900" lon="-49.246775" /><trkpt lat="-25.483295" lon="-49.247771" /><trkpt lat="-25.483381" lon="-49.247970" /><trkpt lat="-25.483464" lon="-49.248179" /><trkpt lat="-25.483724" lon="-49.248762" /><trkpt lat="-25.483967" lon="-49.249366" /><trkpt lat="-25.484218" lon="-49.249965" /><trkpt lat="-25.484351" lon="-49.250351" /><trkpt lat="-25.484500" lon="-49.250801" /><trkpt lat="-25.484659" lon="-49.251167" /><trkpt lat="-25.484904" lon="-49.251759" /><trkpt lat="-25.485067" lon="-49.252152" /><trkpt lat="-25.485172" lon="-49.252349" /><trkpt lat="-25.485280" lon="-49.252634" /><trkpt lat="-25.485423" lon="-49.252946" /><trkpt lat="-25.485546" lon="-49.253234" /><trkpt lat="-25.485664" lon="-49.253496" /><trkpt lat="-25.485888" lon="-49.254110" /><trkpt lat="-25.486112" lon="-49.254747" /><trkpt lat="-25.486588" lon="-49.255919" /><trkpt lat="-25.487085" lon="-49.257103" /><trkpt lat="-25.488012" lon="-49.256653" /><trkpt lat="-25.488697" lon="-49.256318" /><trkpt lat="-25.488915" lon="-49.256208" /><trkpt lat="-25.489395" lon="-49.255984" /><trkpt lat="-25.489642" lon="-49.255870" /><trkpt lat="-25.490321" lon="-49.255539" /><trkpt lat="-25.490562" lon="-49.255420" /><trkpt lat="-25.490714" lon="-49.255342" /><trkpt lat="-25.490795" lon="-49.255296" /><trkpt lat="-25.490831" lon="-49.255422" /><trkpt lat="-25.491039" lon="-49.255931" /><trkpt lat="-25.491498" lon="-49.257072" /><trkpt lat="-25.491735" lon="-49.257651" /><trkpt lat="-25.492188" lon="-49.258833" /><trkpt lat="-25.492355" lon="-49.259282" /><trkpt lat="-25.492507" lon="-49.259688" /><trkpt lat="-25.492684" lon="-49.260135" /><trkpt lat="-25.492864" lon="-49.260592" /><trkpt lat="-25.493008" lon="-49.260950" /><trkpt lat="-25.493341" lon="-49.261783" /><trkpt lat="-25.493599" lon="-49.262413" /><trkpt lat="-25.493739" lon="-49.262743" /><trkpt lat="-25.493896" lon="-49.263113" /><trkpt lat="-25.494092" lon="-49.263584" /><trkpt lat="-25.494179" lon="-49.263793" /><trkpt lat="-25.494280" lon="-49.264029" /><trkpt lat="-25.494420" lon="-49.264312" /><trkpt lat="-25.494530" lon="-49.264559" /><trkpt lat="-25.494649" lon="-49.264823" /><trkpt lat="-25.494731" lon="-49.265117" /><trkpt lat="-25.494878" lon="-49.265662" /><trkpt lat="-25.494934" lon="-49.265882" /><trkpt lat="-25.495035" lon="-49.266237" /><trkpt lat="-25.495280" lon="-49.267143" /><trkpt lat="-25.495451" lon="-49.267774" /><trkpt lat="-25.495487" lon="-49.267903" /><trkpt lat="-25.495598" lon="-49.268316" /><trkpt lat="-25.495721" lon="-49.268798" /><trkpt lat="-25.495831" lon="-49.269246" /><trkpt lat="-25.495950" lon="-49.269780" /><trkpt lat="-25.495988" lon="-49.269901" /><trkpt lat="-25.496027" lon="-49.270002" /><trkpt lat="-25.496069" lon="-49.270111" /><trkpt lat="-25.496158" lon="-49.270288" /><trkpt lat="-25.496356" lon="-49.270471" /><trkpt lat="-25.496511" lon="-49.270604" /><trkpt lat="-25.496509" lon="-49.270742" /><trkpt lat="-25.496538" lon="-49.271290" /><trkpt lat="-25.496562" lon="-49.271727" /><trkpt lat="-25.496596" lon="-49.272312" /><trkpt lat="-25.496599" lon="-49.272665" /><trkpt lat="-25.496598" lon="-49.272823" /><trkpt lat="-25.496556" lon="-49.273265" /><trkpt lat="-25.496524" lon="-49.273320" /><trkpt lat="-25.496466" lon="-49.273651" /><trkpt lat="-25.496387" lon="-49.273976" /><trkpt lat="-25.496315" lon="-49.274219" /><trkpt lat="-25.496237" lon="-49.274443" /><trkpt lat="-25.496029" lon="-49.275020" /><trkpt lat="-25.495923" lon="-49.275315" /><trkpt lat="-25.495679" lon="-49.275999" /><trkpt lat="-25.495325" lon="-49.277081" /><trkpt lat="-25.495176" lon="-49.277542" /><trkpt lat="-25.495140" lon="-49.277649" /><trkpt lat="-25.495141" lon="-49.277742" /><trkpt lat="-25.494921" lon="-49.278398" /><trkpt lat="-25.494725" lon="-49.279026" /><trkpt lat="-25.494640" lon="-49.279379" /><trkpt lat="-25.494582" lon="-49.279757" /><trkpt lat="-25.494506" lon="-49.280244" /><trkpt lat="-25.494426" lon="-49.280796" /><trkpt lat="-25.494410" lon="-49.280920" /><trkpt lat="-25.494389" lon="-49.281216" /><trkpt lat="-25.494398" lon="-49.281445" /><trkpt lat="-25.494411" lon="-49.281614" /><trkpt lat="-25.494423" lon="-49.281824" /><trkpt lat="-25.494465" lon="-49.282282" /><trkpt lat="-25.494546" lon="-49.283091" /><trkpt lat="-25.494605" lon="-49.283785" /><trkpt lat="-25.494632" lon="-49.284522" /><trkpt lat="-25.494643" lon="-49.284826" /><trkpt lat="-25.494641" lon="-49.285329" /><trkpt lat="-25.494628" lon="-49.285636" /><trkpt lat="-25.494628" lon="-49.285828" /><trkpt lat="-25.494630" lon="-49.285926" /><trkpt lat="-25.494648" lon="-49.286056" /><trkpt lat="-25.494671" lon="-49.286143" /><trkpt lat="-25.494700" lon="-49.286277" /><trkpt lat="-25.494801" lon="-49.286471" /><trkpt lat="-25.494900" lon="-49.286675" /><trkpt lat="-25.494944" lon="-49.286778" /><trkpt lat="-25.494985" lon="-49.286917" /><trkpt lat="-25.495012" lon="-49.287054" /><trkpt lat="-25.495010" lon="-49.287155" /><trkpt lat="-25.495000" lon="-49.287248" /><trkpt lat="-25.494984" lon="-49.287327" /><trkpt lat="-25.494903" lon="-49.287503" /><trkpt lat="-25.494805" lon="-49.287652" /><trkpt lat="-25.494699" lon="-49.287791" /><trkpt lat="-25.494437" lon="-49.288075" /><trkpt lat="-25.494155" lon="-49.288375" /><trkpt lat="-25.494495" lon="-49.289617" /><trkpt lat="-25.494687" lon="-49.290321" /><trkpt lat="-25.494793" lon="-49.290704" /><trkpt lat="-25.494841" lon="-49.290850" /><trkpt lat="-25.495129" lon="-49.291389" /><trkpt lat="-25.495275" lon="-49.291649" /><trkpt lat="-25.494952" lon="-49.292327" /><trkpt lat="-25.494590" lon="-49.292072" /><trkpt lat="-25.494197" lon="-49.291787" /><trkpt lat="-25.493802" lon="-49.291518" /><trkpt lat="-25.493621" lon="-49.291418" /><trkpt lat="-25.493484" lon="-49.291366" /><trkpt lat="-25.493315" lon="-49.291311" /><trkpt lat="-25.493125" lon="-49.291272" /><trkpt lat="-25.492965" lon="-49.291263" /><trkpt lat="-25.492820" lon="-49.291269" /><trkpt lat="-25.492531" lon="-49.291298" /><trkpt lat="-25.492515" lon="-49.291398" /><trkpt lat="-25.492526" lon="-49.291897" /><trkpt lat="-25.492567" lon="-49.292542" /><trkpt lat="-25.492614" lon="-49.292937" /><trkpt lat="-25.491517" lon="-49.293057" /><trkpt lat="-25.491482" lon="-49.291451" /><trkpt lat="-25.491364" lon="-49.291478" /><trkpt lat="-25.490376" lon="-49.291615" /><trkpt lat="-25.489985" lon="-49.291661" /><trkpt lat="-25.489667" lon="-49.291696" /><trkpt lat="-25.489225" lon="-49.291735" /><trkpt lat="-25.488952" lon="-49.291753" /><trkpt lat="-25.488491" lon="-49.291847" /><trkpt lat="-25.488147" lon="-49.292041" /><trkpt lat="-25.487754" lon="-49.292209" /><trkpt lat="-25.487268" lon="-49.292405" /><trkpt lat="-25.487080" lon="-49.292472" /><trkpt lat="-25.486957" lon="-49.292512" /><trkpt lat="-25.486797" lon="-49.292544" /><trkpt lat="-25.486693" lon="-49.292539" /><trkpt lat="-25.486568" lon="-49.292525" /><trkpt lat="-25.486266" lon="-49.292465" /><trkpt lat="-25.485751" lon="-49.292364" /><trkpt lat="-25.485501" lon="-49.292315" /><trkpt lat="-25.485258" lon="-49.292269" /><trkpt lat="-25.484777" lon="-49.292161" /><trkpt lat="-25.484429" lon="-49.292087" /><trkpt lat="-25.484305" lon="-49.292067" /><trkpt lat="-25.484193" lon="-49.292010" /><trkpt lat="-25.483978" lon="-49.291896" /><trkpt lat="-25.483637" lon="-49.291720" /><trkpt lat="-25.483090" lon="-49.291424" /><trkpt lat="-25.482837" lon="-49.291286" /><trkpt lat="-25.482648" lon="-49.291188" /><trkpt lat="-25.482216" lon="-49.290994" /><trkpt lat="-25.481965" lon="-49.290917" /><trkpt lat="-25.481771" lon="-49.290865" /><trkpt lat="-25.481633" lon="-49.290841" /><trkpt lat="-25.481393" lon="-49.290820" /><trkpt lat="-25.480540" lon="-49.290816" /><trkpt lat="-25.480244" lon="-49.290793" /><trkpt lat="-25.480161" lon="-49.291234" /><trkpt lat="-25.480079" lon="-49.291671" /><trkpt lat="-25.479997" lon="-49.291979" /><trkpt lat="-25.479922" lon="-49.292267" /><trkpt lat="-25.479764" lon="-49.292213" /><trkpt lat="-25.479598" lon="-49.292189" /><trkpt lat="-25.479363" lon="-49.292166" /><trkpt lat="-25.479067" lon="-49.292137" /><trkpt lat="-25.478666" lon="-49.292095" /><trkpt lat="-25.478230" lon="-49.292050" /><trkpt lat="-25.477912" lon="-49.292030" /><trkpt lat="-25.477855" lon="-49.292034" /><trkpt lat="-25.477771" lon="-49.292067" /><trkpt lat="-25.477588" lon="-49.292149" /><trkpt lat="-25.477342" lon="-49.292257" /><trkpt lat="-25.476946" lon="-49.292405" /><trkpt lat="-25.476805" lon="-49.292395" /><trkpt lat="-25.476733" lon="-49.292353" /><trkpt lat="-25.476661" lon="-49.292293" /><trkpt lat="-25.476606" lon="-49.292201" /><trkpt lat="-25.476570" lon="-49.292127" /><trkpt lat="-25.476163" lon="-49.292277" /><trkpt lat="-25.475756" lon="-49.292428" /><trkpt lat="-25.475603" lon="-49.292008" /><trkpt lat="-25.475517" lon="-49.291865" /><trkpt lat="-25.475369" lon="-49.292085" /><trkpt lat="-25.475182" lon="-49.292356" /><trkpt lat="-25.474754" lon="-49.291258" /><trkpt lat="-25.474554" lon="-49.290711" /><trkpt lat="-25.474395" lon="-49.290285" /><trkpt lat="-25.474357" lon="-49.290231" /><trkpt lat="-25.474338" lon="-49.290180" /><trkpt lat="-25.474306" lon="-49.290122" /><trkpt lat="-25.474280" lon="-49.290089" /><trkpt lat="-25.474230" lon="-49.290068" /><trkpt lat="-25.474179" lon="-49.290070" /><trkpt lat="-25.474104" lon="-49.290059" /><trkpt lat="-25.473723" lon="-49.290238" /><trkpt lat="-25.473302" lon="-49.290432" /><trkpt lat="-25.473039" lon="-49.290562" /><trkpt lat="-25.472795" lon="-49.290685" /><trkpt lat="-25.472242" lon="-49.290962" /><trkpt lat="-25.472049" lon="-49.291037" /><trkpt lat="-25.471889" lon="-49.291074" /><trkpt lat="-25.471652" lon="-49.291102" /><trkpt lat="-25.471468" lon="-49.291104" /><trkpt lat="-25.471255" lon="-49.291096" /><trkpt lat="-25.470997" lon="-49.291042" /><trkpt lat="-25.470812" lon="-49.290992" /><trkpt lat="-25.470691" lon="-49.290946" /><trkpt lat="-25.470454" lon="-49.290842" /><trkpt lat="-25.470107" lon="-49.290686" /><trkpt lat="-25.469803" lon="-49.290557" /><trkpt lat="-25.469510" lon="-49.290432" /><trkpt lat="-25.468938" lon="-49.290189" /><trkpt lat="-25.468393" lon="-49.289980" /><trkpt lat="-25.468201" lon="-49.289915" /><trkpt lat="-25.468041" lon="-49.289890" /><trkpt lat="-25.467869" lon="-49.289894" /><trkpt lat="-25.467771" lon="-49.289907" /><trkpt lat="-25.467618" lon="-49.289933" /><trkpt lat="-25.467551" lon="-49.289954" /><trkpt lat="-25.467492" lon="-49.289983" /><trkpt lat="-25.467359" lon="-49.290040" /><trkpt lat="-25.467132" lon="-49.290171" /><trkpt lat="-25.466903" lon="-49.290284" /><trkpt lat="-25.466713" lon="-49.290380" /><trkpt lat="-25.466598" lon="-49.290413" /><trkpt lat="-25.466522" lon="-49.290427" /><trkpt lat="-25.466431" lon="-49.290442" /><trkpt lat="-25.466355" lon="-49.290449" /><trkpt lat="-25.466153" lon="-49.290463" /><trkpt lat="-25.465923" lon="-49.290478" /><trkpt lat="-25.465883" lon="-49.290466" /><trkpt lat="-25.465755" lon="-49.290428" /><trkpt lat="-25.465508" lon="-49.290331" /><trkpt lat="-25.465403" lon="-49.290288" /><trkpt lat="-25.465289" lon="-49.290244" /><trkpt lat="-25.465261" lon="-49.290231" /><trkpt lat="-25.464946" lon="-49.290096" /><trkpt lat="-25.464750" lon="-49.290006" /><trkpt lat="-25.463538" lon="-49.289355" /><trkpt lat="-25.462910" lon="-49.289092" /><trkpt lat="-25.462569" lon="-49.288947" /><trkpt lat="-25.462302" lon="-49.288837" /><trkpt lat="-25.462085" lon="-49.289447" /><trkpt lat="-25.461868" lon="-49.290070" /><trkpt lat="-25.461844" lon="-49.290225" /><trkpt lat="-25.462033" lon="-49.290323" /><trkpt lat="-25.461933" lon="-49.290823" /><trkpt lat="-25.461867" lon="-49.291177" /><trkpt lat="-25.461786" lon="-49.291630" /><trkpt lat="-25.461678" lon="-49.292227" /><trkpt lat="-25.461566" lon="-49.292860" /><trkpt lat="-25.461457" lon="-49.293463" /><trkpt lat="-25.461342" lon="-49.294115" /><trkpt lat="-25.461130" lon="-49.295411" /><trkpt lat="-25.461046" lon="-49.295888" /><trkpt lat="-25.460936" lon="-49.296496" /><trkpt lat="-25.460821" lon="-49.297189" /><trkpt lat="-25.460723" lon="-49.297788" /><trkpt lat="-25.460688" lon="-49.297958" /><trkpt lat="-25.460576" lon="-49.298575" /><trkpt lat="-25.460521" lon="-49.298884" /><trkpt lat="-25.460470" lon="-49.299216" /><trkpt lat="-25.460311" lon="-49.300110" /><trkpt lat="-25.460114" lon="-49.301236" /><trkpt lat="-25.460101" lon="-49.301341" /><trkpt lat="-25.460017" lon="-49.301795" /><trkpt lat="-25.459572" lon="-49.301984" /><trkpt lat="-25.459374" lon="-49.302210" /><trkpt lat="-25.459304" lon="-49.302290" /><trkpt lat="-25.459182" lon="-49.302352" /><trkpt lat="-25.459074" lon="-49.302386" /><trkpt lat="-25.458954" lon="-49.302419" /><trkpt lat="-25.458861" lon="-49.302402" /><trkpt lat="-25.458761" lon="-49.302373" /><trkpt lat="-25.458588" lon="-49.302324" /><trkpt lat="-25.458032" lon="-49.302504" /><trkpt lat="-25.457484" lon="-49.302688" /><trkpt lat="-25.456978" lon="-49.302868" /><trkpt lat="-25.456832" lon="-49.302917" /><trkpt lat="-25.456478" lon="-49.303059" /><trkpt lat="-25.456120" lon="-49.303201" /><trkpt lat="-25.455559" lon="-49.303396" /><trkpt lat="-25.454947" lon="-49.303605" /><trkpt lat="-25.454027" lon="-49.303906" /><trkpt lat="-25.453553" lon="-49.304062" /><trkpt lat="-25.453236" lon="-49.304169" /><trkpt lat="-25.452940" lon="-49.304251" /><trkpt lat="-25.452678" lon="-49.304290" /><trkpt lat="-25.452438" lon="-49.304290" /><trkpt lat="-25.452387" lon="-49.304312" /><trkpt lat="-25.452296" lon="-49.304382" /><trkpt lat="-25.452247" lon="-49.304356" /><trkpt lat="-25.452207" lon="-49.304349" /><trkpt lat="-25.452162" lon="-49.304352" /><trkpt lat="-25.452121" lon="-49.304362" /><trkpt lat="-25.452083" lon="-49.304384" /><trkpt lat="-25.452030" lon="-49.304427" /><trkpt lat="-25.451996" lon="-49.304488" /><trkpt lat="-25.451902" lon="-49.304530" /><trkpt lat="-25.451825" lon="-49.304558" /><trkpt lat="-25.451760" lon="-49.304582" /><trkpt lat="-25.451722" lon="-49.304601" /><trkpt lat="-25.451627" lon="-49.304631" /><trkpt lat="-25.451549" lon="-49.304643" /><trkpt lat="-25.451172" lon="-49.304615" /><trkpt lat="-25.450992" lon="-49.304603" /><trkpt lat="-25.450698" lon="-49.304570" /><trkpt lat="-25.450541" lon="-49.304558" /><trkpt lat="-25.450444" lon="-49.304550" /><trkpt lat="-25.450155" lon="-49.304529" /><trkpt lat="-25.449823" lon="-49.304538" /><trkpt lat="-25.449541" lon="-49.304567" /><trkpt lat="-25.449389" lon="-49.304595" /><trkpt lat="-25.449213" lon="-49.304629" /><trkpt lat="-25.448989" lon="-49.304647" /><trkpt lat="-25.448805" lon="-49.304661" /><trkpt lat="-25.448560" lon="-49.304670" /><trkpt lat="-25.447981" lon="-49.304682" /><trkpt lat="-25.447780" lon="-49.304692" /><trkpt lat="-25.447191" lon="-49.304681" /><trkpt lat="-25.446702" lon="-49.304693" /><trkpt lat="-25.445869" lon="-49.304711" /><trkpt lat="-25.445716" lon="-49.304699" /><trkpt lat="-25.445588" lon="-49.304697" /><trkpt lat="-25.445345" lon="-49.304701" /><trkpt lat="-25.445130" lon="-49.304714" /><trkpt lat="-25.444769" lon="-49.304734" /><trkpt lat="-25.444543" lon="-49.304748" /><trkpt lat="-25.444408" lon="-49.304774" /><trkpt lat="-25.444037" lon="-49.304824" /><trkpt lat="-25.443897" lon="-49.304845" /><trkpt lat="-25.443703" lon="-49.304885" /><trkpt lat="-25.443383" lon="-49.304994" /><trkpt lat="-25.443137" lon="-49.305081" /><trkpt lat="-25.442966" lon="-49.305157" /><trkpt lat="-25.442666" lon="-49.305286" /><trkpt lat="-25.442145" lon="-49.305558" /><trkpt lat="-25.441921" lon="-49.305684" /><trkpt lat="-25.441683" lon="-49.305815" /><trkpt lat="-25.441063" lon="-49.306157" /><trkpt lat="-25.440758" lon="-49.306340" /><trkpt lat="-25.440585" lon="-49.306443" /><trkpt lat="-25.439914" lon="-49.306801" /><trkpt lat="-25.439427" lon="-49.307047" /><trkpt lat="-25.439126" lon="-49.307181" /><trkpt lat="-25.438900" lon="-49.307299" /><trkpt lat="-25.438674" lon="-49.307414" /><trkpt lat="-25.438386" lon="-49.307524" /><trkpt lat="-25.437936" lon="-49.307699" /><trkpt lat="-25.437670" lon="-49.307806" /><trkpt lat="-25.437448" lon="-49.307916" /><trkpt lat="-25.437001" lon="-49.308124" /><trkpt lat="-25.436742" lon="-49.308237" /><trkpt lat="-25.436565" lon="-49.308320" /><trkpt lat="-25.436204" lon="-49.307296" /><trkpt lat="-25.435783" lon="-49.306241" /><trkpt lat="-25.435973" lon="-49.306058" /><trkpt lat="-25.436172" lon="-49.305843" /><trkpt lat="-25.436278" lon="-49.305694" /><trkpt lat="-25.436432" lon="-49.305368" /><trkpt lat="-25.436225" lon="-49.304813" /><trkpt lat="-25.435905" lon="-49.303947" /><trkpt lat="-25.435465" lon="-49.302756" /><trkpt lat="-25.435199" lon="-49.302060" /><trkpt lat="-25.435036" lon="-49.301659" /><trkpt lat="-25.434898" lon="-49.301288" /><trkpt lat="-25.434623" lon="-49.300569" /><trkpt lat="-25.434201" lon="-49.299473" /><trkpt lat="-25.433799" lon="-49.298429" /><trkpt lat="-25.433459" lon="-49.297588" /><trkpt lat="-25.433273" lon="-49.297136" /><trkpt lat="-25.433064" lon="-49.296572" /><trkpt lat="-25.432614" lon="-49.295413" /><trkpt lat="-25.432402" lon="-49.294902" /><trkpt lat="-25.432131" lon="-49.294212" /><trkpt lat="-25.431944" lon="-49.293738" /><trkpt lat="-25.431518" lon="-49.292610" /><trkpt lat="-25.431299" lon="-49.292079" /><trkpt lat="-25.431120" lon="-49.291642" /><trkpt lat="-25.430705" lon="-49.290558" /><trkpt lat="-25.430277" lon="-49.289422" /><trkpt lat="-25.430016" lon="-49.289544" /><trkpt lat="-25.429575" lon="-49.289755" /><trkpt lat="-25.429378" lon="-49.289850" /><trkpt lat="-25.428001" lon="-49.290498" /><trkpt lat="-25.427696" lon="-49.290664" /><trkpt lat="-25.427125" lon="-49.290969" /><trkpt lat="-25.426874" lon="-49.291084" /><trkpt lat="-25.426478" lon="-49.291268" /><trkpt lat="-25.425793" lon="-49.291605" /><trkpt lat="-25.425185" lon="-49.291903" /><trkpt lat="-25.425068" lon="-49.291963" /><trkpt lat="-25.424999" lon="-49.291991" /><trkpt lat="-25.424903" lon="-49.291810" /><trkpt lat="-25.424455" lon="-49.291205" /><trkpt lat="-25.424206" lon="-49.290859" /><trkpt lat="-25.424005" lon="-49.290795" /><trkpt lat="-25.423805" lon="-49.290728" /><trkpt lat="-25.423403" lon="-49.290593" /><trkpt lat="-25.422787" lon="-49.290398" /><trkpt lat="-25.422708" lon="-49.290354" /><trkpt lat="-25.422682" lon="-49.290539" /><trkpt lat="-25.422476" lon="-49.291263" /><trkpt lat="-25.422447" lon="-49.291318" /><trkpt lat="-25.422378" lon="-49.291394" /><trkpt lat="-25.422356" lon="-49.291423" /><trkpt lat="-25.422206" lon="-49.291625" /><trkpt lat="-25.422049" lon="-49.291821" /><trkpt lat="-25.421979" lon="-49.291754" /><trkpt lat="-25.421876" lon="-49.291704" /><trkpt lat="-25.421823" lon="-49.291688" /><trkpt lat="-25.421260" lon="-49.291539" /><trkpt lat="-25.420957" lon="-49.291460" /><trkpt lat="-25.420134" lon="-49.291264" /><trkpt lat="-25.419702" lon="-49.291157" /><trkpt lat="-25.418519" lon="-49.290828" /><trkpt lat="-25.417962" lon="-49.290681" /><trkpt lat="-25.417482" lon="-49.290557" /><trkpt lat="-25.417316" lon="-49.290493" /><trkpt lat="-25.416826" lon="-49.290366" /><trkpt lat="-25.416331" lon="-49.290236" /><trkpt lat="-25.415533" lon="-49.290034" /><trkpt lat="-25.415131" lon="-49.289932" /><trkpt lat="-25.414718" lon="-49.289824" /><trkpt lat="-25.414571" lon="-49.289789" /><trkpt lat="-25.414303" lon="-49.289737" /><trkpt lat="-25.414301" lon="-49.289690" /><trkpt lat="-25.414270" lon="-49.289652" /><trkpt lat="-25.414293" lon="-49.289505" /><trkpt lat="-25.414308" lon="-49.289339" /><trkpt lat="-25.414322" lon="-49.289183" /><trkpt lat="-25.414383" lon="-49.288913" /><trkpt lat="-25.414530" lon="-49.288199" /><trkpt lat="-25.414769" lon="-49.287041" /><trkpt lat="-25.414928" lon="-49.286349" /><trkpt lat="-25.415076" lon="-49.285702" /><trkpt lat="-25.415315" lon="-49.284637" /><trkpt lat="-25.415408" lon="-49.284101" /><trkpt lat="-25.415533" lon="-49.283542" /><trkpt lat="-25.415622" lon="-49.283147" /><trkpt lat="-25.415720" lon="-49.282667" /><trkpt lat="-25.415828" lon="-49.282170" /><trkpt lat="-25.415922" lon="-49.281729" /><trkpt lat="-25.416073" lon="-49.281068" /><trkpt lat="-25.416158" lon="-49.280695" /><trkpt lat="-25.416232" lon="-49.280374" /><trkpt lat="-25.416285" lon="-49.280236" /><trkpt lat="-25.416381" lon="-49.279746" /><trkpt lat="-25.416559" lon="-49.278933" /><trkpt lat="-25.416613" lon="-49.278660" /><trkpt lat="-25.416642" lon="-49.278494" /><trkpt lat="-25.416838" lon="-49.277569" /><trkpt lat="-25.416938" lon="-49.277101" /><trkpt lat="-25.417030" lon="-49.276742" /><trkpt lat="-25.417196" lon="-49.275822" /><trkpt lat="-25.417334" lon="-49.275190" /><trkpt lat="-25.417471" lon="-49.274399" /><trkpt lat="-25.417578" lon="-49.273889" /><trkpt lat="-25.417684" lon="-49.273386" /><trkpt lat="-25.417818" lon="-49.272776" /><trkpt lat="-25.417961" lon="-49.272080" /><trkpt lat="-25.418096" lon="-49.271388" /><trkpt lat="-25.418125" lon="-49.271271" /><trkpt lat="-25.418156" lon="-49.271112" /><trkpt lat="-25.418182" lon="-49.271018" /><trkpt lat="-25.418212" lon="-49.270937" /><trkpt lat="-25.418243" lon="-49.270873" /><trkpt lat="-25.418282" lon="-49.270807" /><trkpt lat="-25.418381" lon="-49.270678" /><trkpt lat="-25.418434" lon="-49.270552" /><trkpt lat="-25.418485" lon="-49.270326" /><trkpt lat="-25.418602" lon="-49.269779" /><trkpt lat="-25.418828" lon="-49.268990" /><trkpt lat="-25.418936" lon="-49.268783" /><trkpt lat="-25.418698" lon="-49.268719" /><trkpt lat="-25.418200" lon="-49.268604" /><trkpt lat="-25.417542" lon="-49.268466" /><trkpt lat="-25.417067" lon="-49.268353" /><trkpt lat="-25.416679" lon="-49.268258" /><trkpt lat="-25.416666" lon="-49.268209" /><trkpt lat="-25.416649" lon="-49.268182" /><trkpt lat="-25.416616" lon="-49.268149" /><trkpt lat="-25.416577" lon="-49.268125" /><trkpt lat="-25.416640" lon="-49.267708" /><trkpt lat="-25.416670" lon="-49.267535" /><trkpt lat="-25.416688" lon="-49.267348" /><trkpt lat="-25.416695" lon="-49.267187" /><trkpt lat="-25.416673" lon="-49.267053" /><trkpt lat="-25.416545" lon="-49.266698" /><trkpt lat="-25.416497" lon="-49.266597" /><trkpt lat="-25.416453" lon="-49.266560" /><trkpt lat="-25.416326" lon="-49.266517" /><trkpt lat="-25.415963" lon="-49.266433" /><trkpt lat="-25.415749" lon="-49.266382" /><trkpt lat="-25.415162" lon="-49.266239" /><trkpt lat="-25.414730" lon="-49.266133" /><trkpt lat="-25.414136" lon="-49.265985" /><trkpt lat="-25.413923" lon="-49.265925" /><trkpt lat="-25.413577" lon="-49.265831" /><trkpt lat="-25.413187" lon="-49.265742" /><trkpt lat="-25.413129" lon="-49.265738" /><trkpt lat="-25.413018" lon="-49.265744" /><trkpt lat="-25.412803" lon="-49.265761" /><trkpt lat="-25.412755" lon="-49.265719" /><trkpt lat="-25.412727" lon="-49.265703" /><trkpt lat="-25.412691" lon="-49.265697" /><trkpt lat="-25.412641" lon="-49.265694" /><trkpt lat="-25.412645" lon="-49.265560" /><trkpt lat="-25.412677" lon="-49.265204" /><trkpt lat="-25.412741" lon="-49.264472" /><trkpt lat="-25.412802" lon="-49.263867" /><trkpt lat="-25.412839" lon="-49.263651" /><trkpt lat="-25.412957" lon="-49.263204" /><trkpt lat="-25.413110" lon="-49.262602" /><trkpt lat="-25.413265" lon="-49.261980" /><trkpt lat="-25.413346" lon="-49.261711" /><trkpt lat="-25.413413" lon="-49.261553" /><trkpt lat="-25.413483" lon="-49.261436" /><trkpt lat="-25.413747" lon="-49.261071" /><trkpt lat="-25.414259" lon="-49.260358" /><trkpt lat="-25.414500" lon="-49.260061" /><trkpt lat="-25.414577" lon="-49.260220" /><trkpt lat="-25.414808" lon="-49.260173" /><trkpt lat="-25.415157" lon="-49.259930" /><trkpt lat="-25.415386" lon="-49.259774" /><trkpt lat="-25.415472" lon="-49.259693" /><trkpt lat="-25.415248" lon="-49.259503" /><trkpt lat="-25.415015" lon="-49.259286" /><trkpt lat="-25.414564" lon="-49.258861" /><trkpt lat="-25.414265" lon="-49.258578" /><trkpt lat="-25.414016" lon="-49.258342" /><trkpt lat="-25.413903" lon="-49.258210" /><trkpt lat="-25.413765" lon="-49.257920" /><trkpt lat="-25.413714" lon="-49.257798" /><trkpt lat="-25.413661" lon="-49.257609" /><trkpt lat="-25.413640" lon="-49.257459" /><trkpt lat="-25.413612" lon="-49.257220" /><trkpt lat="-25.413541" lon="-49.256692" /><trkpt lat="-25.413496" lon="-49.256362" /><trkpt lat="-25.413460" lon="-49.256086" /><trkpt lat="-25.413411" lon="-49.255714" /><trkpt lat="-25.413364" lon="-49.255540" /><trkpt lat="-25.413319" lon="-49.255455" /><trkpt lat="-25.413241" lon="-49.255337" /><trkpt lat="-25.413203" lon="-49.255293" /><trkpt lat="-25.413126" lon="-49.255234" /><trkpt lat="-25.413038" lon="-49.255178" /><trkpt lat="-25.412750" lon="-49.255049" /><trkpt lat="-25.412280" lon="-49.254846" /><trkpt lat="-25.412080" lon="-49.254735" /><trkpt lat="-25.411926" lon="-49.254649" /><trkpt lat="-25.411852" lon="-49.254618" /><trkpt lat="-25.411750" lon="-49.254605" /><trkpt lat="-25.411656" lon="-49.254628" /><trkpt lat="-25.411576" lon="-49.254646" /><trkpt lat="-25.411498" lon="-49.254670" /><trkpt lat="-25.411381" lon="-49.254691" /><trkpt lat="-25.411304" lon="-49.254690" /><trkpt lat="-25.411250" lon="-49.254680" /><trkpt lat="-25.411109" lon="-49.254599" /><trkpt lat="-25.410958" lon="-49.254506" /><trkpt lat="-25.410881" lon="-49.254458" /><trkpt lat="-25.410776" lon="-49.254416" /><trkpt lat="-25.410605" lon="-49.254376" /><trkpt lat="-25.410173" lon="-49.254303" /><trkpt lat="-25.410003" lon="-49.254255" /><trkpt lat="-25.409851" lon="-49.254193" /><trkpt lat="-25.409719" lon="-49.254121" /><trkpt lat="-25.409651" lon="-49.254080" /><trkpt lat="-25.409410" lon="-49.253853" /><trkpt lat="-25.409149" lon="-49.253607" /><trkpt lat="-25.408777" lon="-49.253254" /><trkpt lat="-25.407863" lon="-49.252406" /><trkpt lat="-25.407659" lon="-49.252671" /><trkpt lat="-25.407445" lon="-49.252939" /><trkpt lat="-25.407224" lon="-49.252730" /><trkpt lat="-25.407052" lon="-49.252566" /><trkpt lat="-25.406902" lon="-49.252425" /><trkpt lat="-25.406759" lon="-49.252290" /><trkpt lat="-25.406638" lon="-49.252169" /></trkseg></trk><wpt lat="-25.406600" lon="-49.252187"><name>1 - 109086 - Estação Tubo Terminal Cabral/n022 - Inter 2 (Horário) (Sentido Capão da Imbuia)</name><desc>ID: 306544; Tipo: OBRIGATÓRIO; Distância: 0,000 km</desc></wpt><wpt lat="-25.410621" lon="-49.248223"><name>2 - 109001 - Estação Tubo Prisma Solar Agrárias - Cabral / Capão da Imbuia/n022 - Inter 2 (Horário)/n023 - Inter 2 (Anti-Horário)</name><desc>ID: 306545; Tipo: INTERMEDIÁRIO; Distância: 0,608 km</desc></wpt><wpt lat="-25.421686" lon="-49.240570"><name>3 - PRV[18056-1]</name><desc>ID: 306546; Tipo: INTERMEDIÁRIO; Distância: 2,643 km</desc></wpt><wpt lat="-25.425924" lon="-49.242351"><name>4 - 109048 - Estação Tubo Praça das Nações - Cabral / Capão da Imbuia / Bairro Alto / Santa Felicidade/n022 - Inter 2 (Horário)/n023 - Inter 2 (Anti-Horário)/n307 - B. Alto / Sta. Felicidade (Sentido Terminal Sta. Felicidade)</name><desc>ID: 306547; Tipo: INTERMEDIÁRIO; Distância: 3,187 km</desc></wpt><wpt lat="-25.428907" lon="-49.225112"><name>5 - 109021 - Estação Tubo Colégio Militar - Cabral / Capão da Imbuia / Bairro Alto / Santa Felicidade/n022 - Inter 2 (Horário)/n023 - Inter 2 (Anti-Horário)/n307 - B. Alto / Sta. Felicidade (Sentido Terminal Sta. Felicidade)</name><desc>ID: 306548; Tipo: INTERMEDIÁRIO; Distância: 5,093 km</desc></wpt><wpt lat="-25.430284" lon="-49.212455"><name>6 - 109024 - Estação Tubo Detran - Capão da Imbuia / Bairro Alto/n022 - Inter 2 (Horário)/n307 - B. Alto / Sta. Felicidade/n340 - Detran / B.Alto</name><desc>ID: 306549; Tipo: INTERMEDIÁRIO; Distância: 6,504 km</desc></wpt><wpt lat="-25.439824" lon="-49.222280"><name>7 - 109119 - Terminal Capão da Imbuia/n022 - Inter 2 (Horário) (Sentido Hauer)</name><desc>ID: 306550; Tipo: OBRIGATÓRIO; Distância: 8,436 km</desc></wpt><wpt lat="-25.452382" lon="-49.229970"><name>8 - 109034 - Jardim das América/n022 - Inter 2 (Horário)/n023 - Inter 2 (Anti-Horário)/n469 - Centro Politécnico</name><desc>ID: 306551; Tipo: INTERMEDIÁRIO; Distância: 10,418 km</desc></wpt><wpt lat="-25.470026" lon="-49.236387"><name>9 - PRV[18056-2]</name><desc>ID: 306552; Tipo: INTERMEDIÁRIO; Distância: 12,472 km</desc></wpt><wpt lat="-25.471695" lon="-49.237493"><name>10 - 109065 - Estação Tubo Salgado Filho -Sentido  Aeroporto /  Hauer / Centro Cívico / Capão da Imbuia/n022 - Inter 2 (Horário)/n023 - Inter 2 (Anti-Horário)</name><desc>ID: 306553; Tipo: INTERMEDIÁRIO; Distância: 12,690 km</desc></wpt><wpt lat="-25.481449" lon="-49.247394"><name>11 - 109108 - Terminal Hauer/n022 - Inter 2 (Horário) (Sentido Capão Raso)</name><desc>ID: 306554; Tipo: OBRIGATÓRIO; Distância: 14,347 km</desc></wpt><wpt lat="-25.492188" lon="-49.258833"><name>12 - PRV[18056-3]</name><desc>ID: 306555; Tipo: INTERMEDIÁRIO; Distância: 16,470 km</desc></wpt><wpt lat="-25.496289" lon="-49.270365"><name>13 - 109077 - Estação Tubo Xaxim - Hauer / Capão Raso/n022 - Inter 2 (Horário)/n023 - Inter 2 (Anti-Horário)</name><desc>ID: 306556; Tipo: INTERMEDIÁRIO; Distância: 17,720 km</desc></wpt><wpt lat="-25.494495" lon="-49.289617"><name>14 - PRV[18056-4]</name><desc>ID: 306557; Tipo: INTERMEDIÁRIO; Distância: 19,714 km</desc></wpt><wpt lat="-25.491786" lon="-49.293088"><name>15 - 109095 - Terminal Capão Raso/n022 - Inter 2 (Horário)  (Sentido Portão)/n023 - Inter 2 (Anti-Horário)/n024 - C.Raso/Camp. Siqueira.</name><desc>ID: 306558; Tipo: OBRIGATÓRIO; Distância: 20,588 km</desc></wpt><wpt lat="-25.475997" lon="-49.292383"><name>16 - 109091 - Terminal Portão/n022 - Inter 2 (Horário) (Sentido Campina do Siqueira)/n023 - Inter 2 (Anti-Horário)/n024 - C. Raso / Camp. Siqueira.</name><desc>ID: 306559; Tipo: OBRIGATÓRIO; Distância: 22,609 km</desc></wpt><wpt lat="-25.461933" lon="-49.290823"><name>17 - PRV[18056-5]</name><desc>ID: 306560; Tipo: INTERMEDIÁRIO; Distância: 24,639 km</desc></wpt><wpt lat="-25.459129" lon="-49.302406"><name>18 - 109066 - Estação Tubo Santa Quitéria -Sentido Guadalupe / T. Campina do Siqueira/nX36 - Ref. Guadalupe / Fazendinha/n022 - Inter 2 (Horário)/n023 - Inter 2 (Anti-Horário)/n024 - C. Raso / Camp. Siqueira/n702 - Caiuá / Cachoeira</name><desc>ID: 306561; Tipo: INTERMEDIÁRIO; Distância: 25,872 km</desc></wpt><wpt lat="-25.441063" lon="-49.306157"><name>19 - PRV[18056-6]</name><desc>ID: 306562; Tipo: INTERMEDIÁRIO; Distância: 27,913 km</desc></wpt><wpt lat="-25.436224" lon="-49.307513"><name>20 - 109125 - Terminal Campina do Siqueira - 022 - Inter 2 (Horário) (Sentido Cabral)./n022 - Inter 2 (Horário)/n024 - C. Raso / Camp. Siqueira</name><desc>ID: 306563; Tipo: OBRIGATÓRIO; Distância: 28,561 km</desc></wpt><wpt lat="-25.429575" lon="-49.289755"><name>21 - PRV[18056-7]</name><desc>ID: 306564; Tipo: INTERMEDIÁRIO; Distância: 30,603 km</desc></wpt><wpt lat="-25.422359" lon="-49.291559"><name>22 - 109046 - Estação Tubo Mêrces - Cabral / Santa Felicidade/n022 - Inter 2 (Horário)/n307 - B. Alto / Sta. Felicidade (Sentido Terminal Sta. Felicidade)/n902 - Sta. Felicidade L.D.</name><desc>ID: 306565; Tipo: INTERMEDIÁRIO; Distância: 31,582 km</desc></wpt><wpt lat="-25.416557" lon="-49.279266"><name>23 - 109045 - Estação Tubo Praça da Bandeira - Cabral/n022 - Inter 2 (Horário)</name><desc>ID: 306566; Tipo: INTERMEDIÁRIO; Distância: 33,618 km</desc></wpt><wpt lat="-25.415626" lon="-49.266380"><name>24 - 109011 - Estação Tubo Centro Cívico  - Assembléia - Sentido Museu Oscar Niemeyer / Cabral / Barreirinha/n022 - Inter 2 (HORÁRIO)/n206 - Barreirinha / São José/n505 - Boqueirão / C. Cívico/n702 - Caiuá / Cachoeira</name><desc>ID: 306567; Tipo: INTERMEDIÁRIO; Distância: 35,175 km</desc></wpt><wpt lat="-25.409851" lon="-49.254193"><name>25 - PRV[18056-8]</name><desc>ID: 306568; Tipo: INTERMEDIÁRIO; Distância: 37,181 km</desc></wpt><wpt lat="-25.406600" lon="-49.252187"><name>26 - 109086 - Estação Tubo Terminal Cabral/n022 - Inter 2 (Horário) (Sentido Capão da Imbuia)</name><desc>ID: 306544; Tipo: OBRIGATÓRIO; Distância: 37,649 km</desc></wpt></gpx>