<?xml version='1.0' encoding='utf-8'?>
<kml xmlns="http://www.opengis.net/kml/2.2"><Document><name>372-taruma-troncal-ida</name><Style id="trajeto"><LineStyle><color>ff0000ff</color><width>5</width></LineStyle></Style><Placemark><name>Trajeto</name><styleUrl>#trajeto</styleUrl><LineString><tessellate>1</tessellate><coordinates>-49.205263,-25.412986,0
-49.205676,-25.413146,0
-49.205716,-25.413167,0
-49.205750,-25.413187,0
-49.205780,-25.413219,0
-49.205838,-25.413274,0
-49.205924,-25.413362,0
-49.205689,-25.413844,0
-49.205076,-25.413597,0
-49.204609,-25.413418,0
-49.203976,-25.413175,0
-49.203490,-25.412986,0
-49.203309,-25.413358,0
-49.203157,-25.413681,0
-49.202992,-25.414018,0
-49.202812,-25.414391,0
-49.202639,-25.414771,0
-49.202495,-25.415080,0
-49.202341,-25.415409,0
-49.202261,-25.415586,0
-49.202062,-25.416008,0
-49.201873,-25.416414,0
-49.201715,-25.416749,0
-49.201584,-25.417028,0
-49.201239,-25.417712,0
-49.201092,-25.418006,0
-49.200917,-25.418363,0
-49.200730,-25.418760,0
-49.200577,-25.419076,0
-49.200402,-25.419443,0
-49.200275,-25.419709,0
-49.200195,-25.419886,0
-49.200072,-25.420156,0
-49.199948,-25.420428,0
-49.199772,-25.420814,0
-49.199671,-25.421039,0
-49.199586,-25.421222,0
-49.199496,-25.421410,0
-49.199335,-25.421751,0
-49.199187,-25.422071,0
-49.199060,-25.422338,0
-49.199801,-25.422634,0
-49.200163,-25.422777,0
-49.200755,-25.423010,0
-49.201223,-25.423181,0
-49.201801,-25.423410,0
-49.202336,-25.423620,0
-49.202875,-25.423874,0
-49.203139,-25.423995,0
-49.203393,-25.424104,0
-49.203219,-25.424471,0
-49.203152,-25.424593,0
-49.202924,-25.425118,0
-49.202806,-25.425383,0
-49.202650,-25.425724,0
-49.202480,-25.426097,0
-49.202335,-25.426413,0
-49.202256,-25.426585,0
-49.202201,-25.426697,0
-49.202370,-25.426794,0
-49.202698,-25.426978,0
-49.203202,-25.427183,0
-49.203764,-25.427382,0
-49.203973,-25.427458,0
-49.204329,-25.427584,0
-49.204394,-25.427556,0
-49.204448,-25.427552,0
-49.204979,-25.426269,0
-49.205581,-25.424925,0
-49.206676,-25.425341,0
-49.207287,-25.425567,0
-49.207798,-25.425752,0
-49.209241,-25.426215,0
-49.210203,-25.426541,0
-49.210875,-25.426725,0
-49.211804,-25.427029,0
-49.212731,-25.427306,0
-49.214449,-25.427901,0
-49.214074,-25.428821,0
-49.213786,-25.429510,0
-49.213687,-25.429766,0
-49.213681,-25.429876,0
-49.213762,-25.429988,0
-49.213860,-25.430016,0
-49.215809,-25.429804,0
-49.216298,-25.429754,0
-49.216782,-25.429702,0
-49.217278,-25.429640,0
-49.218706,-25.429494,0
-49.219851,-25.429377,0
-49.220647,-25.429301,0
-49.220797,-25.429266,0
-49.221236,-25.429211,0
-49.222436,-25.429104,0
-49.222995,-25.429033,0
-49.223372,-25.428984,0
-49.223764,-25.428955,0
-49.224078,-25.428918,0
-49.224529,-25.428863,0
-49.225085,-25.428801,0
-49.225511,-25.428760,0
-49.225975,-25.428711,0
-49.226455,-25.428660,0
-49.226989,-25.428608,0
-49.227129,-25.428613,0
-49.227315,-25.428610,0
-49.227850,-25.428549,0
-49.228142,-25.428512,0
-49.228310,-25.428491,0
-49.229201,-25.428429,0
-49.229914,-25.428336,0
-49.230286,-25.428295,0
-49.230867,-25.428231,0
-49.231388,-25.428169,0
-49.231815,-25.428119,0
-49.232845,-25.427998,0
-49.233142,-25.427966,0
-49.233341,-25.427940,0
-49.233926,-25.427880,0
-49.234747,-25.427803,0
-49.235278,-25.427743,0
-49.235901,-25.427674,0
-49.236331,-25.427627,0
-49.236773,-25.427578,0
-49.237851,-25.427460,0
-49.237981,-25.427440,0
-49.238388,-25.427401,0
-49.239356,-25.427296,0
-49.239386,-25.427292,0
-49.239579,-25.427281,0
-49.239745,-25.427290,0
-49.239971,-25.427330,0
-49.240565,-25.427540,0
-49.240715,-25.427605,0
-49.240872,-25.427657,0
-49.241033,-25.427681,0
-49.241222,-25.427692,0
-49.241463,-25.427680,0
-49.241894,-25.427656,0
-49.242522,-25.427635,0
-49.243011,-25.427606,0
-49.243305,-25.427588,0
-49.243600,-25.427562,0
-49.244477,-25.427501,0
-49.244769,-25.427480,0
-49.245220,-25.427438,0
-49.245766,-25.427393,0
-49.246415,-25.427334,0
-49.247045,-25.427283,0
-49.247360,-25.427259,0
-49.247679,-25.427234,0
-49.248487,-25.427155,0
-49.248797,-25.427124,0
-49.248961,-25.427116,0
-49.249190,-25.427088,0
-49.249612,-25.427057,0
-49.250189,-25.427010,0
-49.250663,-25.426974,0
-49.251020,-25.426940,0
-49.251583,-25.426894,0
-49.252078,-25.426863,0
-49.252533,-25.426818,0
-49.253161,-25.426770,0
-49.253635,-25.426718,0
-49.254764,-25.426617,0
-49.255105,-25.426586,0
-49.255647,-25.426532,0
-49.255995,-25.426519,0
-49.256219,-25.426501,0
-49.256798,-25.426438,0
-49.257181,-25.426403,0
-49.257512,-25.426375,0
-49.258043,-25.426320,0
-49.258418,-25.426279,0
-49.258908,-25.426248,0
-49.259139,-25.426269,0
-49.259292,-25.426318,0
-49.259702,-25.426494,0
-49.260289,-25.426743,0
-49.261172,-25.427118,0
-49.261502,-25.427227,0
-49.262144,-25.427499,0
-49.262522,-25.427637,0
-49.262856,-25.427762,0
-49.263234,-25.427919,0
-49.263601,-25.428061,0
-49.263720,-25.428093,0
-49.263870,-25.428154,0
-49.264266,-25.428306,0
-49.264395,-25.428342,0
-49.264724,-25.428469,0
-49.265139,-25.428627,0
-49.265534,-25.428790,0
-49.266360,-25.429112,0
-49.266660,-25.429237,0
-49.267099,-25.429414,0
-49.266865,-25.429899,0
-49.266717,-25.430196,0
-49.267110,-25.430330,0
-49.267490,-25.430482,0
-49.268160,-25.430773,0
-49.268443,-25.430897,0
-49.268807,-25.431055,0
-49.270022,-25.431544,0
-49.270413,-25.431699,0
-49.270799,-25.431859,0
-49.271098,-25.431983,0
-49.271396,-25.432097,0
-49.271804,-25.432268,0
-49.272219,-25.432442,0
-49.272105,-25.432700,0
-49.271975,-25.432978,0
-49.271797,-25.433361,0
-49.271627,-25.433296,0
-49.270992,-25.433048,0
-49.270472,-25.432867,0</coordinates></LineString></Placemark><Placemark><name>1 - 104003 - Terminal Bairro Alto -372 - Tarumã</name><description>ID: 305748&lt;br/&gt;Tipo: OBRIGATÓRIO&lt;br/&gt;Distância: 0,000 km</description><Point><coordinates>-49.205380,-25.413030,0</coordinates></Point></Placemark><Placemark><name>2 - 130385 - 341 - Bairro Alto / Santa Cândida (Sentido Terminal Santa Cândida)/n372 - Tarumã (Sentido Praça Carlos Gomes)</name><description>ID: 305749&lt;br/&gt;Tipo: INTERMEDIÁRIO&lt;br/&gt;Distância: 0,322 km</description><Point><coordinates>-49.203719,-25.413157,0</coordinates></Point></Placemark><Placemark><name>3 - 130382 - 372 - Tarumã (Sentido Praça Carlos Gomes)</name><description>ID: 305750&lt;br/&gt;Tipo: INTERMEDIÁRIO&lt;br/&gt;Distância: 0,737 km</description><Point><coordinates>-49.202182,-25.415895,0</coordinates></Point></Placemark><Placemark><name>4 - 130381 - 372 - Tarumã (Sentido Praça Carlos Gomes)</name><description>ID: 305751&lt;br/&gt;Tipo: INTERMEDIÁRIO&lt;br/&gt;Distância: 0,976 km</description><Point><coordinates>-49.201232,-25.417893,0</coordinates></Point></Placemark><Placemark><name>5 - 130379 - 372 - Tarumã (Sentido Praça Carlos Gomes)</name><description>ID: 305752&lt;br/&gt;Tipo: INTERMEDIÁRIO&lt;br/&gt;Distância: 1,148 km</description><Point><coordinates>-49.200454,-25.419572,0</coordinates></Point></Placemark><Placemark><name>6 - 130376 - 372 - Tarumã (Sentido Praça Carlos Gomes)</name><description>ID: 305753&lt;br/&gt;Tipo: INTERMEDIÁRIO&lt;br/&gt;Distância: 1,460 km</description><Point><coordinates>-49.199223,-25.422172,0</coordinates></Point></Placemark><Placemark><name>7 - 130240 - 030 - Interbairros III (Sentido Oficinas)/n372 - Tarumã (Sentido Praça Carlos Gomes)</name><description>ID: 305754&lt;br/&gt;Tipo: INTERMEDIÁRIO&lt;br/&gt;Distância: 1,789 km</description><Point><coordinates>-49.201611,-25.423281,0</coordinates></Point></Placemark><Placemark><name>8 - 130243 - 030 - Interbairros III (Sentido Oficinas)/n372 - Tarumã (Sentido Praça Carlos Gomes)</name><description>ID: 305755&lt;br/&gt;Tipo: INTERMEDIÁRIO&lt;br/&gt;Distância: 2,009 km</description><Point><coordinates>-49.203316,-25.424526,0</coordinates></Point></Placemark><Placemark><name>9 - 130244 - 030 - Interbairros III (Sentido Oficinas)/n372 - Tarumã (Sentido Praça Carlos Gomes)</name><description>ID: 305756&lt;br/&gt;Tipo: INTERMEDIÁRIO&lt;br/&gt;Distância: 2,240 km</description><Point><coordinates>-49.202379,-25.426520,0</coordinates></Point></Placemark><Placemark><name>10 - 131004 - R. Cel. Domingos Soares, 1753 - Bairro Alto</name><description>ID: 305757&lt;br/&gt;Tipo: INTERMEDIÁRIO&lt;br/&gt;Distância: 2,518 km</description><Point><coordinates>-49.204539,-25.427127,0</coordinates></Point></Placemark><Placemark><name>11 - 130331 - 373 - Alto Tarumã (Sentido Praça Carlos Gomes)</name><description>ID: 305758&lt;br/&gt;Tipo: INTERMEDIÁRIO&lt;br/&gt;Distância: 2,831 km</description><Point><coordinates>-49.205914,-25.424954,0</coordinates></Point></Placemark><Placemark><name>12 - 130590 - 373 - Alto Tarumã (Sentido Praça Carlos Gomes)</name><description>ID: 305759&lt;br/&gt;Tipo: INTERMEDIÁRIO&lt;br/&gt;Distância: 3,327 km</description><Point><coordinates>-49.210532,-25.426565,0</coordinates></Point></Placemark><Placemark><name>13 - 130588 - 373 - Alto Tarumã (Sentido Praça Carlos Gomes)</name><description>ID: 305760&lt;br/&gt;Tipo: INTERMEDIÁRIO&lt;br/&gt;Distância: 3,778 km</description><Point><coordinates>-49.213817,-25.427635,0</coordinates></Point></Placemark><Placemark><name>14 - 130217 - 021 - Interbairros II (Anti-Horário - Sentido Cabral)/n372 - Tarumã (Sentido Praça Carlos Gomes)/n375 - Sagrado Coração/n380 - Detran / V. Machado (Sentido Vicente Machado)</name><description>ID: 305761&lt;br/&gt;Tipo: INTERMEDIÁRIO&lt;br/&gt;Distância: 4,034 km</description><Point><coordinates>-49.214814,-25.429823,0</coordinates></Point></Placemark><Placemark><name>15 - 130215 - 021 - Interbairros II (Anti-Horário - Sentido Cabral)/n372 - Tarumã (Sentido Praça Carlos Gomes)/n373 - Alto Tarumã (Sentido Praça Carlos Gomes)/n375 - Sagrado Coração (Sentido Praça Santos Andrade)/n380 - Detran / V. Machado (Sentido Vicente Machado)/n393 - C. Imbuia / Parque Barigui (Sentido P. Barigui)</name><description>ID: 305762&lt;br/&gt;Tipo: INTERMEDIÁRIO&lt;br/&gt;Distância: 4,522 km</description><Point><coordinates>-49.218204,-25.429444,0</coordinates></Point></Placemark><Placemark><name>16 - 130211 - 021 - Interbairros II (Anti-Horário - Sentido Cabral)/n372 - Tarumã (Sentido Praça Carlos Gomes)/n373 - Alto Tarumã (Sentido Praça Carlos Gomes)/n375 - Sagrado Coração (Sentido Praça Santos Andrade)/n380 - Detran / V. Machado (Vicente Machado)/n393 - C. Imbuia / Parque Barigui (Sentido P. Barigui)</name><description>ID: 305763&lt;br/&gt;Tipo: INTERMEDIÁRIO&lt;br/&gt;Distância: 5,030 km</description><Point><coordinates>-49.223639,-25.428877,0</coordinates></Point></Placemark><Placemark><name>17 - 130029 - 021 - Interbairros II (Anti-Horário - Sentido Cabral)/n372 - Tarumã (Sentido Praça Carlos Gomes)/n373 - Alto Tarumã (Sentido Praça Carlos Gomes)/n375 - Sagrado Coração (Sentido Praça Santos Andrade)/n380 - Detran / V. Machado (Sentido Vicente Machado)/n393 - C. Imbuia / Parque Barigui (Sentido P. Barigui)</name><description>ID: 305764&lt;br/&gt;Tipo: INTERMEDIÁRIO&lt;br/&gt;Distância: 5,299 km</description><Point><coordinates>-49.226473,-25.428618,0</coordinates></Point></Placemark><Placemark><name>18 - 130208 - 021 - Interbairros II (Anti-Horário - Sentido Cabral)/n372 - Tarumã (Sentido Praça Carlos Gomes)/n373 - Alto Tarumã (Sentido Praça Carlos Gomes)/n375 - Sagrado Coração (Sentido Praça Santos Andrade)/n380 - Detran / V. Machado (Sentido Vicente Machado)/n389 - Madrugueiro Tarumã / Augusta (Sentido Vila Sandra)/n393 - C. Imbuia / Parque Barigui (Sentido Parque Barigui)</name><description>ID: 305765&lt;br/&gt;Tipo: INTERMEDIÁRIO&lt;br/&gt;Distância: 5,682 km</description><Point><coordinates>-49.230169,-25.428264,0</coordinates></Point></Placemark><Placemark><name>19 - 130869 - 020 - Interbairros II (Anti-Horário - Sentido Cabral)/n372 - Tarumã (Sentido Praça Carlos Gomes)/n373 - Alto Tarumã (Sentido Praça Carlos Gomes)/n375 - Sagrado Coração (Sentido Praça Santos Andrade)/n380 - Detran / Vicente Machado (Vicente Machado)/n389 - Madrugueiro Tarumã / Augusta (Sentido Vila Sandra)/n393 - Capão da Imbuia / Parque Barigui (Sentido Parque Barigui)</name><description>ID: 305766&lt;br/&gt;Tipo: INTERMEDIÁRIO&lt;br/&gt;Distância: 6,048 km</description><Point><coordinates>-49.233682,-25.427844,0</coordinates></Point></Placemark><Placemark><name>20 - 130200 - 021 - Interbairros II (Anti-Horário - Sentido Cabral)/n372 - Tarumã (Sentido Praça Carlos Gomes)/n373 - Alto Tarumã (Sentido Praça Carlos Gomes)/n375 - Sagrado Coração (Sentido Praça Santos Andrade)/n380 - Detran / V. Machado (Sentido Vicente Machado)/n389 - Madrugueiro Tarumã / Augusta (Sentido Vila Sandra)/n393 - C. Imbuia / Parque Barigui (Sentido Parque  Barigui)</name><description>ID: 305767&lt;br/&gt;Tipo: INTERMEDIÁRIO&lt;br/&gt;Distância: 6,442 km</description><Point><coordinates>-49.237645,-25.427451,0</coordinates></Point></Placemark><Placemark><name>21 - 130366 - 371 - Higienópolis (Sentido Praça Santos Andrade)/n372 - Tarumã (Sentido Praça Carlos Gomes)/n373 - Alto Tarumã (Sentido Praça Carlos Gomes)/n375 - Sagrado Coração (Sentido Praça Santos Andrade)/n378 - Inter Hospitais (Sentido Clínica de Fraturas XV)/n380 - Detran / Vicente Machado (Sentido Vicento Machado)/n389 - Madrugueiro Tarumã / Augusta (Sentido Vila Sandra)/n393 - C. Imbuia / Parque Barigui (sentido P. Barigui)</name><description>ID: 305768&lt;br/&gt;Tipo: INTERMEDIÁRIO&lt;br/&gt;Distância: 7,022 km</description><Point><coordinates>-49.244030,-25.427490,0</coordinates></Point></Placemark><Placemark><name>22 - 140200 - 371 - Higienópolis (Sentido Praça Santos Andrade)/n372 - Tarumã (Sentido Praça Carlos Gomes)/n373 - Alto Tarumã (Sentido Praça Carlos Gomes)/n375 - Sagrado Coração (Sentido Praça Santos Andrade)/n378 - Inter Hospitais (Sentido Clínica de Fraturas XV)/n380 - Detran / V. Machado (Vicente Machado)/n393 - C. Imbuia / Parque Barigui (sentido P. Barigui)/n594 - Menonitas (Sentido Centro)</name><description>ID: 305769&lt;br/&gt;Tipo: INTERMEDIÁRIO&lt;br/&gt;Distância: 7,398 km</description><Point><coordinates>-49.247474,-25.427190,0</coordinates></Point></Placemark><Placemark><name>23 - 130367 - 371 - Higienópolis (Sentido Praça Santos Andrade)/n372 - Tarumã (Sentido Praça Carlos Gomes)/n373 - Alto Tarumã (Sentido Praça Carlos Gomes)/n375 - Sagrado Coração (Sentido Praça Santos Andrade)/n378 - Inter Hospitais (Sentido Clínica de Fraturas XV)/n380 - Detran / Vicente Machado (Sentido Vicento Machado)/n389 - Madrugueiro Tarumã / Augusta (Sentido Vila Sandra)/n393 - C. Imbuia / Parque Barigui (sentido P. Barigui)</name><description>ID: 305770&lt;br/&gt;Tipo: INTERMEDIÁRIO&lt;br/&gt;Distância: 7,623 km</description><Point><coordinates>-49.249720,-25.427020,0</coordinates></Point></Placemark><Placemark><name>24 - 130368 - 371 - Higienópolis (Sentido Praça Santos Andrade)/n372 - Tarumã (Sentido Praça Carlos Gomes)/n373 - Alto Tarumã (Sentido Praça Carlos Gomes)/n375 - Sagrado Coração (Sentido Praça Santos Andrade)/n378 - Inter Hospitais (Clínica de Fraturas XV)/n380 - Detran / Vicente Machado (Sentido Vicento Machado)/n389 - Madrugueiro Tarumã / Augusta (Sentido Vila Sandra)/n393 - C. Imbuia / Parque Barigui (sentido P. Barigui)</name><description>ID: 305771&lt;br/&gt;Tipo: INTERMEDIÁRIO&lt;br/&gt;Distância: 7,914 km</description><Point><coordinates>-49.252320,-25.426810,0</coordinates></Point></Placemark><Placemark><name>25 - 130369 - 371 - Higienópolis (Sentido Praça Santos Andrade)/n372 - Tarumã (Sentido Praça Carlos Gomes)/n373 - Alto Tarumã (Sentido Praça Carlos Gomes)/n375 - Sagrado Coração (Sentido Praça Santos Andrade)/n380 - Detran / Vicente Machado (Sentido Vicento Machado)/n389 - Madrugueiro Tarumã / Augusta (Sentido Vila Sandra)/n393 - C. Imbuia / Parque Barigui (sentido P. Barigui)</name><description>ID: 305772&lt;br/&gt;Tipo: INTERMEDIÁRIO&lt;br/&gt;Distância: 8,137 km</description><Point><coordinates>-49.254230,-25.426640,0</coordinates></Point></Placemark><Placemark><name>26 - 110070 - 371 - Higienópolis (Sentido Praça Santos Andrade)/n372 - Tarumã (Sentido Praça Carlos Gomes)/n373 - Alto Tarumã (Sentido Praça Carlos Gomes)/n375 - Sagrado Coração (Sentido Praça Santos Andrade)/n380 - Detran / Vicente Machado (Sentido Vicento Machado)/n389 - Madrugueiro Tarumã / Augusta (Sentido Vila Sandra)/n393 - C. Imbuia / Parque Barigui (sentido P. Barigui)</name><description>ID: 305773&lt;br/&gt;Tipo: INTERMEDIÁRIO&lt;br/&gt;Distância: 8,281 km</description><Point><coordinates>-49.256413,-25.426442,0</coordinates></Point></Placemark><Placemark><name>27 - 110071 - 371 - Higienópolis (Sentido Praça Santos Andrade)/n372 - Tarumã (Sentido Praça Carlos Gomes)/n373 - Alto Tarumã (Sentido Praça Carlos Gomes)/n375 - Sagrado Coração (Sentido Praça Santos Andrade)/n380 - Detran / Vicente Machado (Sentido Vicento Machado)/n389 - Madrugueiro Tarumã / Augusta (Sentido Vila Sandra)/n393 - C. Imbuia / PQ. Barigui</name><description>ID: 305774&lt;br/&gt;Tipo: INTERMEDIÁRIO&lt;br/&gt;Distância: 8,500 km</description><Point><coordinates>-49.258594,-25.426263,0</coordinates></Point></Placemark><Placemark><name>28 - 110072 - 360 - Novena (sentido Praça Rui Barbosa)/n361 - Hugo Lange  (Sentido Praça Santos Andrade)/n365 - JD. Social / Batel/n371 - Higienópolis (Sentido Praça Santos Andrade)/n372 - Tarumã (Sentido Praça Carlos Gomes)/n373 - Alto Tarumã (Sentido Praça Carlos Gomes)/n374 - Hugo Lange (Sentido Praça Santos Andrade)/n375 - Sagrado Coração (Sentido Praça Santos Andrade)/n380 - Detran / Vicente Machado (Sentido Vicento Machado)/n389 - Madrugueiro Tarumã / Augusta (Sentido Vila Sandra)/n393 - C. Imbuia / Parq</name><description>ID: 305775&lt;br/&gt;Tipo: INTERMEDIÁRIO&lt;br/&gt;Distância: 8,795 km</description><Point><coordinates>-49.260966,-25.426957,0</coordinates></Point></Placemark><Placemark><name>29 - 110073 - 360 - Novena (sentido Praça Rui Barbosa)/n361 - Augusto Stresser  (Sentido Praça Santos Andrade)/n365 - JD. Social / Batel/n371 - Higienópolis (Sentido Praça Santos Andrade)/n372 - Tarumã (Sentido Praça Carlos Gomes)/n373 - Alto Tarumã (Sentido Praça Carlos Gomes)/n374 - Hugo Lange (Sentido Praça Santos Andrade) /n375 - Sagrado Coração (Sentido Praça Santos Andrade)/n380 - Detran / Vicente Machado (Sentido Vicento Machado)/n389 - Madrugueiro Tarumã / Augusta (Sentido Vila Sandra)/n393 - C. Imbuia</name><description>ID: 305776&lt;br/&gt;Tipo: INTERMEDIÁRIO&lt;br/&gt;Distância: 9,018 km</description><Point><coordinates>-49.263080,-25.427820,0</coordinates></Point></Placemark><Placemark><name>30 - 110003 - 150 - Canal da Música / Vista Alegre (Sentido Canal da Música)/n360 - Novena (Sentido Praça Rui Barbosa)/n365 - Jd. Social / Batel (Batel)/n366 - Itupava / Hosp. Militar (Sentido Hosp. Militar)/n372 - Tarumã (Sentido Praça Carlos Gomes)/n373 - Alto Tarumã (Sentido Praça Carlos Gomes)/n380 - Detran / V. Machado (Sentido V. Machado)/n385 - Cristo Rei (Sentido Rua Mal Floriano)/n386 - Cajuru (Sentido Praça Carlos Gomes)/n389 - Madrugueiro Tarumã / Augusta (Sentido Vila Sandra)/n393 - C. Imbuia / Par</name><description>ID: 305777&lt;br/&gt;Tipo: INTERMEDIÁRIO&lt;br/&gt;Distância: 9,572 km</description><Point><coordinates>-49.267224,-25.430286,0</coordinates></Point></Placemark><Placemark><name>31 - 110004 - 150 - Canal da Música / Vista Alegre (Sentido Canal da Música)/n360 - Novena (sentido Praça Rui Barbosa)/n365 - Jd. Social / Batel (Batel)/n366 - Itupava / Hosp. Militar (Sentido Hosp. Militar)/n372 - Tarumã (Sentido Praça Carlos Gomes)/n373 - Alto Tarumã (Sentido Praça Carlos Gomes)/n380 - Detran / V. Machado (Sentido V. Machado)/n385 - Cristo Rei (Sentido Rua Mal Floriano)/n386 - Cajuru (Sentido Praça Carlos Gomes)/n389 - Madrugueiro Tarumã / Augusta (Sentido Vila Sandra)/n393 - C. Imbuia / Par</name><description>ID: 305778&lt;br/&gt;Tipo: INTERMEDIÁRIO&lt;br/&gt;Distância: 9,891 km</description><Point><coordinates>-49.269576,-25.431247,0</coordinates></Point></Placemark><Placemark><name>32 - 103203 - Praça Carlos Gomes/n372 - Tarumã /n389 - Madrugueiro Tarumã / Augusta (Sentido Bairro Alto).</name><description>ID: 305779&lt;br/&gt;Tipo: OBRIGATÓRIO&lt;br/&gt;Distância: 10,381 km</description><Point><coordinates>-49.270525,-25.432935,0</coordinates></Point></Placemark></Document></kml>