<?xml version='1.0' encoding='utf-8'?>
<kml xmlns="http://www.opengis.net/kml/2.2"><Document><name>372-taruma-troncal-volta</name><Style id="trajeto"><LineStyle><color>ff0000ff</color><width>5</width></LineStyle></Style><Placemark><name>Trajeto</name><styleUrl>#trajeto</styleUrl><LineString><tessellate>1</tessellate><coordinates>-49.270599,-25.432913,0
-49.270330,-25.432816,0
-49.270091,-25.432732,0
-49.269214,-25.432414,0
-49.268312,-25.432088,0
-49.267757,-25.431858,0
-49.267307,-25.431669,0
-49.266891,-25.431508,0
-49.266117,-25.431206,0
-49.265406,-25.430934,0
-49.264707,-25.430664,0
-49.264768,-25.430526,0
-49.264477,-25.430401,0
-49.264208,-25.430280,0
-49.263718,-25.430064,0
-49.263310,-25.429924,0
-49.262948,-25.429751,0
-49.262831,-25.429695,0
-49.262594,-25.429596,0
-49.262153,-25.429413,0
-49.261353,-25.429094,0
-49.260834,-25.428891,0
-49.260377,-25.428715,0
-49.259971,-25.428552,0
-49.259355,-25.428304,0
-49.259045,-25.428179,0
-49.258553,-25.427942,0
-49.258461,-25.427912,0
-49.258412,-25.427901,0
-49.258325,-25.427900,0
-49.257539,-25.427958,0
-49.256970,-25.428006,0
-49.256570,-25.428038,0
-49.256321,-25.428060,0
-49.256295,-25.427825,0
-49.256282,-25.427706,0
-49.256173,-25.427133,0
-49.255734,-25.427173,0
-49.255175,-25.427204,0
-49.254388,-25.427286,0
-49.253691,-25.427354,0
-49.253293,-25.427392,0
-49.252922,-25.427426,0
-49.252719,-25.427446,0
-49.252470,-25.427468,0
-49.252094,-25.427504,0
-49.250254,-25.427670,0
-49.249624,-25.427718,0
-49.249000,-25.427769,0
-49.248866,-25.427773,0
-49.248647,-25.427798,0
-49.247754,-25.427882,0
-49.247374,-25.427907,0
-49.246712,-25.427955,0
-49.246482,-25.427973,0
-49.246262,-25.427982,0
-49.245852,-25.428018,0
-49.245494,-25.428051,0
-49.244823,-25.428105,0
-49.244476,-25.428132,0
-49.243917,-25.428180,0
-49.243650,-25.428201,0
-49.243056,-25.428256,0
-49.242822,-25.428270,0
-49.242712,-25.428265,0
-49.242656,-25.428252,0
-49.242590,-25.428234,0
-49.242519,-25.428201,0
-49.242410,-25.428106,0
-49.242234,-25.427913,0
-49.242151,-25.427839,0
-49.242066,-25.427786,0
-49.241990,-25.427757,0
-49.241927,-25.427740,0
-49.241714,-25.427746,0
-49.241447,-25.427772,0
-49.241199,-25.427786,0
-49.240993,-25.427787,0
-49.240815,-25.427748,0
-49.240649,-25.427697,0
-49.240508,-25.427628,0
-49.240243,-25.427521,0
-49.240075,-25.427463,0
-49.239946,-25.427425,0
-49.239758,-25.427394,0
-49.239617,-25.427393,0
-49.239473,-25.427399,0
-49.238505,-25.427498,0
-49.238055,-25.427566,0
-49.237750,-25.427597,0
-49.237276,-25.427645,0
-49.236936,-25.427678,0
-49.236677,-25.427702,0
-49.236246,-25.427755,0
-49.235635,-25.427823,0
-49.235276,-25.427863,0
-49.234730,-25.427919,0
-49.233625,-25.428012,0
-49.233325,-25.428044,0
-49.233093,-25.428083,0
-49.232941,-25.428102,0
-49.232618,-25.428140,0
-49.231997,-25.428216,0
-49.231269,-25.428304,0
-49.230931,-25.428349,0
-49.230364,-25.428410,0
-49.229895,-25.428465,0
-49.229209,-25.428552,0
-49.228864,-25.428555,0
-49.228564,-25.428592,0
-49.228339,-25.428620,0
-49.227605,-25.428687,0
-49.227318,-25.428709,0
-49.226841,-25.428769,0
-49.225837,-25.428880,0
-49.225431,-25.428929,0
-49.224933,-25.428973,0
-49.224456,-25.429014,0
-49.224061,-25.429059,0
-49.223307,-25.429139,0
-49.222970,-25.429173,0
-49.221967,-25.429280,0
-49.221604,-25.429331,0
-49.221350,-25.429382,0
-49.221125,-25.429399,0
-49.220875,-25.429442,0
-49.220671,-25.429467,0
-49.220512,-25.429495,0
-49.220213,-25.429522,0
-49.219797,-25.429562,0
-49.218990,-25.429636,0
-49.218553,-25.429677,0
-49.217958,-25.429731,0
-49.217438,-25.429783,0
-49.216778,-25.429849,0
-49.216117,-25.429925,0
-49.215385,-25.430012,0
-49.215811,-25.430896,0
-49.214818,-25.431034,0
-49.213849,-25.431193,0
-49.213476,-25.430451,0
-49.213473,-25.430319,0
-49.213464,-25.430073,0
-49.213888,-25.428995,0
-49.214330,-25.427863,0
-49.212300,-25.427187,0
-49.211177,-25.426823,0
-49.210782,-25.426689,0
-49.210184,-25.426537,0
-49.208833,-25.426078,0
-49.208309,-25.425909,0
-49.207854,-25.425763,0
-49.207429,-25.425613,0
-49.207010,-25.425466,0
-49.205585,-25.424924,0
-49.204978,-25.426255,0
-49.204690,-25.426980,0
-49.204467,-25.427522,0
-49.204473,-25.427572,0
-49.204499,-25.427615,0
-49.204465,-25.427666,0
-49.204396,-25.427675,0
-49.204350,-25.427587,0
-49.204273,-25.427559,0
-49.203928,-25.427442,0
-49.203202,-25.427182,0
-49.202917,-25.427067,0
-49.202677,-25.426969,0
-49.202522,-25.426881,0
-49.202204,-25.426702,0
-49.202587,-25.425864,0
-49.202740,-25.425525,0
-49.202879,-25.425218,0
-49.202965,-25.425018,0
-49.203150,-25.424596,0
-49.203225,-25.424459,0
-49.203392,-25.424103,0
-49.203157,-25.424004,0
-49.202935,-25.423901,0
-49.202333,-25.423618,0
-49.201774,-25.423400,0
-49.201218,-25.423179,0
-49.200757,-25.423012,0
-49.200427,-25.422883,0
-49.200148,-25.422772,0
-49.199692,-25.422592,0
-49.199429,-25.422487,0
-49.199239,-25.422412,0
-49.199059,-25.422338,0
-49.199368,-25.421686,0
-49.199545,-25.421305,0
-49.199676,-25.421027,0
-49.199831,-25.420685,0
-49.199979,-25.420358,0
-49.200146,-25.419991,0
-49.200285,-25.419683,0
-49.200431,-25.419382,0
-49.200818,-25.418575,0
-49.200944,-25.418310,0
-49.201073,-25.418049,0
-49.201222,-25.417748,0
-49.201427,-25.417340,0
-49.201586,-25.417025,0
-49.201774,-25.416627,0
-49.201872,-25.416419,0
-49.202037,-25.416064,0
-49.202210,-25.415692,0
-49.202345,-25.415402,0
-49.202667,-25.414703,0
-49.202821,-25.414373,0
-49.203151,-25.413690,0
-49.203242,-25.413502,0
-49.203490,-25.412986,0
-49.203993,-25.413181,0
-49.204588,-25.413410,0
-49.204716,-25.413132,0
-49.204796,-25.412957,0
-49.204857,-25.412830,0
-49.205107,-25.412926,0
-49.205325,-25.413009,0</coordinates></LineString></Placemark><Placemark><name>1 - 103203 - Praça Carlos Gomes/n372 - Tarumã /n389 - Madrugueiro Tarumã / Augusta (Sentido Bairro Alto).</name><description>ID: 305779&lt;br/&gt;Tipo: OBRIGATÓRIO&lt;br/&gt;Distância: 0,000 km</description><Point><coordinates>-49.270525,-25.432935,0</coordinates></Point></Placemark><Placemark><name>2 - 110200 - 365 - Jd. Social / Batel (Sentido Jardim Social)/n372 - Tarumã (Sentido Bairro Alto)/n373 - Alto Tarumã (Sentido Bairro Alto)/n386 - Cajuru (Sentido Cajuru)/n389 - Madrugueiro Tarumã / Augusta (Sentido Bairro Alto)/n463 - Solitude (sentido Solitude)</name><description>ID: 305780&lt;br/&gt;Tipo: INTERMEDIÁRIO&lt;br/&gt;Distância: 0,306 km</description><Point><coordinates>-49.267909,-25.431968,0</coordinates></Point></Placemark><Placemark><name>3 - 110402 - 365 - Jd. Social / Batel (Sentido Jardim Social)/n372 - Tarumã (Sentido Bairro Alto)/n373 - Alto Tarumã (Sentido Bairro Alto)/n389 - Madrugueiro Tarumã / Augusta (Sentido Bairro Alto)</name><description>ID: 305781&lt;br/&gt;Tipo: INTERMEDIÁRIO&lt;br/&gt;Distância: 0,561 km</description><Point><coordinates>-49.265317,-25.430942,0</coordinates></Point></Placemark><Placemark><name>4 - 110077 - 372 - Tarumã (Sentido Bairro Alto)/n373 - Alto Tarumã (Sentido Bairro Alto)</name><description>ID: 305782&lt;br/&gt;Tipo: INTERMEDIÁRIO&lt;br/&gt;Distância: 0,940 km</description><Point><coordinates>-49.261842,-25.429388,0</coordinates></Point></Placemark><Placemark><name>5 - 110078 - 372 - Tarumã (Sentido Bairro Alto)/n373 - Alto Tarumã (Sentido Bairro Alto)/n389 - Madrugueiro Tarumã / Augusta (Sentido Bairro Alto)</name><description>ID: 305783&lt;br/&gt;Tipo: INTERMEDIÁRIO&lt;br/&gt;Distância: 1,243 km</description><Point><coordinates>-49.259401,-25.428392,0</coordinates></Point></Placemark><Placemark><name>6 - 130902 - 372 - Tarumã (Sentido Bairro Alto)/n373 - Alto Tarumã (Sentido Bairro Alto)/n389 - Madrugueiro Tarumã / Augusta (Sentido Bairro Alto)</name><description>ID: 305784&lt;br/&gt;Tipo: INTERMEDIÁRIO&lt;br/&gt;Distância: 1,594 km</description><Point><coordinates>-49.256165,-25.427524,0</coordinates></Point></Placemark><Placemark><name>7 - 130371 - 371 - Higienópolis (Sentido Terminal Bairro Alto)/n372 - Tarumã (Sentido Terminal Bairro Alto)/n373 - Alto Tarumã (Sentido Bairro Alto)/n375 - Sagrado Coração (Sentido Terminal Bairro Alto)/n380 - Detran / Vicente Machado (Sentido Detran)/n389 - Madrugueiro Tarumã / Augusta (Sentido Terminal Bairro Alto)/n393 - C. Imbuia / Parque Barigui (sentido C. Imbuia)</name><description>ID: 305785&lt;br/&gt;Tipo: INTERMEDIÁRIO&lt;br/&gt;Distância: 1,837 km</description><Point><coordinates>-49.254790,-25.427320,0</coordinates></Point></Placemark><Placemark><name>8 - 130372 - 371 - Higienópolis (Sentido Terminal Bairro Alto)/n372 - Tarumã (Sentido Terminal Bairro Alto)/n373 - Alto Tarumã (Sentido Terminal Bairro Alto)/n375 - Sagrado Coração (Sentido Terminal Bairro Alto)/n380 - Detran / Vicente Machado (Sentido Detran)/n389 - Madrugueiro Tarumã / Augusta (Sentido Terminal Bairro Alto)</name><description>ID: 305786&lt;br/&gt;Tipo: INTERMEDIÁRIO&lt;br/&gt;Distância: 2,066 km</description><Point><coordinates>-49.252034,-25.427576,0</coordinates></Point></Placemark><Placemark><name>9 - 130373 - 371 - Higienópolis (Sentido Terminal Bairro Alto)/n372 - Tarumã (Sentido Terminal Bairro Alto)/n373 - Alto Tarumã (Sentido Terminal Bairro Alto)/n375 - Sagrado Coração/n380 - Detran / Vic. Machado/n389 - Madrugueiro Tarumã / Augusta (Sentido Terminal Bairro Alto)/n393 - C. Imbuia / Parque Barigui (sentido Terminal C. Imbuia)</name><description>ID: 305787&lt;br/&gt;Tipo: INTERMEDIÁRIO&lt;br/&gt;Distância: 2,376 km</description><Point><coordinates>-49.249283,-25.427823,0</coordinates></Point></Placemark><Placemark><name>10 - 130333 - 389 - Madrugueiro Tarumã / Augusta (Sentido Bairro Alto)</name><description>ID: 305788&lt;br/&gt;Tipo: INTERMEDIÁRIO&lt;br/&gt;Distância: 2,501 km</description><Point><coordinates>-49.248138,-25.427916,0</coordinates></Point></Placemark><Placemark><name>11 - 130374 - 371 - Higienópolis (Sentido Terminal Bairro Alto)/n372 - Tarumã (Sentido Terminal  Bairro Alto)/n373 - Alto Tarumã (Sentido Terminal Bairro Alto)/n375 - Sagrado Coração (Sentido Terminal Bairro Alto)/n380 - Detran / Vicente Machado (Sentido Detran)/n389 - Madrugueiro Tarumã / Augusta (Sentido Bairro Alto)/n393 - C. Imbuia / Parque Barigui (sentido Terminal C. Imbuia)</name><description>ID: 305789&lt;br/&gt;Tipo: INTERMEDIÁRIO&lt;br/&gt;Distância: 2,727 km</description><Point><coordinates>-49.245190,-25.428147,0</coordinates></Point></Placemark><Placemark><name>12 - 130375 - 020 - Interbairros II (Horário - Sentido Capão da Imbuia)/n372 - Tarumã (Sentido Bairro Alto)/n373 - Alto Tarumã (Sentido Bairro Alto)/n375 - Sagrado Coração/n378 - Inter-Hospitais (Sentido Tarumã)/n380 - Detran / V. Machado (Sentido Detran)/n389 - Madrugueiro Tarumã / Augusta (Sentido Bairro Alto)/n393 - C. Imbuia / Parque Barigui (Sentido C. Imbuia)</name><description>ID: 305790&lt;br/&gt;Tipo: INTERMEDIÁRIO&lt;br/&gt;Distância: 3,567 km</description><Point><coordinates>-49.237301,-25.427748,0</coordinates></Point></Placemark><Placemark><name>13 - 130203 - 020 - Interbairros II (Horário - Sentido Capão da Imbuia)/n372 - Tarumã (Sentido Bairro Alto)/n373 - Alto Tarumã (Sentido Bairro Alto)/n375 - Sagrado Coração (Sentido Bairro Alto)/n378 - Inter-Hospitais (Sentido Tarumã)/n380 - Detran / V. Machado (Sentido Detran)/n389 - Madrugueiro Tarumã / Augusta (Sentido Bairro Alto)/n393 - C. Imbuia / Parque Barigui (Sentido C. Imbuia)</name><description>ID: 305791&lt;br/&gt;Tipo: INTERMEDIÁRIO&lt;br/&gt;Distância: 3,933 km</description><Point><coordinates>-49.234032,-25.428080,0</coordinates></Point></Placemark><Placemark><name>14 - 130207 - 020 - Interbairros II (Horário - Sentido Capão da Imbuia)/n372 - Tarumã (Sentido Bairro Alto)/n373 - Alto Tarumã (Sentido Bairro Alto)/n375 - Sagrado Coração (Sentido Bairro Alto)/n378 - Inter-Hospitais (Sentido Tarumã)/n380 - Detran / V. Machado (Sentido Detran)/n389 - Madrugueiro Tarumã / Augusta (Sentido Bairro Alto)/n393 - Capão da Imbuia / Parque Barigui (Sentido Capão da Imbuia)</name><description>ID: 305792&lt;br/&gt;Tipo: INTERMEDIÁRIO&lt;br/&gt;Distância: 4,259 km</description><Point><coordinates>-49.230623,-25.428446,0</coordinates></Point></Placemark><Placemark><name>15 - 130210 - 020 - Interbairros II (Horário - Sentido Capão da Imbuia)/n372 - Tarumã (Sentido Bairro Alto)/n373 - Alto Tarumã (Sentido Bairro Alto)/n375 - Sagrado Coração (Sentido Bairro Alto)/n378 - Inter-Hospitais (Sentido Tarumã)/n380 - Detran / V. Machado (Sentido Detran)/n389 - Madrugueiro Tarumã / Augusta (Sentido Bairro Alto)/n393 - C. Imbuia / Parque Barigui (Sentido C. Imbuia)</name><description>ID: 305793&lt;br/&gt;Tipo: INTERMEDIÁRIO&lt;br/&gt;Distância: 4,611 km</description><Point><coordinates>-49.227049,-25.428805,0</coordinates></Point></Placemark><Placemark><name>16 - 130212 - 020 - Interbairros II (Horário - Sentido Capão da Imbuia)/n372 - Tarumã (Sentido Bairro Alto)/n373 - Alto Tarumã (Sentido Bairro Alto)/n375 - Sagrado Coração (Sentido Bairro Alto)/n378 - Inter-Hospitais (Sentido Tarumã)/n380 - Detran / V. Machado (Sentido Detran)/n389 - Madrugueiro Tarumã / Augusta (Sentido Bairro Alto)/n393 - Capão da Imbuia / Parque Barigui (Sentido Capão da Imbuia)</name><description>ID: 305794&lt;br/&gt;Tipo: INTERMEDIÁRIO&lt;br/&gt;Distância: 4,890 km</description><Point><coordinates>-49.223837,-25.429205,0</coordinates></Point></Placemark><Placemark><name>17 - 130216 - 020 - Interbairros II (Horário - Sentido Capão da Imbuia)/n372 - Tarumã (Sentido Bairro Alto)/n373 - Alto Tarumã (Sentido Bairro Alto)/n375 - Sagrado Coração (Sentido Bairro Alto)/n378 - Inter-Hospitais (Sentido Tarumã)/n380 - Detran / V. Machado (Sentido Detran)/n389 - Madrugueiro Tarumã / Augusta (Sentido Bairro Alto)/n393 - C. Imbuia / Parque Barigui (Sentido C. Imbuia)</name><description>ID: 305795&lt;br/&gt;Tipo: INTERMEDIÁRIO&lt;br/&gt;Distância: 5,399 km</description><Point><coordinates>-49.218810,-25.429812,0</coordinates></Point></Placemark><Placemark><name>18 - 130218 - Av. Victor Ferreira do Amaral, 2422 - Capão da Imbuia</name><description>ID: 305796&lt;br/&gt;Tipo: INTERMEDIÁRIO&lt;br/&gt;Distância: 5,687 km</description><Point><coordinates>-49.216123,-25.430112,0</coordinates></Point></Placemark><Placemark><name>19 - 130340 - 373 - Alto Tarumã (Sentido Terminal Bairro Alto )/n375 - Sagrado Coração (Sentido Bairro Alto)/n378 - Inter-Hospitais (Sentido Tarumã)</name><description>ID: 305797&lt;br/&gt;Tipo: INTERMEDIÁRIO&lt;br/&gt;Distância: 6,197 km</description><Point><coordinates>-49.213640,-25.429564,0</coordinates></Point></Placemark><Placemark><name>20 - 130332 - 373 - Alto Tarumã (Sentido Terminal Bairro Alto)</name><description>ID: 305798&lt;br/&gt;Tipo: INTERMEDIÁRIO&lt;br/&gt;Distância: 6,457 km</description><Point><coordinates>-49.213725,-25.427707,0</coordinates></Point></Placemark><Placemark><name>21 - 130732 - 373 - Alto Tarumã (Sentido Bairro Alto)</name><description>ID: 305799&lt;br/&gt;Tipo: INTERMEDIÁRIO&lt;br/&gt;Distância: 6,897 km</description><Point><coordinates>-49.210274,-25.426612,0</coordinates></Point></Placemark><Placemark><name>22 - 130589 - 373 - Alto Tarumã (Sentido Terminal Bairro Alto)</name><description>ID: 305800&lt;br/&gt;Tipo: INTERMEDIÁRIO&lt;br/&gt;Distância: 7,389 km</description><Point><coordinates>-49.206188,-25.425167,0</coordinates></Point></Placemark><Placemark><name>23 - 130247 - R. Cel. Domingos Soares, 1754 - Bairro Alto</name><description>ID: 305801&lt;br/&gt;Tipo: INTERMEDIÁRIO&lt;br/&gt;Distância: 7,634 km</description><Point><coordinates>-49.204690,-25.427161,0</coordinates></Point></Placemark><Placemark><name>24 - 130245 - 030 - Interbairros III (Sentido Bairro Alto)/n372 - Tarumã (Sentido Bairro Alto)/n389 - Madrugueiro Tarumã / Augusta (Sentido Bairro Alto)</name><description>ID: 305802&lt;br/&gt;Tipo: INTERMEDIÁRIO&lt;br/&gt;Distância: 7,929 km</description><Point><coordinates>-49.202375,-25.426864,0</coordinates></Point></Placemark><Placemark><name>25 - 130242 - 030 - Interbairros III (Sentido Bairro Alto)/n372 - Tarumã (Sentido Bairro Alto)/n389 - Madrugueiro Tarumã / Augusta (Sentido Bairro Alto)</name><description>ID: 305803&lt;br/&gt;Tipo: INTERMEDIÁRIO&lt;br/&gt;Distância: 8,273 km</description><Point><coordinates>-49.203291,-25.424217,0</coordinates></Point></Placemark><Placemark><name>26 - 130241 - 030 - Interbairros III (Sentido Bairro Alto)/n372 - Tarumã (Sentido Bairro Alto)/n389 - Madrugueiro Tarumã / Augusta (Sentido Bairro Alto)</name><description>ID: 305804&lt;br/&gt;Tipo: INTERMEDIÁRIO&lt;br/&gt;Distância: 8,453 km</description><Point><coordinates>-49.201568,-25.423411,0</coordinates></Point></Placemark><Placemark><name>27 - 130377 - 372 - Tarumã (Sentido Terminal Bairro Alto)/n389 - Madrugueiro Tarumã / Augusta (Sentido Terminal Bairro Alto)</name><description>ID: 305805&lt;br/&gt;Tipo: INTERMEDIÁRIO&lt;br/&gt;Distância: 8,745 km</description><Point><coordinates>-49.199140,-25.422056,0</coordinates></Point></Placemark><Placemark><name>28 - 130378 - 372 - Tarumã (Sentido Terminal Bairro Alto)/n389 - Madrugueiro Tarumã / Augusta (Sentido Terminal Bairro Alto)</name><description>ID: 305806&lt;br/&gt;Tipo: INTERMEDIÁRIO&lt;br/&gt;Distância: 9,025 km</description><Point><coordinates>-49.200138,-25.419893,0</coordinates></Point></Placemark><Placemark><name>29 - 130380 - 372 - Tarumã (Sentido Terminal Bairro Alto)/n389 - Madrugueiro Tarumã / Augusta (Sentido Terminal Bairro Alto)</name><description>ID: 305807&lt;br/&gt;Tipo: INTERMEDIÁRIO&lt;br/&gt;Distância: 9,293 km</description><Point><coordinates>-49.201148,-25.417800,0</coordinates></Point></Placemark><Placemark><name>30 - 130383 - 372 - Tarumã (Sentido Terminal Bairro Alto)/n389 - Madrugueiro Tarumã / Augusta (Sentido Terminal Bairro Alto)</name><description>ID: 305808&lt;br/&gt;Tipo: INTERMEDIÁRIO&lt;br/&gt;Distância: 9,539 km</description><Point><coordinates>-49.202077,-25.415790,0</coordinates></Point></Placemark><Placemark><name>31 - 130384 - 229 - Mad. Penha / F. Noronha/n341 - Bairro Alto / Santa Cândida (Sentido Terminal Bairro Alto)/n372 - Tarumã (Sentido Terminal Bairro Alto)/n389 - Madrugueiro Tarumã / Augusta (Sentido Terminal Bairro Alto)</name><description>ID: 305809&lt;br/&gt;Tipo: INTERMEDIÁRIO&lt;br/&gt;Distância: 9,916 km</description><Point><coordinates>-49.203865,-25.413104,0</coordinates></Point></Placemark><Placemark><name>32 - 104003 - Terminal Bairro Alto -372 - Tarumã</name><description>ID: 305748&lt;br/&gt;Tipo: OBRIGATÓRIO&lt;br/&gt;Distância: 10,099 km</description><Point><coordinates>-49.205380,-25.413030,0</coordinates></Point></Placemark></Document></kml>