<?xml version='1.0' encoding='utf-8'?>
<gpx version="1.1" creator="Conversor" xmlns="http://www.topografix.com/GPX/1/1" xmlns:xsi="http://www.w3.org/2001/XMLSchema-instance" xsi:schemaLocation="http://www.topografix.com/GPX/1/1 http://www.topografix.com/GPX/1/1/gpx.xsd"><metadata><name>372-taruma-troncal-ida</name></metadata><trk><name>372-taruma-troncal-ida</name><trkseg><trkpt lat="-25.412986" lon="-49.205263" /><trkpt lat="-25.413146" lon="-49.205676" /><trkpt lat="-25.413167" lon="-49.205716" /><trkpt lat="-25.413187" lon="-49.205750" /><trkpt lat="-25.413219" lon="-49.205780" /><trkpt lat="-25.413274" lon="-49.205838" /><trkpt lat="-25.413362" lon="-49.205924" /><trkpt lat="-25.413844" lon="-49.205689" /><trkpt lat="-25.413597" lon="-49.205076" /><trkpt lat="-25.413418" lon="-49.204609" /><trkpt lat="-25.413175" lon="-49.203976" /><trkpt lat="-25.412986" lon="-49.203490" /><trkpt lat="-25.413358" lon="-49.203309" /><trkpt lat="-25.413681" lon="-49.203157" /><trkpt lat="-25.414018" lon="-49.202992" /><trkpt lat="-25.414391" lon="-49.202812" /><trkpt lat="-25.414771" lon="-49.202639" /><trkpt lat="-25.415080" lon="-49.202495" /><trkpt lat="-25.415409" lon="-49.202341" /><trkpt lat="-25.415586" lon="-49.202261" /><trkpt lat="-25.416008" lon="-49.202062" /><trkpt lat="-25.416414" lon="-49.201873" /><trkpt lat="-25.416749" lon="-49.201715" /><trkpt lat="-25.417028" lon="-49.201584" /><trkpt lat="-25.417712" lon="-49.201239" /><trkpt lat="-25.418006" lon="-49.201092" /><trkpt lat="-25.418363" lon="-49.200917" /><trkpt lat="-25.418760" lon="-49.200730" /><trkpt lat="-25.419076" lon="-49.200577" /><trkpt lat="-25.419443" lon="-49.200402" /><trkpt lat="-25.419709" lon="-49.200275" /><trkpt lat="-25.419886" lon="-49.200195" /><trkpt lat="-25.420156" lon="-49.200072" /><trkpt lat="-25.420428" lon="-49.199948" /><trkpt lat="-25.420814" lon="-49.199772" /><trkpt lat="-25.421039" lon="-49.199671" /><trkpt lat="-25.421222" lon="-49.199586" /><trkpt lat="-25.421410" lon="-49.199496" /><trkpt lat="-25.421751" lon="-49.199335" /><trkpt lat="-25.422071" lon="-49.199187" /><trkpt lat="-25.422338" lon="-49.199060" /><trkpt lat="-25.422634" lon="-49.199801" /><trkpt lat="-25.422777" lon="-49.200163" /><trkpt lat="-25.423010" lon="-49.200755" /><trkpt lat="-25.423181" lon="-49.201223" /><trkpt lat="-25.423410" lon="-49.201801" /><trkpt lat="-25.423620" lon="-49.202336" /><trkpt lat="-25.423874" lon="-49.202875" /><trkpt lat="-25.423995" lon="-49.203139" /><trkpt lat="-25.424104" lon="-49.203393" /><trkpt lat="-25.424471" lon="-49.203219" /><trkpt lat="-25.424593" lon="-49.203152" /><trkpt lat="-25.425118" lon="-49.202924" /><trkpt lat="-25.425383" lon="-49.202806" /><trkpt lat="-25.425724" lon="-49.202650" /><trkpt lat="-25.426097" lon="-49.202480" /><trkpt lat="-25.426413" lon="-49.202335" /><trkpt lat="-25.426585" lon="-49.202256" /><trkpt lat="-25.426697" lon="-49.202201" /><trkpt lat="-25.426794" lon="-49.202370" /><trkpt lat="-25.426978" lon="-49.202698" /><trkpt lat="-25.427183" lon="-49.203202" /><trkpt lat="-25.427382" lon="-49.203764" /><trkpt lat="-25.427458" lon="-49.203973" /><trkpt lat="-25.427584" lon="-49.204329" /><trkpt lat="-25.427556" lon="-49.204394" /><trkpt lat="-25.427552" lon="-49.204448" /><trkpt lat="-25.426269" lon="-49.204979" /><trkpt lat="-25.424925" lon="-49.205581" /><trkpt lat="-25.425341" lon="-49.206676" /><trkpt lat="-25.425567" lon="-49.207287" /><trkpt lat="-25.425752" lon="-49.207798" /><trkpt lat="-25.426215" lon="-49.209241" /><trkpt lat="-25.426541" lon="-49.210203" /><trkpt lat="-25.426725" lon="-49.210875" /><trkpt lat="-25.427029" lon="-49.211804" /><trkpt lat="-25.427306" lon="-49.212731" /><trkpt lat="-25.427901" lon="-49.214449" /><trkpt lat="-25.428821" lon="-49.214074" /><trkpt lat="-25.429510" lon="-49.213786" /><trkpt lat="-25.429766" lon="-49.213687" /><trkpt lat="-25.429876" lon="-49.213681" /><trkpt lat="-25.429988" lon="-49.213762" /><trkpt lat="-25.430016" lon="-49.213860" /><trkpt lat="-25.429804" lon="-49.215809" /><trkpt lat="-25.429754" lon="-49.216298" /><trkpt lat="-25.429702" lon="-49.216782" /><trkpt lat="-25.429640" lon="-49.217278" /><trkpt lat="-25.429494" lon="-49.218706" /><trkpt lat="-25.429377" lon="-49.219851" /><trkpt lat="-25.429301" lon="-49.220647" /><trkpt lat="-25.429266" lon="-49.220797" /><trkpt lat="-25.429211" lon="-49.221236" /><trkpt lat="-25.429104" lon="-49.222436" /><trkpt lat="-25.429033" lon="-49.222995" /><trkpt lat="-25.428984" lon="-49.223372" /><trkpt lat="-25.428955" lon="-49.223764" /><trkpt lat="-25.428918" lon="-49.224078" /><trkpt lat="-25.428863" lon="-49.224529" /><trkpt lat="-25.428801" lon="-49.225085" /><trkpt lat="-25.428760" lon="-49.225511" /><trkpt lat="-25.428711" lon="-49.225975" /><trkpt lat="-25.428660" lon="-49.226455" /><trkpt lat="-25.428608" lon="-49.226989" /><trkpt lat="-25.428613" lon="-49.227129" /><trkpt lat="-25.428610" lon="-49.227315" /><trkpt lat="-25.428549" lon="-49.227850" /><trkpt lat="-25.428512" lon="-49.228142" /><trkpt lat="-25.428491" lon="-49.228310" /><trkpt lat="-25.428429" lon="-49.229201" /><trkpt lat="-25.428336" lon="-49.229914" /><trkpt lat="-25.428295" lon="-49.230286" /><trkpt lat="-25.428231" lon="-49.230867" /><trkpt lat="-25.428169" lon="-49.231388" /><trkpt lat="-25.428119" lon="-49.231815" /><trkpt lat="-25.427998" lon="-49.232845" /><trkpt lat="-25.427966" lon="-49.233142" /><trkpt lat="-25.427940" lon="-49.233341" /><trkpt lat="-25.427880" lon="-49.233926" /><trkpt lat="-25.427803" lon="-49.234747" /><trkpt lat="-25.427743" lon="-49.235278" /><trkpt lat="-25.427674" lon="-49.235901" /><trkpt lat="-25.427627" lon="-49.236331" /><trkpt lat="-25.427578" lon="-49.236773" /><trkpt lat="-25.427460" lon="-49.237851" /><trkpt lat="-25.427440" lon="-49.237981" /><trkpt lat="-25.427401" lon="-49.238388" /><trkpt lat="-25.427296" lon="-49.239356" /><trkpt lat="-25.427292" lon="-49.239386" /><trkpt lat="-25.427281" lon="-49.239579" /><trkpt lat="-25.427290" lon="-49.239745" /><trkpt lat="-25.427330" lon="-49.239971" /><trkpt lat="-25.427540" lon="-49.240565" /><trkpt lat="-25.427605" lon="-49.240715" /><trkpt lat="-25.427657" lon="-49.240872" /><trkpt lat="-25.427681" lon="-49.241033" /><trkpt lat="-25.427692" lon="-49.241222" /><trkpt lat="-25.427680" lon="-49.241463" /><trkpt lat="-25.427656" lon="-49.241894" /><trkpt lat="-25.427635" lon="-49.242522" /><trkpt lat="-25.427606" lon="-49.243011" /><trkpt lat="-25.427588" lon="-49.243305" /><trkpt lat="-25.427562" lon="-49.243600" /><trkpt lat="-25.427501" lon="-49.244477" /><trkpt lat="-25.427480" lon="-49.244769" /><trkpt lat="-25.427438" lon="-49.245220" /><trkpt lat="-25.427393" lon="-49.245766" /><trkpt lat="-25.427334" lon="-49.246415" /><trkpt lat="-25.427283" lon="-49.247045" /><trkpt lat="-25.427259" lon="-49.247360" /><trkpt lat="-25.427234" lon="-49.247679" /><trkpt lat="-25.427155" lon="-49.248487" /><trkpt lat="-25.427124" lon="-49.248797" /><trkpt lat="-25.427116" lon="-49.248961" /><trkpt lat="-25.427088" lon="-49.249190" /><trkpt lat="-25.427057" lon="-49.249612" /><trkpt lat="-25.427010" lon="-49.250189" /><trkpt lat="-25.426974" lon="-49.250663" /><trkpt lat="-25.426940" lon="-49.251020" /><trkpt lat="-25.426894" lon="-49.251583" /><trkpt lat="-25.426863" lon="-49.252078" /><trkpt lat="-25.426818" lon="-49.252533" /><trkpt lat="-25.426770" lon="-49.253161" /><trkpt lat="-25.426718" lon="-49.253635" /><trkpt lat="-25.426617" lon="-49.254764" /><trkpt lat="-25.426586" lon="-49.255105" /><trkpt lat="-25.426532" lon="-49.255647" /><trkpt lat="-25.426519" lon="-49.255995" /><trkpt lat="-25.426501" lon="-49.256219" /><trkpt lat="-25.426438" lon="-49.256798" /><trkpt lat="-25.426403" lon="-49.257181" /><trkpt lat="-25.426375" lon="-49.257512" /><trkpt lat="-25.426320" lon="-49.258043" /><trkpt lat="-25.426279" lon="-49.258418" /><trkpt lat="-25.426248" lon="-49.258908" /><trkpt lat="-25.426269" lon="-49.259139" /><trkpt lat="-25.426318" lon="-49.259292" /><trkpt lat="-25.426494" lon="-49.259702" /><trkpt lat="-25.426743" lon="-49.260289" /><trkpt lat="-25.427118" lon="-49.261172" /><trkpt lat="-25.427227" lon="-49.261502" /><trkpt lat="-25.427499" lon="-49.262144" /><trkpt lat="-25.427637" lon="-49.262522" /><trkpt lat="-25.427762" lon="-49.262856" /><trkpt lat="-25.427919" lon="-49.263234" /><trkpt lat="-25.428061" lon="-49.263601" /><trkpt lat="-25.428093" lon="-49.263720" /><trkpt lat="-25.428154" lon="-49.263870" /><trkpt lat="-25.428306" lon="-49.264266" /><trkpt lat="-25.428342" lon="-49.264395" /><trkpt lat="-25.428469" lon="-49.264724" /><trkpt lat="-25.428627" lon="-49.265139" /><trkpt lat="-25.428790" lon="-49.265534" /><trkpt lat="-25.429112" lon="-49.266360" /><trkpt lat="-25.429237" lon="-49.266660" /><trkpt lat="-25.429414" lon="-49.267099" /><trkpt lat="-25.429899" lon="-49.266865" /><trkpt lat="-25.430196" lon="-49.266717" /><trkpt lat="-25.430330" lon="-49.267110" /><trkpt lat="-25.430482" lon="-49.267490" /><trkpt lat="-25.430773" lon="-49.268160" /><trkpt lat="-25.430897" lon="-49.268443" /><trkpt lat="-25.431055" lon="-49.268807" /><trkpt lat="-25.431544" lon="-49.270022" /><trkpt lat="-25.431699" lon="-49.270413" /><trkpt lat="-25.431859" lon="-49.270799" /><trkpt lat="-25.431983" lon="-49.271098" /><trkpt lat="-25.432097" lon="-49.271396" /><trkpt lat="-25.432268" lon="-49.271804" /><trkpt lat="-25.432442" lon="-49.272219" /><trkpt lat="-25.432700" lon="-49.272105" /><trkpt lat="-25.432978" lon="-49.271975" /><trkpt lat="-25.433361" lon="-49.271797" /><trkpt lat="-25.433296" lon="-49.271627" /><trkpt lat="-25.433048" lon="-49.270992" /><trkpt lat="-25.432867" lon="-49.270472" /></trkseg></trk><wpt lat="-25.413030" lon="-49.205380"><name>1 - 104003 - Terminal Bairro Alto -372 - Tarumã</name><desc>ID: 305748; Tipo: OBRIGATÓRIO; Distância: 0,000 km</desc></wpt><wpt lat="-25.413157" lon="-49.203719"><name>2 - 130385 - 341 - Bairro Alto / Santa Cândida (Sentido Terminal Santa Cândida)/n372 - Tarumã (Sentido Praça Carlos Gomes)</name><desc>ID: 305749; Tipo: INTERMEDIÁRIO; Distância: 0,322 km</desc></wpt><wpt lat="-25.415895" lon="-49.202182"><name>3 - 130382 - 372 - Tarumã (Sentido Praça Carlos Gomes)</name><desc>ID: 305750; Tipo: INTERMEDIÁRIO; Distância: 0,737 km</desc></wpt><wpt lat="-25.417893" lon="-49.201232"><name>4 - 130381 - 372 - Tarumã (Sentido Praça Carlos Gomes)</name><desc>ID: 305751; Tipo: INTERMEDIÁRIO; Distância: 0,976 km</desc></wpt><wpt lat="-25.419572" lon="-49.200454"><name>5 - 130379 - 372 - Tarumã (Sentido Praça Carlos Gomes)</name><desc>ID: 305752; Tipo: INTERMEDIÁRIO; Distância: 1,148 km</desc></wpt><wpt lat="-25.422172" lon="-49.199223"><name>6 - 130376 - 372 - Tarumã (Sentido Praça Carlos Gomes)</name><desc>ID: 305753; Tipo: INTERMEDIÁRIO; Distância: 1,460 km</desc></wpt><wpt lat="-25.423281" lon="-49.201611"><name>7 - 130240 - 030 - Interbairros III (Sentido Oficinas)/n372 - Tarumã (Sentido Praça Carlos Gomes)</name><desc>ID: 305754; Tipo: INTERMEDIÁRIO; Distância: 1,789 km</desc></wpt><wpt lat="-25.424526" lon="-49.203316"><name>8 - 130243 - 030 - Interbairros III (Sentido Oficinas)/n372 - Tarumã (Sentido Praça Carlos Gomes)</name><desc>ID: 305755; Tipo: INTERMEDIÁRIO; Distância: 2,009 km</desc></wpt><wpt lat="-25.426520" lon="-49.202379"><name>9 - 130244 - 030 - Interbairros III (Sentido Oficinas)/n372 - Tarumã (Sentido Praça Carlos Gomes)</name><desc>ID: 305756; Tipo: INTERMEDIÁRIO; Distância: 2,240 km</desc></wpt><wpt lat="-25.427127" lon="-49.204539"><name>10 - 131004 - R. Cel. Domingos Soares, 1753 - Bairro Alto</name><desc>ID: 305757; Tipo: INTERMEDIÁRIO; Distância: 2,518 km</desc></wpt><wpt lat="-25.424954" lon="-49.205914"><name>11 - 130331 - 373 - Alto Tarumã (Sentido Praça Carlos Gomes)</name><desc>ID: 305758; Tipo: INTERMEDIÁRIO; Distância: 2,831 km</desc></wpt><wpt lat="-25.426565" lon="-49.210532"><name>12 - 130590 - 373 - Alto Tarumã (Sentido Praça Carlos Gomes)</name><desc>ID: 305759; Tipo: INTERMEDIÁRIO; Distância: 3,327 km</desc></wpt><wpt lat="-25.427635" lon="-49.213817"><name>13 - 130588 - 373 - Alto Tarumã (Sentido Praça Carlos Gomes)</name><desc>ID: 305760; Tipo: INTERMEDIÁRIO; Distância: 3,778 km</desc></wpt><wpt lat="-25.429823" lon="-49.214814"><name>14 - 130217 - 021 - Interbairros II (Anti-Horário - Sentido Cabral)/n372 - Tarumã (Sentido Praça Carlos Gomes)/n375 - Sagrado Coração/n380 - Detran / V. Machado (Sentido Vicente Machado)</name><desc>ID: 305761; Tipo: INTERMEDIÁRIO; Distância: 4,034 km</desc></wpt><wpt lat="-25.429444" lon="-49.218204"><name>15 - 130215 - 021 - Interbairros II (Anti-Horário - Sentido Cabral)/n372 - Tarumã (Sentido Praça Carlos Gomes)/n373 - Alto Tarumã (Sentido Praça Carlos Gomes)/n375 - Sagrado Coração (Sentido Praça Santos Andrade)/n380 - Detran / V. Machado (Sentido Vicente Machado)/n393 - C. Imbuia / Parque Barigui (Sentido P. Barigui)</name><desc>ID: 305762; Tipo: INTERMEDIÁRIO; Distância: 4,522 km</desc></wpt><wpt lat="-25.428877" lon="-49.223639"><name>16 - 130211 - 021 - Interbairros II (Anti-Horário - Sentido Cabral)/n372 - Tarumã (Sentido Praça Carlos Gomes)/n373 - Alto Tarumã (Sentido Praça Carlos Gomes)/n375 - Sagrado Coração (Sentido Praça Santos Andrade)/n380 - Detran / V. Machado (Vicente Machado)/n393 - C. Imbuia / Parque Barigui (Sentido P. Barigui)</name><desc>ID: 305763; Tipo: INTERMEDIÁRIO; Distância: 5,030 km</desc></wpt><wpt lat="-25.428618" lon="-49.226473"><name>17 - 130029 - 021 - Interbairros II (Anti-Horário - Sentido Cabral)/n372 - Tarumã (Sentido Praça Carlos Gomes)/n373 - Alto Tarumã (Sentido Praça Carlos Gomes)/n375 - Sagrado Coração (Sentido Praça Santos Andrade)/n380 - Detran / V. Machado (Sentido Vicente Machado)/n393 - C. Imbuia / Parque Barigui (Sentido P. Barigui)</name><desc>ID: 305764; Tipo: INTERMEDIÁRIO; Distância: 5,299 km</desc></wpt><wpt lat="-25.428264" lon="-49.230169"><name>18 - 130208 - 021 - Interbairros II (Anti-Horário - Sentido Cabral)/n372 - Tarumã (Sentido Praça Carlos Gomes)/n373 - Alto Tarumã (Sentido Praça Carlos Gomes)/n375 - Sagrado Coração (Sentido Praça Santos Andrade)/n380 - Detran / V. Machado (Sentido Vicente Machado)/n389 - Madrugueiro Tarumã / Augusta (Sentido Vila Sandra)/n393 - C. Imbuia / Parque Barigui (Sentido Parque Barigui)</name><desc>ID: 305765; Tipo: INTERMEDIÁRIO; Distância: 5,682 km</desc></wpt><wpt lat="-25.427844" lon="-49.233682"><name>19 - 130869 - 020 - Interbairros II (Anti-Horário - Sentido Cabral)/n372 - Tarumã (Sentido Praça Carlos Gomes)/n373 - Alto Tarumã (Sentido Praça Carlos Gomes)/n375 - Sagrado Coração (Sentido Praça Santos Andrade)/n380 - Detran / Vicente Machado (Vicente Machado)/n389 - Madrugueiro Tarumã / Augusta (Sentido Vila Sandra)/n393 - Capão da Imbuia / Parque Barigui (Sentido Parque Barigui)</name><desc>ID: 305766; Tipo: INTERMEDIÁRIO; Distância: 6,048 km</desc></wpt><wpt lat="-25.427451" lon="-49.237645"><name>20 - 130200 - 021 - Interbairros II (Anti-Horário - Sentido Cabral)/n372 - Tarumã (Sentido Praça Carlos Gomes)/n373 - Alto Tarumã (Sentido Praça Carlos Gomes)/n375 - Sagrado Coração (Sentido Praça Santos Andrade)/n380 - Detran / V. Machado (Sentido Vicente Machado)/n389 - Madrugueiro Tarumã / Augusta (Sentido Vila Sandra)/n393 - C. Imbuia / Parque Barigui (Sentido Parque  Barigui)</name><desc>ID: 305767; Tipo: INTERMEDIÁRIO; Distância: 6,442 km</desc></wpt><wpt lat="-25.427490" lon="-49.244030"><name>21 - 130366 - 371 - Higienópolis (Sentido Praça Santos Andrade)/n372 - Tarumã (Sentido Praça Carlos Gomes)/n373 - Alto Tarumã (Sentido Praça Carlos Gomes)/n375 - Sagrado Coração (Sentido Praça Santos Andrade)/n378 - Inter Hospitais (Sentido Clínica de Fraturas XV)/n380 - Detran / Vicente Machado (Sentido Vicento Machado)/n389 - Madrugueiro Tarumã / Augusta (Sentido Vila Sandra)/n393 - C. Imbuia / Parque Barigui (sentido P. Barigui)</name><desc>ID: 305768; Tipo: INTERMEDIÁRIO; Distância: 7,022 km</desc></wpt><wpt lat="-25.427190" lon="-49.247474"><name>22 - 140200 - 371 - Higienópolis (Sentido Praça Santos Andrade)/n372 - Tarumã (Sentido Praça Carlos Gomes)/n373 - Alto Tarumã (Sentido Praça Carlos Gomes)/n375 - Sagrado Coração (Sentido Praça Santos Andrade)/n378 - Inter Hospitais (Sentido Clínica de Fraturas XV)/n380 - Detran / V. Machado (Vicente Machado)/n393 - C. Imbuia / Parque Barigui (sentido P. Barigui)/n594 - Menonitas (Sentido Centro)</name><desc>ID: 305769; Tipo: INTERMEDIÁRIO; Distância: 7,398 km</desc></wpt><wpt lat="-25.427020" lon="-49.249720"><name>23 - 130367 - 371 - Higienópolis (Sentido Praça Santos Andrade)/n372 - Tarumã (Sentido Praça Carlos Gomes)/n373 - Alto Tarumã (Sentido Praça Carlos Gomes)/n375 - Sagrado Coração (Sentido Praça Santos Andrade)/n378 - Inter Hospitais (Sentido Clínica de Fraturas XV)/n380 - Detran / Vicente Machado (Sentido Vicento Machado)/n389 - Madrugueiro Tarumã / Augusta (Sentido Vila Sandra)/n393 - C. Imbuia / Parque Barigui (sentido P. Barigui)</name><desc>ID: 305770; Tipo: INTERMEDIÁRIO; Distância: 7,623 km</desc></wpt><wpt lat="-25.426810" lon="-49.252320"><name>24 - 130368 - 371 - Higienópolis (Sentido Praça Santos Andrade)/n372 - Tarumã (Sentido Praça Carlos Gomes)/n373 - Alto Tarumã (Sentido Praça Carlos Gomes)/n375 - Sagrado Coração (Sentido Praça Santos Andrade)/n378 - Inter Hospitais (Clínica de Fraturas XV)/n380 - Detran / Vicente Machado (Sentido Vicento Machado)/n389 - Madrugueiro Tarumã / Augusta (Sentido Vila Sandra)/n393 - C. Imbuia / Parque Barigui (sentido P. Barigui)</name><desc>ID: 305771; Tipo: INTERMEDIÁRIO; Distância: 7,914 km</desc></wpt><wpt lat="-25.426640" lon="-49.254230"><name>25 - 130369 - 371 - Higienópolis (Sentido Praça Santos Andrade)/n372 - Tarumã (Sentido Praça Carlos Gomes)/n373 - Alto Tarumã (Sentido Praça Carlos Gomes)/n375 - Sagrado Coração (Sentido Praça Santos Andrade)/n380 - Detran / Vicente Machado (Sentido Vicento Machado)/n389 - Madrugueiro Tarumã / Augusta (Sentido Vila Sandra)/n393 - C. Imbuia / Parque Barigui (sentido P. Barigui)</name><desc>ID: 305772; Tipo: INTERMEDIÁRIO; Distância: 8,137 km</desc></wpt><wpt lat="-25.426442" lon="-49.256413"><name>26 - 110070 - 371 - Higienópolis (Sentido Praça Santos Andrade)/n372 - Tarumã (Sentido Praça Carlos Gomes)/n373 - Alto Tarumã (Sentido Praça Carlos Gomes)/n375 - Sagrado Coração (Sentido Praça Santos Andrade)/n380 - Detran / Vicente Machado (Sentido Vicento Machado)/n389 - Madrugueiro Tarumã / Augusta (Sentido Vila Sandra)/n393 - C. Imbuia / Parque Barigui (sentido P. Barigui)</name><desc>ID: 305773; Tipo: INTERMEDIÁRIO; Distância: 8,281 km</desc></wpt><wpt lat="-25.426263" lon="-49.258594"><name>27 - 110071 - 371 - Higienópolis (Sentido Praça Santos Andrade)/n372 - Tarumã (Sentido Praça Carlos Gomes)/n373 - Alto Tarumã (Sentido Praça Carlos Gomes)/n375 - Sagrado Coração (Sentido Praça Santos Andrade)/n380 - Detran / Vicente Machado (Sentido Vicento Machado)/n389 - Madrugueiro Tarumã / Augusta (Sentido Vila Sandra)/n393 - C. Imbuia / PQ. Barigui</name><desc>ID: 305774; Tipo: INTERMEDIÁRIO; Distância: 8,500 km</desc></wpt><wpt lat="-25.426957" lon="-49.260966"><name>28 - 110072 - 360 - Novena (sentido Praça Rui Barbosa)/n361 - Hugo Lange  (Sentido Praça Santos Andrade)/n365 - JD. Social / Batel/n371 - Higienópolis (Sentido Praça Santos Andrade)/n372 - Tarumã (Sentido Praça Carlos Gomes)/n373 - Alto Tarumã (Sentido Praça Carlos Gomes)/n374 - Hugo Lange (Sentido Praça Santos Andrade)/n375 - Sagrado Coração (Sentido Praça Santos Andrade)/n380 - Detran / Vicente Machado (Sentido Vicento Machado)/n389 - Madrugueiro Tarumã / Augusta (Sentido Vila Sandra)/n393 - C. Imbuia / Parq</name><desc>ID: 305775; Tipo: INTERMEDIÁRIO; Distância: 8,795 km</desc></wpt><wpt lat="-25.427820" lon="-49.263080"><name>29 - 110073 - 360 - Novena (sentido Praça Rui Barbosa)/n361 - Augusto Stresser  (Sentido Praça Santos Andrade)/n365 - JD. Social / Batel/n371 - Higienópolis (Sentido Praça Santos Andrade)/n372 - Tarumã (Sentido Praça Carlos Gomes)/n373 - Alto Tarumã (Sentido Praça Carlos Gomes)/n374 - Hugo Lange (Sentido Praça Santos Andrade) /n375 - Sagrado Coração (Sentido Praça Santos Andrade)/n380 - Detran / Vicente Machado (Sentido Vicento Machado)/n389 - Madrugueiro Tarumã / Augusta (Sentido Vila Sandra)/n393 - C. Imbuia</name><desc>ID: 305776; Tipo: INTERMEDIÁRIO; Distância: 9,018 km</desc></wpt><wpt lat="-25.430286" lon="-49.267224"><name>30 - 110003 - 150 - Canal da Música / Vista Alegre (Sentido Canal da Música)/n360 - Novena (Sentido Praça Rui Barbosa)/n365 - Jd. Social / Batel (Batel)/n366 - Itupava / Hosp. Militar (Sentido Hosp. Militar)/n372 - Tarumã (Sentido Praça Carlos Gomes)/n373 - Alto Tarumã (Sentido Praça Carlos Gomes)/n380 - Detran / V. Machado (Sentido V. Machado)/n385 - Cristo Rei (Sentido Rua Mal Floriano)/n386 - Cajuru (Sentido Praça Carlos Gomes)/n389 - Madrugueiro Tarumã / Augusta (Sentido Vila Sandra)/n393 - C. Imbuia / Par</name><desc>ID: 305777; Tipo: INTERMEDIÁRIO; Distância: 9,572 km</desc></wpt><wpt lat="-25.431247" lon="-49.269576"><name>31 - 110004 - 150 - Canal da Música / Vista Alegre (Sentido Canal da Música)/n360 - Novena (sentido Praça Rui Barbosa)/n365 - Jd. Social / Batel (Batel)/n366 - Itupava / Hosp. Militar (Sentido Hosp. Militar)/n372 - Tarumã (Sentido Praça Carlos Gomes)/n373 - Alto Tarumã (Sentido Praça Carlos Gomes)/n380 - Detran / V. Machado (Sentido V. Machado)/n385 - Cristo Rei (Sentido Rua Mal Floriano)/n386 - Cajuru (Sentido Praça Carlos Gomes)/n389 - Madrugueiro Tarumã / Augusta (Sentido Vila Sandra)/n393 - C. Imbuia / Par</name><desc>ID: 305778; Tipo: INTERMEDIÁRIO; Distância: 9,891 km</desc></wpt><wpt lat="-25.432935" lon="-49.270525"><name>32 - 103203 - Praça Carlos Gomes/n372 - Tarumã /n389 - Madrugueiro Tarumã / Augusta (Sentido Bairro Alto).</name><desc>ID: 305779; Tipo: OBRIGATÓRIO; Distância: 10,381 km</desc></wpt></gpx>