<?xml version='1.0' encoding='utf-8'?>
<gpx version="1.1" creator="Conversor" xmlns="http://www.topografix.com/GPX/1/1" xmlns:xsi="http://www.w3.org/2001/XMLSchema-instance" xsi:schemaLocation="http://www.topografix.com/GPX/1/1 http://www.topografix.com/GPX/1/1/gpx.xsd"><metadata><name>372-taruma-troncal-volta</name></metadata><trk><name>372-taruma-troncal-volta</name><trkseg><trkpt lat="-25.432913" lon="-49.270599" /><trkpt lat="-25.432816" lon="-49.270330" /><trkpt lat="-25.432732" lon="-49.270091" /><trkpt lat="-25.432414" lon="-49.269214" /><trkpt lat="-25.432088" lon="-49.268312" /><trkpt lat="-25.431858" lon="-49.267757" /><trkpt lat="-25.431669" lon="-49.267307" /><trkpt lat="-25.431508" lon="-49.266891" /><trkpt lat="-25.431206" lon="-49.266117" /><trkpt lat="-25.430934" lon="-49.265406" /><trkpt lat="-25.430664" lon="-49.264707" /><trkpt lat="-25.430526" lon="-49.264768" /><trkpt lat="-25.430401" lon="-49.264477" /><trkpt lat="-25.430280" lon="-49.264208" /><trkpt lat="-25.430064" lon="-49.263718" /><trkpt lat="-25.429924" lon="-49.263310" /><trkpt lat="-25.429751" lon="-49.262948" /><trkpt lat="-25.429695" lon="-49.262831" /><trkpt lat="-25.429596" lon="-49.262594" /><trkpt lat="-25.429413" lon="-49.262153" /><trkpt lat="-25.429094" lon="-49.261353" /><trkpt lat="-25.428891" lon="-49.260834" /><trkpt lat="-25.428715" lon="-49.260377" /><trkpt lat="-25.428552" lon="-49.259971" /><trkpt lat="-25.428304" lon="-49.259355" /><trkpt lat="-25.428179" lon="-49.259045" /><trkpt lat="-25.427942" lon="-49.258553" /><trkpt lat="-25.427912" lon="-49.258461" /><trkpt lat="-25.427901" lon="-49.258412" /><trkpt lat="-25.427900" lon="-49.258325" /><trkpt lat="-25.427958" lon="-49.257539" /><trkpt lat="-25.428006" lon="-49.256970" /><trkpt lat="-25.428038" lon="-49.256570" /><trkpt lat="-25.428060" lon="-49.256321" /><trkpt lat="-25.427825" lon="-49.256295" /><trkpt lat="-25.427706" lon="-49.256282" /><trkpt lat="-25.427133" lon="-49.256173" /><trkpt lat="-25.427173" lon="-49.255734" /><trkpt lat="-25.427204" lon="-49.255175" /><trkpt lat="-25.427286" lon="-49.254388" /><trkpt lat="-25.427354" lon="-49.253691" /><trkpt lat="-25.427392" lon="-49.253293" /><trkpt lat="-25.427426" lon="-49.252922" /><trkpt lat="-25.427446" lon="-49.252719" /><trkpt lat="-25.427468" lon="-49.252470" /><trkpt lat="-25.427504" lon="-49.252094" /><trkpt lat="-25.427670" lon="-49.250254" /><trkpt lat="-25.427718" lon="-49.249624" /><trkpt lat="-25.427769" lon="-49.249000" /><trkpt lat="-25.427773" lon="-49.248866" /><trkpt lat="-25.427798" lon="-49.248647" /><trkpt lat="-25.427882" lon="-49.247754" /><trkpt lat="-25.427907" lon="-49.247374" /><trkpt lat="-25.427955" lon="-49.246712" /><trkpt lat="-25.427973" lon="-49.246482" /><trkpt lat="-25.427982" lon="-49.246262" /><trkpt lat="-25.428018" lon="-49.245852" /><trkpt lat="-25.428051" lon="-49.245494" /><trkpt lat="-25.428105" lon="-49.244823" /><trkpt lat="-25.428132" lon="-49.244476" /><trkpt lat="-25.428180" lon="-49.243917" /><trkpt lat="-25.428201" lon="-49.243650" /><trkpt lat="-25.428256" lon="-49.243056" /><trkpt lat="-25.428270" lon="-49.242822" /><trkpt lat="-25.428265" lon="-49.242712" /><trkpt lat="-25.428252" lon="-49.242656" /><trkpt lat="-25.428234" lon="-49.242590" /><trkpt lat="-25.428201" lon="-49.242519" /><trkpt lat="-25.428106" lon="-49.242410" /><trkpt lat="-25.427913" lon="-49.242234" /><trkpt lat="-25.427839" lon="-49.242151" /><trkpt lat="-25.427786" lon="-49.242066" /><trkpt lat="-25.427757" lon="-49.241990" /><trkpt lat="-25.427740" lon="-49.241927" /><trkpt lat="-25.427746" lon="-49.241714" /><trkpt lat="-25.427772" lon="-49.241447" /><trkpt lat="-25.427786" lon="-49.241199" /><trkpt lat="-25.427787" lon="-49.240993" /><trkpt lat="-25.427748" lon="-49.240815" /><trkpt lat="-25.427697" lon="-49.240649" /><trkpt lat="-25.427628" lon="-49.240508" /><trkpt lat="-25.427521" lon="-49.240243" /><trkpt lat="-25.427463" lon="-49.240075" /><trkpt lat="-25.427425" lon="-49.239946" /><trkpt lat="-25.427394" lon="-49.239758" /><trkpt lat="-25.427393" lon="-49.239617" /><trkpt lat="-25.427399" lon="-49.239473" /><trkpt lat="-25.427498" lon="-49.238505" /><trkpt lat="-25.427566" lon="-49.238055" /><trkpt lat="-25.427597" lon="-49.237750" /><trkpt lat="-25.427645" lon="-49.237276" /><trkpt lat="-25.427678" lon="-49.236936" /><trkpt lat="-25.427702" lon="-49.236677" /><trkpt lat="-25.427755" lon="-49.236246" /><trkpt lat="-25.427823" lon="-49.235635" /><trkpt lat="-25.427863" lon="-49.235276" /><trkpt lat="-25.427919" lon="-49.234730" /><trkpt lat="-25.428012" lon="-49.233625" /><trkpt lat="-25.428044" lon="-49.233325" /><trkpt lat="-25.428083" lon="-49.233093" /><trkpt lat="-25.428102" lon="-49.232941" /><trkpt lat="-25.428140" lon="-49.232618" /><trkpt lat="-25.428216" lon="-49.231997" /><trkpt lat="-25.428304" lon="-49.231269" /><trkpt lat="-25.428349" lon="-49.230931" /><trkpt lat="-25.428410" lon="-49.230364" /><trkpt lat="-25.428465" lon="-49.229895" /><trkpt lat="-25.428552" lon="-49.229209" /><trkpt lat="-25.428555" lon="-49.228864" /><trkpt lat="-25.428592" lon="-49.228564" /><trkpt lat="-25.428620" lon="-49.228339" /><trkpt lat="-25.428687" lon="-49.227605" /><trkpt lat="-25.428709" lon="-49.227318" /><trkpt lat="-25.428769" lon="-49.226841" /><trkpt lat="-25.428880" lon="-49.225837" /><trkpt lat="-25.428929" lon="-49.225431" /><trkpt lat="-25.428973" lon="-49.224933" /><trkpt lat="-25.429014" lon="-49.224456" /><trkpt lat="-25.429059" lon="-49.224061" /><trkpt lat="-25.429139" lon="-49.223307" /><trkpt lat="-25.429173" lon="-49.222970" /><trkpt lat="-25.429280" lon="-49.221967" /><trkpt lat="-25.429331" lon="-49.221604" /><trkpt lat="-25.429382" lon="-49.221350" /><trkpt lat="-25.429399" lon="-49.221125" /><trkpt lat="-25.429442" lon="-49.220875" /><trkpt lat="-25.429467" lon="-49.220671" /><trkpt lat="-25.429495" lon="-49.220512" /><trkpt lat="-25.429522" lon="-49.220213" /><trkpt lat="-25.429562" lon="-49.219797" /><trkpt lat="-25.429636" lon="-49.218990" /><trkpt lat="-25.429677" lon="-49.218553" /><trkpt lat="-25.429731" lon="-49.217958" /><trkpt lat="-25.429783" lon="-49.217438" /><trkpt lat="-25.429849" lon="-49.216778" /><trkpt lat="-25.429925" lon="-49.216117" /><trkpt lat="-25.430012" lon="-49.215385" /><trkpt lat="-25.430896" lon="-49.215811" /><trkpt lat="-25.431034" lon="-49.214818" /><trkpt lat="-25.431193" lon="-49.213849" /><trkpt lat="-25.430451" lon="-49.213476" /><trkpt lat="-25.430319" lon="-49.213473" /><trkpt lat="-25.430073" lon="-49.213464" /><trkpt lat="-25.428995" lon="-49.213888" /><trkpt lat="-25.427863" lon="-49.214330" /><trkpt lat="-25.427187" lon="-49.212300" /><trkpt lat="-25.426823" lon="-49.211177" /><trkpt lat="-25.426689" lon="-49.210782" /><trkpt lat="-25.426537" lon="-49.210184" /><trkpt lat="-25.426078" lon="-49.208833" /><trkpt lat="-25.425909" lon="-49.208309" /><trkpt lat="-25.425763" lon="-49.207854" /><trkpt lat="-25.425613" lon="-49.207429" /><trkpt lat="-25.425466" lon="-49.207010" /><trkpt lat="-25.424924" lon="-49.205585" /><trkpt lat="-25.426255" lon="-49.204978" /><trkpt lat="-25.426980" lon="-49.204690" /><trkpt lat="-25.427522" lon="-49.204467" /><trkpt lat="-25.427572" lon="-49.204473" /><trkpt lat="-25.427615" lon="-49.204499" /><trkpt lat="-25.427666" lon="-49.204465" /><trkpt lat="-25.427675" lon="-49.204396" /><trkpt lat="-25.427587" lon="-49.204350" /><trkpt lat="-25.427559" lon="-49.204273" /><trkpt lat="-25.427442" lon="-49.203928" /><trkpt lat="-25.427182" lon="-49.203202" /><trkpt lat="-25.427067" lon="-49.202917" /><trkpt lat="-25.426969" lon="-49.202677" /><trkpt lat="-25.426881" lon="-49.202522" /><trkpt lat="-25.426702" lon="-49.202204" /><trkpt lat="-25.425864" lon="-49.202587" /><trkpt lat="-25.425525" lon="-49.202740" /><trkpt lat="-25.425218" lon="-49.202879" /><trkpt lat="-25.425018" lon="-49.202965" /><trkpt lat="-25.424596" lon="-49.203150" /><trkpt lat="-25.424459" lon="-49.203225" /><trkpt lat="-25.424103" lon="-49.203392" /><trkpt lat="-25.424004" lon="-49.203157" /><trkpt lat="-25.423901" lon="-49.202935" /><trkpt lat="-25.423618" lon="-49.202333" /><trkpt lat="-25.423400" lon="-49.201774" /><trkpt lat="-25.423179" lon="-49.201218" /><trkpt lat="-25.423012" lon="-49.200757" /><trkpt lat="-25.422883" lon="-49.200427" /><trkpt lat="-25.422772" lon="-49.200148" /><trkpt lat="-25.422592" lon="-49.199692" /><trkpt lat="-25.422487" lon="-49.199429" /><trkpt lat="-25.422412" lon="-49.199239" /><trkpt lat="-25.422338" lon="-49.199059" /><trkpt lat="-25.421686" lon="-49.199368" /><trkpt lat="-25.421305" lon="-49.199545" /><trkpt lat="-25.421027" lon="-49.199676" /><trkpt lat="-25.420685" lon="-49.199831" /><trkpt lat="-25.420358" lon="-49.199979" /><trkpt lat="-25.419991" lon="-49.200146" /><trkpt lat="-25.419683" lon="-49.200285" /><trkpt lat="-25.419382" lon="-49.200431" /><trkpt lat="-25.418575" lon="-49.200818" /><trkpt lat="-25.418310" lon="-49.200944" /><trkpt lat="-25.418049" lon="-49.201073" /><trkpt lat="-25.417748" lon="-49.201222" /><trkpt lat="-25.417340" lon="-49.201427" /><trkpt lat="-25.417025" lon="-49.201586" /><trkpt lat="-25.416627" lon="-49.201774" /><trkpt lat="-25.416419" lon="-49.201872" /><trkpt lat="-25.416064" lon="-49.202037" /><trkpt lat="-25.415692" lon="-49.202210" /><trkpt lat="-25.415402" lon="-49.202345" /><trkpt lat="-25.414703" lon="-49.202667" /><trkpt lat="-25.414373" lon="-49.202821" /><trkpt lat="-25.413690" lon="-49.203151" /><trkpt lat="-25.413502" lon="-49.203242" /><trkpt lat="-25.412986" lon="-49.203490" /><trkpt lat="-25.413181" lon="-49.203993" /><trkpt lat="-25.413410" lon="-49.204588" /><trkpt lat="-25.413132" lon="-49.204716" /><trkpt lat="-25.412957" lon="-49.204796" /><trkpt lat="-25.412830" lon="-49.204857" /><trkpt lat="-25.412926" lon="-49.205107" /><trkpt lat="-25.413009" lon="-49.205325" /></trkseg></trk><wpt lat="-25.432935" lon="-49.270525"><name>1 - 103203 - Praça Carlos Gomes/n372 - Tarumã /n389 - Madrugueiro Tarumã / Augusta (Sentido Bairro Alto).</name><desc>ID: 305779; Tipo: OBRIGATÓRIO; Distância: 0,000 km</desc></wpt><wpt lat="-25.431968" lon="-49.267909"><name>2 - 110200 - 365 - Jd. Social / Batel (Sentido Jardim Social)/n372 - Tarumã (Sentido Bairro Alto)/n373 - Alto Tarumã (Sentido Bairro Alto)/n386 - Cajuru (Sentido Cajuru)/n389 - Madrugueiro Tarumã / Augusta (Sentido Bairro Alto)/n463 - Solitude (sentido Solitude)</name><desc>ID: 305780; Tipo: INTERMEDIÁRIO; Distância: 0,306 km</desc></wpt><wpt lat="-25.430942" lon="-49.265317"><name>3 - 110402 - 365 - Jd. Social / Batel (Sentido Jardim Social)/n372 - Tarumã (Sentido Bairro Alto)/n373 - Alto Tarumã (Sentido Bairro Alto)/n389 - Madrugueiro Tarumã / Augusta (Sentido Bairro Alto)</name><desc>ID: 305781; Tipo: INTERMEDIÁRIO; Distância: 0,561 km</desc></wpt><wpt lat="-25.429388" lon="-49.261842"><name>4 - 110077 - 372 - Tarumã (Sentido Bairro Alto)/n373 - Alto Tarumã (Sentido Bairro Alto)</name><desc>ID: 305782; Tipo: INTERMEDIÁRIO; Distância: 0,940 km</desc></wpt><wpt lat="-25.428392" lon="-49.259401"><name>5 - 110078 - 372 - Tarumã (Sentido Bairro Alto)/n373 - Alto Tarumã (Sentido Bairro Alto)/n389 - Madrugueiro Tarumã / Augusta (Sentido Bairro Alto)</name><desc>ID: 305783; Tipo: INTERMEDIÁRIO; Distância: 1,243 km</desc></wpt><wpt lat="-25.427524" lon="-49.256165"><name>6 - 130902 - 372 - Tarumã (Sentido Bairro Alto)/n373 - Alto Tarumã (Sentido Bairro Alto)/n389 - Madrugueiro Tarumã / Augusta (Sentido Bairro Alto)</name><desc>ID: 305784; Tipo: INTERMEDIÁRIO; Distância: 1,594 km</desc></wpt><wpt lat="-25.427320" lon="-49.254790"><name>7 - 130371 - 371 - Higienópolis (Sentido Terminal Bairro Alto)/n372 - Tarumã (Sentido Terminal Bairro Alto)/n373 - Alto Tarumã (Sentido Bairro Alto)/n375 - Sagrado Coração (Sentido Terminal Bairro Alto)/n380 - Detran / Vicente Machado (Sentido Detran)/n389 - Madrugueiro Tarumã / Augusta (Sentido Terminal Bairro Alto)/n393 - C. Imbuia / Parque Barigui (sentido C. Imbuia)</name><desc>ID: 305785; Tipo: INTERMEDIÁRIO; Distância: 1,837 km</desc></wpt><wpt lat="-25.427576" lon="-49.252034"><name>8 - 130372 - 371 - Higienópolis (Sentido Terminal Bairro Alto)/n372 - Tarumã (Sentido Terminal Bairro Alto)/n373 - Alto Tarumã (Sentido Terminal Bairro Alto)/n375 - Sagrado Coração (Sentido Terminal Bairro Alto)/n380 - Detran / Vicente Machado (Sentido Detran)/n389 - Madrugueiro Tarumã / Augusta (Sentido Terminal Bairro Alto)</name><desc>ID: 305786; Tipo: INTERMEDIÁRIO; Distância: 2,066 km</desc></wpt><wpt lat="-25.427823" lon="-49.249283"><name>9 - 130373 - 371 - Higienópolis (Sentido Terminal Bairro Alto)/n372 - Tarumã (Sentido Terminal Bairro Alto)/n373 - Alto Tarumã (Sentido Terminal Bairro Alto)/n375 - Sagrado Coração/n380 - Detran / Vic. Machado/n389 - Madrugueiro Tarumã / Augusta (Sentido Terminal Bairro Alto)/n393 - C. Imbuia / Parque Barigui (sentido Terminal C. Imbuia)</name><desc>ID: 305787; Tipo: INTERMEDIÁRIO; Distância: 2,376 km</desc></wpt><wpt lat="-25.427916" lon="-49.248138"><name>10 - 130333 - 389 - Madrugueiro Tarumã / Augusta (Sentido Bairro Alto)</name><desc>ID: 305788; Tipo: INTERMEDIÁRIO; Distância: 2,501 km</desc></wpt><wpt lat="-25.428147" lon="-49.245190"><name>11 - 130374 - 371 - Higienópolis (Sentido Terminal Bairro Alto)/n372 - Tarumã (Sentido Terminal  Bairro Alto)/n373 - Alto Tarumã (Sentido Terminal Bairro Alto)/n375 - Sagrado Coração (Sentido Terminal Bairro Alto)/n380 - Detran / Vicente Machado (Sentido Detran)/n389 - Madrugueiro Tarumã / Augusta (Sentido Bairro Alto)/n393 - C. Imbuia / Parque Barigui (sentido Terminal C. Imbuia)</name><desc>ID: 305789; Tipo: INTERMEDIÁRIO; Distância: 2,727 km</desc></wpt><wpt lat="-25.427748" lon="-49.237301"><name>12 - 130375 - 020 - Interbairros II (Horário - Sentido Capão da Imbuia)/n372 - Tarumã (Sentido Bairro Alto)/n373 - Alto Tarumã (Sentido Bairro Alto)/n375 - Sagrado Coração/n378 - Inter-Hospitais (Sentido Tarumã)/n380 - Detran / V. Machado (Sentido Detran)/n389 - Madrugueiro Tarumã / Augusta (Sentido Bairro Alto)/n393 - C. Imbuia / Parque Barigui (Sentido C. Imbuia)</name><desc>ID: 305790; Tipo: INTERMEDIÁRIO; Distância: 3,567 km</desc></wpt><wpt lat="-25.428080" lon="-49.234032"><name>13 - 130203 - 020 - Interbairros II (Horário - Sentido Capão da Imbuia)/n372 - Tarumã (Sentido Bairro Alto)/n373 - Alto Tarumã (Sentido Bairro Alto)/n375 - Sagrado Coração (Sentido Bairro Alto)/n378 - Inter-Hospitais (Sentido Tarumã)/n380 - Detran / V. Machado (Sentido Detran)/n389 - Madrugueiro Tarumã / Augusta (Sentido Bairro Alto)/n393 - C. Imbuia / Parque Barigui (Sentido C. Imbuia)</name><desc>ID: 305791; Tipo: INTERMEDIÁRIO; Distância: 3,933 km</desc></wpt><wpt lat="-25.428446" lon="-49.230623"><name>14 - 130207 - 020 - Interbairros II (Horário - Sentido Capão da Imbuia)/n372 - Tarumã (Sentido Bairro Alto)/n373 - Alto Tarumã (Sentido Bairro Alto)/n375 - Sagrado Coração (Sentido Bairro Alto)/n378 - Inter-Hospitais (Sentido Tarumã)/n380 - Detran / V. Machado (Sentido Detran)/n389 - Madrugueiro Tarumã / Augusta (Sentido Bairro Alto)/n393 - Capão da Imbuia / Parque Barigui (Sentido Capão da Imbuia)</name><desc>ID: 305792; Tipo: INTERMEDIÁRIO; Distância: 4,259 km</desc></wpt><wpt lat="-25.428805" lon="-49.227049"><name>15 - 130210 - 020 - Interbairros II (Horário - Sentido Capão da Imbuia)/n372 - Tarumã (Sentido Bairro Alto)/n373 - Alto Tarumã (Sentido Bairro Alto)/n375 - Sagrado Coração (Sentido Bairro Alto)/n378 - Inter-Hospitais (Sentido Tarumã)/n380 - Detran / V. Machado (Sentido Detran)/n389 - Madrugueiro Tarumã / Augusta (Sentido Bairro Alto)/n393 - C. Imbuia / Parque Barigui (Sentido C. Imbuia)</name><desc>ID: 305793; Tipo: INTERMEDIÁRIO; Distância: 4,611 km</desc></wpt><wpt lat="-25.429205" lon="-49.223837"><name>16 - 130212 - 020 - Interbairros II (Horário - Sentido Capão da Imbuia)/n372 - Tarumã (Sentido Bairro Alto)/n373 - Alto Tarumã (Sentido Bairro Alto)/n375 - Sagrado Coração (Sentido Bairro Alto)/n378 - Inter-Hospitais (Sentido Tarumã)/n380 - Detran / V. Machado (Sentido Detran)/n389 - Madrugueiro Tarumã / Augusta (Sentido Bairro Alto)/n393 - Capão da Imbuia / Parque Barigui (Sentido Capão da Imbuia)</name><desc>ID: 305794; Tipo: INTERMEDIÁRIO; Distância: 4,890 km</desc></wpt><wpt lat="-25.429812" lon="-49.218810"><name>17 - 130216 - 020 - Interbairros II (Horário - Sentido Capão da Imbuia)/n372 - Tarumã (Sentido Bairro Alto)/n373 - Alto Tarumã (Sentido Bairro Alto)/n375 - Sagrado Coração (Sentido Bairro Alto)/n378 - Inter-Hospitais (Sentido Tarumã)/n380 - Detran / V. Machado (Sentido Detran)/n389 - Madrugueiro Tarumã / Augusta (Sentido Bairro Alto)/n393 - C. Imbuia / Parque Barigui (Sentido C. Imbuia)</name><desc>ID: 305795; Tipo: INTERMEDIÁRIO; Distância: 5,399 km</desc></wpt><wpt lat="-25.430112" lon="-49.216123"><name>18 - 130218 - Av. Victor Ferreira do Amaral, 2422 - Capão da Imbuia</name><desc>ID: 305796; Tipo: INTERMEDIÁRIO; Distância: 5,687 km</desc></wpt><wpt lat="-25.429564" lon="-49.213640"><name>19 - 130340 - 373 - Alto Tarumã (Sentido Terminal Bairro Alto )/n375 - Sagrado Coração (Sentido Bairro Alto)/n378 - Inter-Hospitais (Sentido Tarumã)</name><desc>ID: 305797; Tipo: INTERMEDIÁRIO; Distância: 6,197 km</desc></wpt><wpt lat="-25.427707" lon="-49.213725"><name>20 - 130332 - 373 - Alto Tarumã (Sentido Terminal Bairro Alto)</name><desc>ID: 305798; Tipo: INTERMEDIÁRIO; Distância: 6,457 km</desc></wpt><wpt lat="-25.426612" lon="-49.210274"><name>21 - 130732 - 373 - Alto Tarumã (Sentido Bairro Alto)</name><desc>ID: 305799; Tipo: INTERMEDIÁRIO; Distância: 6,897 km</desc></wpt><wpt lat="-25.425167" lon="-49.206188"><name>22 - 130589 - 373 - Alto Tarumã (Sentido Terminal Bairro Alto)</name><desc>ID: 305800; Tipo: INTERMEDIÁRIO; Distância: 7,389 km</desc></wpt><wpt lat="-25.427161" lon="-49.204690"><name>23 - 130247 - R. Cel. Domingos Soares, 1754 - Bairro Alto</name><desc>ID: 305801; Tipo: INTERMEDIÁRIO; Distância: 7,634 km</desc></wpt><wpt lat="-25.426864" lon="-49.202375"><name>24 - 130245 - 030 - Interbairros III (Sentido Bairro Alto)/n372 - Tarumã (Sentido Bairro Alto)/n389 - Madrugueiro Tarumã / Augusta (Sentido Bairro Alto)</name><desc>ID: 305802; Tipo: INTERMEDIÁRIO; Distância: 7,929 km</desc></wpt><wpt lat="-25.424217" lon="-49.203291"><name>25 - 130242 - 030 - Interbairros III (Sentido Bairro Alto)/n372 - Tarumã (Sentido Bairro Alto)/n389 - Madrugueiro Tarumã / Augusta (Sentido Bairro Alto)</name><desc>ID: 305803; Tipo: INTERMEDIÁRIO; Distância: 8,273 km</desc></wpt><wpt lat="-25.423411" lon="-49.201568"><name>26 - 130241 - 030 - Interbairros III (Sentido Bairro Alto)/n372 - Tarumã (Sentido Bairro Alto)/n389 - Madrugueiro Tarumã / Augusta (Sentido Bairro Alto)</name><desc>ID: 305804; Tipo: INTERMEDIÁRIO; Distância: 8,453 km</desc></wpt><wpt lat="-25.422056" lon="-49.199140"><name>27 - 130377 - 372 - Tarumã (Sentido Terminal Bairro Alto)/n389 - Madrugueiro Tarumã / Augusta (Sentido Terminal Bairro Alto)</name><desc>ID: 305805; Tipo: INTERMEDIÁRIO; Distância: 8,745 km</desc></wpt><wpt lat="-25.419893" lon="-49.200138"><name>28 - 130378 - 372 - Tarumã (Sentido Terminal Bairro Alto)/n389 - Madrugueiro Tarumã / Augusta (Sentido Terminal Bairro Alto)</name><desc>ID: 305806; Tipo: INTERMEDIÁRIO; Distância: 9,025 km</desc></wpt><wpt lat="-25.417800" lon="-49.201148"><name>29 - 130380 - 372 - Tarumã (Sentido Terminal Bairro Alto)/n389 - Madrugueiro Tarumã / Augusta (Sentido Terminal Bairro Alto)</name><desc>ID: 305807; Tipo: INTERMEDIÁRIO; Distância: 9,293 km</desc></wpt><wpt lat="-25.415790" lon="-49.202077"><name>30 - 130383 - 372 - Tarumã (Sentido Terminal Bairro Alto)/n389 - Madrugueiro Tarumã / Augusta (Sentido Terminal Bairro Alto)</name><desc>ID: 305808; Tipo: INTERMEDIÁRIO; Distância: 9,539 km</desc></wpt><wpt lat="-25.413104" lon="-49.203865"><name>31 - 130384 - 229 - Mad. Penha / F. Noronha/n341 - Bairro Alto / Santa Cândida (Sentido Terminal Bairro Alto)/n372 - Tarumã (Sentido Terminal Bairro Alto)/n389 - Madrugueiro Tarumã / Augusta (Sentido Terminal Bairro Alto)</name><desc>ID: 305809; Tipo: INTERMEDIÁRIO; Distância: 9,916 km</desc></wpt><wpt lat="-25.413030" lon="-49.205380"><name>32 - 104003 - Terminal Bairro Alto -372 - Tarumã</name><desc>ID: 305748; Tipo: OBRIGATÓRIO; Distância: 10,099 km</desc></wpt></gpx>