<?xml version='1.0' encoding='utf-8'?>
<kml xmlns="http://www.opengis.net/kml/2.2"><Document><name>550-ligeirao-volta</name><Style id="trajeto"><LineStyle><color>ff0000ff</color><width>5</width></LineStyle></Style><Placemark><name>Trajeto</name><styleUrl>#trajeto</styleUrl><LineString><tessellate>1</tessellate><coordinates>-49.269230,-25.434010,0
-49.269370,-25.433750,0
-49.269490,-25.433480,0
-49.269820,-25.433620,0
-49.270180,-25.433750,0
-49.270580,-25.433890,0
-49.270250,-25.434580,0
-49.270090,-25.434890,0
-49.269920,-25.435270,0
-49.269670,-25.435790,0
-49.269410,-25.436300,0
-49.269180,-25.436790,0
-49.268950,-25.437270,0
-49.268770,-25.437640,0
-49.268640,-25.437900,0
-49.268470,-25.438220,0
-49.268390,-25.438380,0
-49.268230,-25.438710,0
-49.268130,-25.438920,0
-49.267940,-25.439310,0
-49.267720,-25.439770,0
-49.267640,-25.439940,0
-49.267540,-25.440140,0
-49.267420,-25.440410,0
-49.267250,-25.440740,0
-49.267090,-25.441080,0
-49.266990,-25.441270,0
-49.266910,-25.441430,0
-49.266760,-25.441760,0
-49.266660,-25.441960,0
-49.266530,-25.442210,0
-49.266420,-25.442440,0
-49.266320,-25.442640,0
-49.266220,-25.442820,0
-49.266130,-25.442930,0
-49.266030,-25.443110,0
-49.265940,-25.443290,0
-49.265870,-25.443490,0
-49.265790,-25.443680,0
-49.265660,-25.443930,0
-49.265590,-25.444060,0
-49.265480,-25.444220,0
-49.265410,-25.444370,0
-49.265280,-25.444630,0
-49.265090,-25.445030,0
-49.264900,-25.445410,0
-49.264800,-25.445610,0
-49.264620,-25.446000,0
-49.264420,-25.446430,0
-49.264240,-25.446820,0
-49.264130,-25.446970,0
-49.264000,-25.447300,0
-49.263880,-25.447540,0
-49.263720,-25.447830,0
-49.263580,-25.448060,0
-49.263500,-25.448210,0
-49.263380,-25.448450,0
-49.263270,-25.448690,0
-49.263140,-25.448990,0
-49.263000,-25.449290,0
-49.262810,-25.449670,0
-49.262670,-25.449960,0
-49.262520,-25.450270,0
-49.262390,-25.450550,0
-49.262250,-25.450880,0
-49.262160,-25.451080,0
-49.262070,-25.451340,0
-49.261980,-25.451530,0
-49.261880,-25.451720,0
-49.261750,-25.451940,0
-49.261610,-25.452200,0
-49.261420,-25.452590,0
-49.261310,-25.452820,0
-49.261220,-25.453020,0
-49.261100,-25.453270,0
-49.260990,-25.453500,0
-49.260810,-25.453870,0
-49.260710,-25.454080,0
-49.260640,-25.454270,0
-49.260520,-25.454520,0
-49.260340,-25.454870,0
-49.260250,-25.455010,0
-49.260160,-25.455160,0
-49.260000,-25.455500,0
-49.259820,-25.455890,0
-49.259520,-25.456520,0
-49.259330,-25.456890,0
-49.259180,-25.457220,0
-49.259010,-25.457530,0
-49.258910,-25.457740,0
-49.258800,-25.458060,0
-49.258640,-25.458370,0
-49.258560,-25.458510,0
-49.258490,-25.458630,0
-49.258370,-25.458840,0
-49.258180,-25.459210,0
-49.258100,-25.459410,0
-49.257980,-25.459660,0
-49.257810,-25.460020,0
-49.257630,-25.460370,0
-49.257470,-25.460710,0
-49.257310,-25.461040,0
-49.257130,-25.461390,0
-49.257030,-25.461610,0
-49.256940,-25.461800,0
-49.256780,-25.462140,0
-49.256670,-25.462330,0
-49.256610,-25.462490,0
-49.256540,-25.462670,0
-49.256360,-25.463030,0
-49.256260,-25.463270,0
-49.256180,-25.463420,0
-49.256090,-25.463550,0
-49.256020,-25.463650,0
-49.255900,-25.463890,0
-49.255730,-25.464260,0
-49.255640,-25.464430,0
-49.255520,-25.464670,0
-49.255400,-25.464900,0
-49.255290,-25.465130,0
-49.255080,-25.465580,0
-49.254990,-25.465760,0
-49.254850,-25.466020,0
-49.254820,-25.466060,0
-49.254790,-25.466110,0
-49.254710,-25.466210,0
-49.254670,-25.466280,0
-49.254640,-25.466330,0
-49.254620,-25.466380,0
-49.254610,-25.466430,0
-49.254600,-25.466450,0
-49.254530,-25.466600,0
-49.254480,-25.466680,0
-49.254380,-25.466900,0
-49.254350,-25.466940,0
-49.254280,-25.467000,0
-49.254190,-25.467060,0
-49.254130,-25.467120,0
-49.254080,-25.467160,0
-49.254000,-25.467250,0
-49.253950,-25.467310,0
-49.253790,-25.467500,0
-49.253690,-25.467640,0
-49.253480,-25.467900,0
-49.253400,-25.468010,0
-49.253340,-25.468100,0
-49.253310,-25.468130,0
-49.253290,-25.468190,0
-49.253290,-25.468270,0
-49.253320,-25.468390,0
-49.253350,-25.468430,0
-49.253400,-25.468510,0
-49.253460,-25.468580,0
-49.253510,-25.468650,0
-49.253560,-25.468710,0
-49.253680,-25.468860,0
-49.253810,-25.469030,0
-49.253920,-25.469160,0
-49.254040,-25.469320,0
-49.254210,-25.469520,0
-49.254290,-25.469630,0
-49.254420,-25.469770,0
-49.254530,-25.469900,0
-49.254600,-25.469970,0
-49.254660,-25.470020,0
-49.254710,-25.470070,0
-49.254780,-25.470130,0
-49.254820,-25.470170,0
-49.254850,-25.470210,0
-49.254900,-25.470270,0
-49.254910,-25.470300,0
-49.254990,-25.470410,0
-49.255070,-25.470510,0
-49.255300,-25.470800,0
-49.255420,-25.470940,0
-49.255560,-25.471130,0
-49.255760,-25.471360,0
-49.255830,-25.471450,0
-49.256080,-25.471760,0
-49.256340,-25.472080,0
-49.256510,-25.472300,0
-49.256680,-25.472510,0
-49.256860,-25.472730,0
-49.256980,-25.472880,0
-49.257200,-25.473150,0
-49.257410,-25.473410,0
-49.257610,-25.473670,0
-49.257820,-25.473930,0
-49.258040,-25.474200,0
-49.258210,-25.474400,0
-49.258470,-25.474700,0
-49.258750,-25.475040,0
-49.259010,-25.475380,0
-49.259210,-25.475600,0
-49.259350,-25.475780,0
-49.259450,-25.475910,0
-49.259560,-25.476080,0
-49.259630,-25.476190,0
-49.259700,-25.476310,0
-49.259810,-25.476460,0
-49.259950,-25.476660,0
-49.260050,-25.476810,0
-49.260100,-25.476880,0
-49.260330,-25.477190,0
-49.260540,-25.477450,0
-49.260750,-25.477710,0
-49.260930,-25.477950,0
-49.261120,-25.478180,0
-49.261300,-25.478400,0
-49.261480,-25.478630,0
-49.261660,-25.478850,0
-49.261840,-25.479070,0
-49.262030,-25.479300,0
-49.262120,-25.479410,0
-49.262260,-25.479580,0
-49.262580,-25.479980,0
-49.263310,-25.480890,0
-49.263570,-25.481200,0
-49.263810,-25.481500,0
-49.263960,-25.481680,0
-49.264090,-25.481840,0
-49.264340,-25.482160,0
-49.264470,-25.482320,0
-49.264610,-25.482480,0
-49.264860,-25.482800,0
-49.265020,-25.482990,0
-49.265170,-25.483170,0
-49.265420,-25.483460,0
-49.265510,-25.483560,0
-49.265600,-25.483670,0
-49.265720,-25.483790,0
-49.265860,-25.483950,0
-49.266060,-25.484160,0
-49.266270,-25.484390,0
-49.266350,-25.484490,0
-49.266430,-25.484600,0
-49.266520,-25.484720,0
-49.266640,-25.484860,0
-49.266830,-25.485090,0
-49.267030,-25.485340,0
-49.267180,-25.485530,0
-49.267300,-25.485660,0
-49.267420,-25.485820,0
-49.267570,-25.486020,0
-49.267730,-25.486240,0
-49.267880,-25.486430,0
-49.268020,-25.486640,0
-49.268140,-25.486810,0
-49.268210,-25.486900,0
-49.268270,-25.486990,0
-49.268430,-25.487200,0
-49.268550,-25.487340,0
-49.268650,-25.487470,0
-49.268860,-25.487730,0
-49.269000,-25.487910,0
-49.269070,-25.488010,0
-49.269150,-25.488100,0
-49.269290,-25.488270,0
-49.269430,-25.488450,0
-49.269580,-25.488630,0
-49.269750,-25.488830,0
-49.269910,-25.489030,0
-49.270000,-25.489140,0
-49.270050,-25.489200,0
-49.270100,-25.489260,0
-49.270280,-25.489490,0
-49.270990,-25.490360,0
-49.271170,-25.490580,0
-49.271260,-25.490690,0
-49.271340,-25.490800,0
-49.271430,-25.490910,0
-49.271530,-25.491030,0
-49.271700,-25.491240,0
-49.271870,-25.491450,0
-49.272040,-25.491660,0
-49.272220,-25.491900,0
-49.272520,-25.492260,0
-49.272690,-25.492480,0
-49.272910,-25.492750,0
-49.273140,-25.493020,0
-49.273440,-25.493410,0
-49.273650,-25.493670,0
-49.273850,-25.493900,0
-49.273990,-25.494070,0
-49.274070,-25.494180,0
-49.274330,-25.494450,0
-49.274440,-25.494570,0
-49.274570,-25.494700,0
-49.274760,-25.494890,0
-49.274980,-25.495120,0
-49.275190,-25.495360,0
-49.275280,-25.495460,0
-49.275370,-25.495560,0
-49.275440,-25.495640,0
-49.275570,-25.495800,0
-49.275580,-25.495810,0
-49.275660,-25.495900,0
-49.275700,-25.495960,0
-49.275750,-25.496030,0
-49.275790,-25.496090,0
-49.275840,-25.496150,0
-49.276010,-25.496360,0
-49.276170,-25.496550,0
-49.276320,-25.496740,0
-49.276470,-25.496920,0
-49.276610,-25.497100,0
-49.276790,-25.497320,0
-49.276970,-25.497530,0
-49.277200,-25.497820,0
-49.277330,-25.497990,0
-49.277510,-25.498240,0
-49.277570,-25.498330,0
-49.277650,-25.498430,0
-49.277730,-25.498540,0
-49.277820,-25.498660,0
-49.277920,-25.498780,0
-49.278040,-25.498930,0
-49.278280,-25.499220,0
-49.278400,-25.499370,0
-49.278520,-25.499520,0
-49.278760,-25.499830,0
-49.278920,-25.500030,0
-49.279080,-25.500230,0
-49.279280,-25.500480,0
-49.279400,-25.500630,0
-49.279530,-25.500780,0
-49.279730,-25.501030,0
-49.279890,-25.501240,0
-49.279970,-25.501330,0
-49.280060,-25.501440,0
-49.280150,-25.501550,0
-49.280240,-25.501660,0
-49.280330,-25.501780,0
-49.280420,-25.501880,0
-49.280510,-25.501990,0
-49.280590,-25.502100,0
-49.280670,-25.502200,0
-49.280760,-25.502310,0
-49.280930,-25.502510,0
-49.281100,-25.502720,0
-49.281310,-25.502990,0
-49.281450,-25.503160,0
-49.281640,-25.503400,0
-49.281820,-25.503620,0
-49.282010,-25.503860,0
-49.282210,-25.504100,0
-49.282320,-25.504240,0
-49.282450,-25.504400,0
-49.282530,-25.504500,0
-49.282610,-25.504600,0
-49.282790,-25.504820,0
-49.282900,-25.504950,0
-49.282950,-25.505020,0
-49.283000,-25.505090,0
-49.283110,-25.505220,0
-49.283220,-25.505350,0
-49.283330,-25.505490,0
-49.283440,-25.505620,0
-49.283580,-25.505800,0
-49.283720,-25.505980,0
-49.283880,-25.506170,0
-49.284110,-25.506450,0
-49.284230,-25.506600,0
-49.284280,-25.506670,0
-49.284350,-25.506750,0
-49.284840,-25.507340,0
-49.284970,-25.507500,0
-49.285170,-25.507750,0
-49.285360,-25.507970,0
-49.285440,-25.508080,0
-49.285540,-25.508200,0
-49.285700,-25.508400,0
-49.285790,-25.508510,0
-49.285880,-25.508630,0
-49.286050,-25.508850,0
-49.286220,-25.509060,0
-49.286310,-25.509170,0
-49.286390,-25.509280,0
-49.286490,-25.509390,0
-49.286580,-25.509510,0
-49.286760,-25.509720,0
-49.286920,-25.509920,0
-49.287000,-25.510020,0
-49.287070,-25.510100,0
-49.287140,-25.510190,0
-49.287210,-25.510280,0
-49.287250,-25.510320,0
-49.287290,-25.510380,0
-49.287480,-25.510610,0
-49.287660,-25.510840,0
-49.287830,-25.511050,0
-49.288010,-25.511270,0
-49.288180,-25.511470,0
-49.288340,-25.511680,0
-49.288520,-25.511890,0
-49.288680,-25.512090,0
-49.288840,-25.512290,0
-49.288910,-25.512380,0
-49.288980,-25.512450,0
-49.289050,-25.512520,0
-49.289120,-25.512560,0
-49.289210,-25.512610,0
-49.289250,-25.512620,0
-49.289330,-25.512640,0
-49.289420,-25.512650,0
-49.289480,-25.512650,0
-49.289580,-25.512640,0
-49.289680,-25.512610,0
-49.289790,-25.512570,0
-49.289850,-25.512540,0
-49.289990,-25.512470,0
-49.290100,-25.512420,0
-49.290210,-25.512360,0
-49.290560,-25.512190,0
-49.290980,-25.511980,0
-49.291280,-25.511840,0
-49.291610,-25.511670,0
-49.291940,-25.511510,0
-49.292040,-25.511470,0
-49.292130,-25.511440,0
-49.292230,-25.511420,0
-49.292310,-25.511410,0
-49.292380,-25.511400,0
-49.292490,-25.511400,0
-49.292600,-25.511410,0
-49.292730,-25.511430,0
-49.293070,-25.511530,0
-49.293350,-25.511610,0
-49.293610,-25.511670,0
-49.293850,-25.511710,0
-49.294040,-25.511730,0
-49.294340,-25.511740,0
-49.294960,-25.511770,0
-49.294900,-25.513470,0
-49.294610,-25.513460,0
-49.294650,-25.512100,0</coordinates></LineString></Placemark><Placemark><name>1 - 108215 - Praça Carlos Gomes - 550 - Ligeirão Pinheirinho / C. Gomes (sentido Pinheirinho)</name><description>ID: 171360&lt;br/&gt;Tipo: OBRIGATÓRIO&lt;br/&gt;Distância: 0,000 km</description><Point><coordinates>-49.269170,-25.433990,0</coordinates></Point></Placemark><Placemark><name>2 - 108213 - Estação Tubo UTFPR/n550 - Ligeirão Pinheirinho / C. Gomes</name><description>ID: 171361&lt;br/&gt;Tipo: INTERMEDIÁRIO&lt;br/&gt;Distância: 0,787 km</description><Point><coordinates>-49.268100,-25.439070,0</coordinates></Point></Placemark><Placemark><name>3 - 108072 - Estação Tubo Almirante Gonçalves/n503 - Boqueirão (sentido Boqueirão)</name><description>ID: 171362&lt;br/&gt;Tipo: INTERMEDIÁRIO&lt;br/&gt;Distância: 1,932 km</description><Point><coordinates>-49.263410,-25.448490,0</coordinates></Point></Placemark><Placemark><name>4 - 108079 - Estação Tubo Parolin/n503 - Boqueirão (sentido Boqueirão)/n550 - Ligeirão Pinheirinho / C. Gomes (sentido Pinheirinho)</name><description>ID: 171363&lt;br/&gt;Tipo: INTERMEDIÁRIO&lt;br/&gt;Distância: 3,675 km</description><Point><coordinates>-49.256410,-25.463040,0</coordinates></Point></Placemark><Placemark><name>5 - 108211 - Estação Tubo Marechal Floriano/n550 - Ligeirão Pinheirinho / C. Gomes (sentido Pinheirinho)/n602 - Circular Sul (AH) (sentido Portão)/n605 - Ctba / Faz. Rio Grande (sentido Fazenda Rio Grande)/n350 - Atuba / Pinheirinho</name><description>ID: 171364&lt;br/&gt;Tipo: INTERMEDIÁRIO&lt;br/&gt;Distância: 4,434 km</description><Point><coordinates>-49.254030,-25.469140,0</coordinates></Point></Placemark><Placemark><name>6 - 108210 - Estação Tubo Fanny/n550 - Ligeirão Pinheirinho / C. Gomes (sentido Pinheirinho)/n616 - Portão / Sta Bernadete / L.Verde (sentido Portão)/n621- Fanny (sentido Hauer)/n350 - Atuba / Pinheirinho</name><description>ID: 171365&lt;br/&gt;Tipo: INTERMEDIÁRIO&lt;br/&gt;Distância: 5,233 km</description><Point><coordinates>-49.258700,-25.474840,0</coordinates></Point></Placemark><Placemark><name>7 - 108208 - Estação Tubo Santa Bernadethe/n550 - Ligeirão Pinheirinho / C. Gomes (sentido Pinheirinho)/n616 - Portão / Sta Bernadete / L. Verde (sentido Portão)/n350 - Atuba / Pinheirinho</name><description>ID: 171366&lt;br/&gt;Tipo: INTERMEDIÁRIO&lt;br/&gt;Distância: 6,592 km</description><Point><coordinates>-49.266980,-25.485110,0</coordinates></Point></Placemark><Placemark><name>8 - 108206 - 657 - Xaxim / C. Raso (Sentido Xaxim)/n350 - Atuba / Pinheirinho/n550 / Ligeirão Pinheirinho / C. Gomes/n629 - Alto Boqueirão/n707 - Tatuquara / Centro (Sentido Centro)</name><description>ID: 171367&lt;br/&gt;Tipo: INTERMEDIÁRIO&lt;br/&gt;Distância: 8,168 km</description><Point><coordinates>-49.276370,-25.496640,0</coordinates></Point></Placemark><Placemark><name>9 - 108204 - Estação Tubo Vila São Pedro/n550 - Ligeirão Pinheirinho / C. Gomes (sentido Pinheirinho)/n625 - Gramados (sentido Terminal S. Cercado)/n350 - Atuba / Pinheirinho</name><description>ID: 171368&lt;br/&gt;Tipo: INTERMEDIÁRIO&lt;br/&gt;Distância: 9,517 km</description><Point><coordinates>-49.284470,-25.506730,0</coordinates></Point></Placemark><Placemark><name>10 - 105704 - Terminal Pinheirinho/n550 - Pinheirinho / C. Gomes (sentido Praça Carlos Gomes)</name><description>ID: 171351&lt;br/&gt;Tipo: OBRIGATÓRIO&lt;br/&gt;Distância: 11,287 km</description><Point><coordinates>-49.294660,-25.512100,0</coordinates></Point></Placemark></Document></kml>