<?xml version='1.0' encoding='utf-8'?>
<kml xmlns="http://www.opengis.net/kml/2.2"><Document><name>550-ligeirao-ida</name><Style id="trajeto"><LineStyle><color>ff0000ff</color><width>5</width></LineStyle></Style><Placemark><name>Trajeto</name><styleUrl>#trajeto</styleUrl><LineString><tessellate>1</tessellate><coordinates>-49.294670,-25.512090,0
-49.294670,-25.511920,0
-49.294670,-25.511750,0
-49.294340,-25.511740,0
-49.294050,-25.511730,0
-49.293850,-25.511720,0
-49.293620,-25.511680,0
-49.293480,-25.511640,0
-49.293350,-25.511610,0
-49.293070,-25.511530,0
-49.292720,-25.511430,0
-49.292610,-25.511410,0
-49.292490,-25.511400,0
-49.292380,-25.511400,0
-49.292260,-25.511410,0
-49.292130,-25.511440,0
-49.292070,-25.511460,0
-49.292030,-25.511470,0
-49.291920,-25.511520,0
-49.291610,-25.511670,0
-49.291280,-25.511840,0
-49.290980,-25.511980,0
-49.290560,-25.512190,0
-49.290210,-25.512360,0
-49.289990,-25.512470,0
-49.289790,-25.512570,0
-49.289680,-25.512610,0
-49.289580,-25.512640,0
-49.289480,-25.512650,0
-49.289360,-25.512640,0
-49.289260,-25.512620,0
-49.289190,-25.512590,0
-49.289130,-25.512560,0
-49.289060,-25.512510,0
-49.288980,-25.512450,0
-49.288900,-25.512370,0
-49.288830,-25.512280,0
-49.288680,-25.512090,0
-49.288510,-25.511880,0
-49.288350,-25.511680,0
-49.288260,-25.511570,0
-49.288180,-25.511470,0
-49.288100,-25.511370,0
-49.288010,-25.511260,0
-49.287830,-25.511040,0
-49.287660,-25.510840,0
-49.287480,-25.510610,0
-49.287290,-25.510380,0
-49.287200,-25.510270,0
-49.287070,-25.510100,0
-49.286930,-25.509940,0
-49.286760,-25.509720,0
-49.286580,-25.509500,0
-49.286390,-25.509280,0
-49.286310,-25.509170,0
-49.286220,-25.509060,0
-49.285880,-25.508630,0
-49.285700,-25.508400,0
-49.285540,-25.508200,0
-49.285440,-25.508080,0
-49.285360,-25.507970,0
-49.285170,-25.507750,0
-49.284970,-25.507500,0
-49.284820,-25.507320,0
-49.284350,-25.506750,0
-49.284230,-25.506600,0
-49.284120,-25.506460,0
-49.283720,-25.505970,0
-49.283520,-25.505710,0
-49.283310,-25.505460,0
-49.283200,-25.505310,0
-49.283050,-25.505140,0
-49.282940,-25.505000,0
-49.282780,-25.504800,0
-49.282600,-25.504570,0
-49.282430,-25.504360,0
-49.282110,-25.503970,0
-49.281950,-25.503770,0
-49.281820,-25.503620,0
-49.281550,-25.503280,0
-49.281310,-25.502990,0
-49.281100,-25.502720,0
-49.280920,-25.502510,0
-49.280760,-25.502300,0
-49.280590,-25.502100,0
-49.280400,-25.501860,0
-49.280230,-25.501650,0
-49.280060,-25.501440,0
-49.279980,-25.501340,0
-49.279890,-25.501240,0
-49.279750,-25.501060,0
-49.279520,-25.500780,0
-49.279400,-25.500630,0
-49.279280,-25.500480,0
-49.279130,-25.500290,0
-49.278920,-25.500030,0
-49.278830,-25.499920,0
-49.278760,-25.499830,0
-49.278630,-25.499670,0
-49.278510,-25.499520,0
-49.278400,-25.499370,0
-49.278280,-25.499220,0
-49.278040,-25.498930,0
-49.277920,-25.498780,0
-49.277860,-25.498700,0
-49.277810,-25.498630,0
-49.277730,-25.498530,0
-49.277650,-25.498430,0
-49.277580,-25.498330,0
-49.277510,-25.498240,0
-49.277360,-25.498040,0
-49.277200,-25.497840,0
-49.277080,-25.497680,0
-49.276970,-25.497530,0
-49.276790,-25.497320,0
-49.276610,-25.497100,0
-49.276320,-25.496740,0
-49.276240,-25.496640,0
-49.276150,-25.496540,0
-49.276010,-25.496360,0
-49.275930,-25.496260,0
-49.275840,-25.496150,0
-49.275790,-25.496090,0
-49.275730,-25.496000,0
-49.275650,-25.495890,0
-49.275610,-25.495840,0
-49.275560,-25.495790,0
-49.275470,-25.495680,0
-49.275370,-25.495560,0
-49.275260,-25.495440,0
-49.275170,-25.495330,0
-49.275070,-25.495220,0
-49.274980,-25.495120,0
-49.274870,-25.495010,0
-49.274740,-25.494870,0
-49.274560,-25.494690,0
-49.274440,-25.494570,0
-49.274340,-25.494470,0
-49.274150,-25.494240,0
-49.273980,-25.494030,0
-49.273840,-25.493860,0
-49.273640,-25.493620,0
-49.273430,-25.493360,0
-49.273250,-25.493140,0
-49.272970,-25.492800,0
-49.272830,-25.492630,0
-49.272710,-25.492480,0
-49.272550,-25.492290,0
-49.272400,-25.492100,0
-49.272220,-25.491880,0
-49.272050,-25.491660,0
-49.271870,-25.491450,0
-49.271700,-25.491240,0
-49.271520,-25.491020,0
-49.271340,-25.490800,0
-49.271170,-25.490580,0
-49.270990,-25.490360,0
-49.270280,-25.489490,0
-49.270090,-25.489260,0
-49.269990,-25.489130,0
-49.269740,-25.488820,0
-49.269580,-25.488620,0
-49.269430,-25.488440,0
-49.269140,-25.488090,0
-49.269060,-25.488000,0
-49.269000,-25.487910,0
-49.268860,-25.487730,0
-49.268650,-25.487470,0
-49.268430,-25.487200,0
-49.268270,-25.486990,0
-49.268210,-25.486900,0
-49.268140,-25.486810,0
-49.268020,-25.486640,0
-49.267880,-25.486430,0
-49.267730,-25.486240,0
-49.267570,-25.486020,0
-49.267420,-25.485820,0
-49.267300,-25.485660,0
-49.267180,-25.485520,0
-49.267030,-25.485340,0
-49.266830,-25.485090,0
-49.266640,-25.484860,0
-49.266520,-25.484710,0
-49.266430,-25.484600,0
-49.266270,-25.484390,0
-49.266050,-25.484150,0
-49.265830,-25.483920,0
-49.265630,-25.483700,0
-49.265490,-25.483530,0
-49.265390,-25.483430,0
-49.265270,-25.483290,0
-49.265170,-25.483180,0
-49.265010,-25.482970,0
-49.264840,-25.482760,0
-49.264580,-25.482440,0
-49.264440,-25.482270,0
-49.264270,-25.482050,0
-49.264160,-25.481920,0
-49.263920,-25.481620,0
-49.263720,-25.481380,0
-49.263580,-25.481200,0
-49.263310,-25.480860,0
-49.262950,-25.480420,0
-49.262600,-25.479980,0
-49.262380,-25.479700,0
-49.262180,-25.479460,0
-49.262010,-25.479240,0
-49.261800,-25.479000,0
-49.261640,-25.478790,0
-49.261450,-25.478560,0
-49.261240,-25.478290,0
-49.261060,-25.478070,0
-49.260890,-25.477860,0
-49.260710,-25.477640,0
-49.260500,-25.477370,0
-49.260300,-25.477130,0
-49.260090,-25.476870,0
-49.259970,-25.476700,0
-49.259860,-25.476540,0
-49.259760,-25.476400,0
-49.259660,-25.476240,0
-49.259570,-25.476110,0
-49.259500,-25.475990,0
-49.259410,-25.475870,0
-49.259360,-25.475800,0
-49.259240,-25.475650,0
-49.259080,-25.475450,0
-49.258960,-25.475310,0
-49.258820,-25.475140,0
-49.258690,-25.474970,0
-49.258450,-25.474680,0
-49.258210,-25.474400,0
-49.258010,-25.474160,0
-49.257830,-25.473940,0
-49.257620,-25.473670,0
-49.257410,-25.473420,0
-49.257200,-25.473160,0
-49.257080,-25.473010,0
-49.256910,-25.472810,0
-49.256580,-25.472390,0
-49.256510,-25.472300,0
-49.256000,-25.471660,0
-49.255730,-25.471340,0
-49.255560,-25.471120,0
-49.255410,-25.470940,0
-49.255300,-25.470800,0
-49.255060,-25.470500,0
-49.255000,-25.470420,0
-49.254930,-25.470320,0
-49.254910,-25.470290,0
-49.254890,-25.470260,0
-49.254860,-25.470230,0
-49.254820,-25.470170,0
-49.254700,-25.470060,0
-49.254650,-25.470010,0
-49.254600,-25.469970,0
-49.254530,-25.469900,0
-49.254400,-25.469750,0
-49.254350,-25.469690,0
-49.254290,-25.469630,0
-49.254200,-25.469520,0
-49.254040,-25.469310,0
-49.253920,-25.469160,0
-49.253810,-25.469020,0
-49.253680,-25.468860,0
-49.253560,-25.468710,0
-49.253470,-25.468590,0
-49.253400,-25.468520,0
-49.253350,-25.468430,0
-49.253320,-25.468380,0
-49.253260,-25.468270,0
-49.253290,-25.468190,0
-49.253300,-25.468160,0
-49.253310,-25.468130,0
-49.253340,-25.468100,0
-49.253400,-25.468020,0
-49.253470,-25.467930,0
-49.253580,-25.467790,0
-49.253720,-25.467610,0
-49.253890,-25.467380,0
-49.254000,-25.467240,0
-49.254080,-25.467160,0
-49.254140,-25.467110,0
-49.254190,-25.467060,0
-49.254210,-25.467000,0
-49.254240,-25.466940,0
-49.254370,-25.466690,0
-49.254390,-25.466650,0
-49.254480,-25.466490,0
-49.254490,-25.466460,0
-49.254510,-25.466440,0
-49.254710,-25.466210,0
-49.254780,-25.466120,0
-49.254840,-25.466040,0
-49.254880,-25.465950,0
-49.255010,-25.465710,0
-49.255050,-25.465630,0
-49.255090,-25.465550,0
-49.255120,-25.465490,0
-49.255140,-25.465440,0
-49.255210,-25.465280,0
-49.255290,-25.465100,0
-49.255540,-25.464600,0
-49.255600,-25.464480,0
-49.255660,-25.464360,0
-49.255730,-25.464210,0
-49.255770,-25.464130,0
-49.255810,-25.464060,0
-49.255920,-25.463820,0
-49.256040,-25.463580,0
-49.256100,-25.463440,0
-49.256170,-25.463310,0
-49.256240,-25.463180,0
-49.256310,-25.463040,0
-49.256440,-25.462790,0
-49.256560,-25.462550,0
-49.256690,-25.462310,0
-49.256800,-25.462050,0
-49.256890,-25.461870,0
-49.256970,-25.461690,0
-49.257060,-25.461510,0
-49.257100,-25.461420,0
-49.257140,-25.461330,0
-49.257240,-25.461130,0
-49.257320,-25.460970,0
-49.257410,-25.460800,0
-49.257490,-25.460620,0
-49.257660,-25.460270,0
-49.257750,-25.460090,0
-49.257820,-25.459930,0
-49.257990,-25.459580,0
-49.258080,-25.459400,0
-49.258150,-25.459230,0
-49.258250,-25.459040,0
-49.258350,-25.458830,0
-49.258470,-25.458600,0
-49.258530,-25.458500,0
-49.258570,-25.458430,0
-49.258590,-25.458370,0
-49.258740,-25.458070,0
-49.258810,-25.457920,0
-49.258880,-25.457780,0
-49.258960,-25.457610,0
-49.259030,-25.457460,0
-49.259190,-25.457140,0
-49.259360,-25.456810,0
-49.259520,-25.456480,0
-49.259600,-25.456320,0
-49.259680,-25.456150,0
-49.259760,-25.455990,0
-49.259840,-25.455830,0
-49.260000,-25.455500,0
-49.260160,-25.455160,0
-49.260310,-25.454870,0
-49.260410,-25.454650,0
-49.260500,-25.454460,0
-49.260810,-25.453810,0
-49.260950,-25.453530,0
-49.261080,-25.453260,0
-49.261240,-25.452930,0
-49.261360,-25.452690,0
-49.261490,-25.452410,0
-49.261660,-25.452060,0
-49.261800,-25.451800,0
-49.261920,-25.451530,0
-49.262080,-25.451210,0
-49.262230,-25.450900,0
-49.262260,-25.450850,0
-49.262280,-25.450720,0
-49.262530,-25.450200,0
-49.262670,-25.449900,0
-49.262810,-25.449600,0
-49.262950,-25.449330,0
-49.263060,-25.449100,0
-49.263310,-25.448590,0
-49.263500,-25.448210,0
-49.263720,-25.447770,0
-49.263940,-25.447320,0
-49.264070,-25.447070,0
-49.264200,-25.446800,0
-49.264420,-25.446350,0
-49.264620,-25.445930,0
-49.264800,-25.445570,0
-49.264980,-25.445200,0
-49.265170,-25.444820,0
-49.265270,-25.444620,0
-49.265430,-25.444280,0
-49.265550,-25.444030,0
-49.265660,-25.443820,0
-49.265780,-25.443560,0
-49.265860,-25.443410,0
-49.265960,-25.443210,0
-49.266010,-25.443100,0
-49.266130,-25.442900,0
-49.266210,-25.442780,0
-49.266370,-25.442480,0
-49.266490,-25.442270,0
-49.266600,-25.442060,0
-49.266650,-25.441950,0
-49.266750,-25.441730,0
-49.266860,-25.441510,0
-49.266960,-25.441310,0
-49.267190,-25.440870,0
-49.267240,-25.440760,0
-49.267310,-25.440640,0
-49.267390,-25.440480,0
-49.267500,-25.440280,0
-49.267610,-25.440060,0
-49.267730,-25.439850,0
-49.267840,-25.439600,0
-49.267980,-25.439320,0
-49.268140,-25.438970,0
-49.268280,-25.438680,0
-49.268410,-25.438390,0
-49.267820,-25.438150,0
-49.267380,-25.437990,0
-49.267380,-25.437800,0
-49.267470,-25.437580,0
-49.267660,-25.437180,0
-49.267720,-25.437050,0
-49.267900,-25.436660,0
-49.268030,-25.436420,0
-49.268250,-25.436000,0
-49.268450,-25.435610,0
-49.268640,-25.435220,0
-49.268780,-25.434960,0
-49.268850,-25.434820,0
-49.269030,-25.434430,0
-49.269220,-25.434010,0</coordinates></LineString></Placemark><Placemark><name>1 - 105704 - Terminal Pinheirinho/n550 - Pinheirinho / C. Gomes (sentido Praça Carlos Gomes)</name><description>ID: 171351&lt;br/&gt;Tipo: OBRIGATÓRIO&lt;br/&gt;Distância: 0,000 km</description><Point><coordinates>-49.294660,-25.512100,0</coordinates></Point></Placemark><Placemark><name>2 - 108203 - Estação Tubo Vila São Pedro/n550 - Ligeirão Pinheirinho / C. Gomes (sentido Praça Carlos Gomes)/n625 - Gramados (sentido Terminal Capão Raso)/n350 - Atuba / Pinheirinho</name><description>ID: 171352&lt;br/&gt;Tipo: INTERMEDIÁRIO&lt;br/&gt;Distância: 1,410 km</description><Point><coordinates>-49.284270,-25.506810,0</coordinates></Point></Placemark><Placemark><name>3 - 108205 - 657 - Xaxim / C. Raso (Sentido Capão Raso)/n550 - Ligeirão Pinheirinho / C. Gomes (Sentido Praça Carlos Gomes)/n350 - Atuba / Pinheirinho/n629 - Alto Boqueirão (Sentido Termiinal Capão Raso)/n707 - Tatuquara / Centro (Sentido T. Tatuquara)</name><description>ID: 171353&lt;br/&gt;Tipo: INTERMEDIÁRIO&lt;br/&gt;Distância: 2,773 km</description><Point><coordinates>-49.276140,-25.496690,0</coordinates></Point></Placemark><Placemark><name>4 - 108207 - Estação Tubo Santa Bernadethe/n550 - Ligeirão Pinheirinho / C. Gomes (sentido Pça. Carlos Gomes)/n616 - Portão / Sta Bernadete / L. Verde (sentido Portão)/n350 - Atuba / Pinheirinho</name><description>ID: 171354&lt;br/&gt;Tipo: INTERMEDIÁRIO&lt;br/&gt;Distância: 4,334 km</description><Point><coordinates>-49.266790,-25.485230,0</coordinates></Point></Placemark><Placemark><name>5 - 108209 - Estação Tubo Fanny/n550 - Ligeirão Pinheirinho / C. Gomes/n616 - Portão / Sta Bernadete / L.Verde (sentido Portão)/n621 - Fanny (sentido Capão Raso)/n350 - Atuba / Pinheirinho</name><description>ID: 171355&lt;br/&gt;Tipo: INTERMEDIÁRIO&lt;br/&gt;Distância: 5,700 km</description><Point><coordinates>-49.258530,-25.474970,0</coordinates></Point></Placemark><Placemark><name>6 - 108212 - Estação Tubo Marechal Floriano - /n502 - Circular Sul (Horário)/n550 - Ligeirão Pinheirinho / C. Gomes (sentido Praça Carlos Gomes)/n350 - Atuba / Pinheirinho</name><description>ID: 171356&lt;br/&gt;Tipo: INTERMEDIÁRIO&lt;br/&gt;Distância: 6,489 km</description><Point><coordinates>-49.253850,-25.469290,0</coordinates></Point></Placemark><Placemark><name>7 - 108080 - Estação Tubo Parolin/n503 - Boqueirão (sentido Praça Carlos Gomes)/n550 - Ligeirão Pinheirinho / C. Gomes (sentido Praça Carlos Gomes)</name><description>ID: 171357&lt;br/&gt;Tipo: INTERMEDIÁRIO&lt;br/&gt;Distância: 7,244 km</description><Point><coordinates>-49.256240,-25.462970,0</coordinates></Point></Placemark><Placemark><name>8 - 108071 - Estação Tubo Almirante Gonçalves/n503 - Boqueirão (sentido Praça Carlos Gomes)</name><description>ID: 171358&lt;br/&gt;Tipo: INTERMEDIÁRIO&lt;br/&gt;Distância: 9,123 km</description><Point><coordinates>-49.263820,-25.447430,0</coordinates></Point></Placemark><Placemark><name>9 - 108214 - 550 - Pinheirinho / C. Gomes (sentido Praça Carlos Gomes)/n500 - Ligeirão Boqueirão</name><description>ID: 171359&lt;br/&gt;Tipo: INTERMEDIÁRIO&lt;br/&gt;Distância: 10,127 km</description><Point><coordinates>-49.268110,-25.438800,0</coordinates></Point></Placemark><Placemark><name>10 - 108215 - Praça Carlos Gomes - 550 - Ligeirão Pinheirinho / C. Gomes (sentido Pinheirinho)</name><description>ID: 171360&lt;br/&gt;Tipo: OBRIGATÓRIO&lt;br/&gt;Distância: 10,782 km</description><Point><coordinates>-49.269170,-25.433990,0</coordinates></Point></Placemark></Document></kml>