<?xml version='1.0' encoding='utf-8'?>
<gpx version="1.1" creator="Conversor" xmlns="http://www.topografix.com/GPX/1/1" xmlns:xsi="http://www.w3.org/2001/XMLSchema-instance" xsi:schemaLocation="http://www.topografix.com/GPX/1/1 http://www.topografix.com/GPX/1/1/gpx.xsd"><metadata><name>550-ligeirao-ida</name></metadata><trk><name>550-ligeirao-ida</name><trkseg><trkpt lat="-25.512090" lon="-49.294670" /><trkpt lat="-25.511920" lon="-49.294670" /><trkpt lat="-25.511750" lon="-49.294670" /><trkpt lat="-25.511740" lon="-49.294340" /><trkpt lat="-25.511730" lon="-49.294050" /><trkpt lat="-25.511720" lon="-49.293850" /><trkpt lat="-25.511680" lon="-49.293620" /><trkpt lat="-25.511640" lon="-49.293480" /><trkpt lat="-25.511610" lon="-49.293350" /><trkpt lat="-25.511530" lon="-49.293070" /><trkpt lat="-25.511430" lon="-49.292720" /><trkpt lat="-25.511410" lon="-49.292610" /><trkpt lat="-25.511400" lon="-49.292490" /><trkpt lat="-25.511400" lon="-49.292380" /><trkpt lat="-25.511410" lon="-49.292260" /><trkpt lat="-25.511440" lon="-49.292130" /><trkpt lat="-25.511460" lon="-49.292070" /><trkpt lat="-25.511470" lon="-49.292030" /><trkpt lat="-25.511520" lon="-49.291920" /><trkpt lat="-25.511670" lon="-49.291610" /><trkpt lat="-25.511840" lon="-49.291280" /><trkpt lat="-25.511980" lon="-49.290980" /><trkpt lat="-25.512190" lon="-49.290560" /><trkpt lat="-25.512360" lon="-49.290210" /><trkpt lat="-25.512470" lon="-49.289990" /><trkpt lat="-25.512570" lon="-49.289790" /><trkpt lat="-25.512610" lon="-49.289680" /><trkpt lat="-25.512640" lon="-49.289580" /><trkpt lat="-25.512650" lon="-49.289480" /><trkpt lat="-25.512640" lon="-49.289360" /><trkpt lat="-25.512620" lon="-49.289260" /><trkpt lat="-25.512590" lon="-49.289190" /><trkpt lat="-25.512560" lon="-49.289130" /><trkpt lat="-25.512510" lon="-49.289060" /><trkpt lat="-25.512450" lon="-49.288980" /><trkpt lat="-25.512370" lon="-49.288900" /><trkpt lat="-25.512280" lon="-49.288830" /><trkpt lat="-25.512090" lon="-49.288680" /><trkpt lat="-25.511880" lon="-49.288510" /><trkpt lat="-25.511680" lon="-49.288350" /><trkpt lat="-25.511570" lon="-49.288260" /><trkpt lat="-25.511470" lon="-49.288180" /><trkpt lat="-25.511370" lon="-49.288100" /><trkpt lat="-25.511260" lon="-49.288010" /><trkpt lat="-25.511040" lon="-49.287830" /><trkpt lat="-25.510840" lon="-49.287660" /><trkpt lat="-25.510610" lon="-49.287480" /><trkpt lat="-25.510380" lon="-49.287290" /><trkpt lat="-25.510270" lon="-49.287200" /><trkpt lat="-25.510100" lon="-49.287070" /><trkpt lat="-25.509940" lon="-49.286930" /><trkpt lat="-25.509720" lon="-49.286760" /><trkpt lat="-25.509500" lon="-49.286580" /><trkpt lat="-25.509280" lon="-49.286390" /><trkpt lat="-25.509170" lon="-49.286310" /><trkpt lat="-25.509060" lon="-49.286220" /><trkpt lat="-25.508630" lon="-49.285880" /><trkpt lat="-25.508400" lon="-49.285700" /><trkpt lat="-25.508200" lon="-49.285540" /><trkpt lat="-25.508080" lon="-49.285440" /><trkpt lat="-25.507970" lon="-49.285360" /><trkpt lat="-25.507750" lon="-49.285170" /><trkpt lat="-25.507500" lon="-49.284970" /><trkpt lat="-25.507320" lon="-49.284820" /><trkpt lat="-25.506750" lon="-49.284350" /><trkpt lat="-25.506600" lon="-49.284230" /><trkpt lat="-25.506460" lon="-49.284120" /><trkpt lat="-25.505970" lon="-49.283720" /><trkpt lat="-25.505710" lon="-49.283520" /><trkpt lat="-25.505460" lon="-49.283310" /><trkpt lat="-25.505310" lon="-49.283200" /><trkpt lat="-25.505140" lon="-49.283050" /><trkpt lat="-25.505000" lon="-49.282940" /><trkpt lat="-25.504800" lon="-49.282780" /><trkpt lat="-25.504570" lon="-49.282600" /><trkpt lat="-25.504360" lon="-49.282430" /><trkpt lat="-25.503970" lon="-49.282110" /><trkpt lat="-25.503770" lon="-49.281950" /><trkpt lat="-25.503620" lon="-49.281820" /><trkpt lat="-25.503280" lon="-49.281550" /><trkpt lat="-25.502990" lon="-49.281310" /><trkpt lat="-25.502720" lon="-49.281100" /><trkpt lat="-25.502510" lon="-49.280920" /><trkpt lat="-25.502300" lon="-49.280760" /><trkpt lat="-25.502100" lon="-49.280590" /><trkpt lat="-25.501860" lon="-49.280400" /><trkpt lat="-25.501650" lon="-49.280230" /><trkpt lat="-25.501440" lon="-49.280060" /><trkpt lat="-25.501340" lon="-49.279980" /><trkpt lat="-25.501240" lon="-49.279890" /><trkpt lat="-25.501060" lon="-49.279750" /><trkpt lat="-25.500780" lon="-49.279520" /><trkpt lat="-25.500630" lon="-49.279400" /><trkpt lat="-25.500480" lon="-49.279280" /><trkpt lat="-25.500290" lon="-49.279130" /><trkpt lat="-25.500030" lon="-49.278920" /><trkpt lat="-25.499920" lon="-49.278830" /><trkpt lat="-25.499830" lon="-49.278760" /><trkpt lat="-25.499670" lon="-49.278630" /><trkpt lat="-25.499520" lon="-49.278510" /><trkpt lat="-25.499370" lon="-49.278400" /><trkpt lat="-25.499220" lon="-49.278280" /><trkpt lat="-25.498930" lon="-49.278040" /><trkpt lat="-25.498780" lon="-49.277920" /><trkpt lat="-25.498700" lon="-49.277860" /><trkpt lat="-25.498630" lon="-49.277810" /><trkpt lat="-25.498530" lon="-49.277730" /><trkpt lat="-25.498430" lon="-49.277650" /><trkpt lat="-25.498330" lon="-49.277580" /><trkpt lat="-25.498240" lon="-49.277510" /><trkpt lat="-25.498040" lon="-49.277360" /><trkpt lat="-25.497840" lon="-49.277200" /><trkpt lat="-25.497680" lon="-49.277080" /><trkpt lat="-25.497530" lon="-49.276970" /><trkpt lat="-25.497320" lon="-49.276790" /><trkpt lat="-25.497100" lon="-49.276610" /><trkpt lat="-25.496740" lon="-49.276320" /><trkpt lat="-25.496640" lon="-49.276240" /><trkpt lat="-25.496540" lon="-49.276150" /><trkpt lat="-25.496360" lon="-49.276010" /><trkpt lat="-25.496260" lon="-49.275930" /><trkpt lat="-25.496150" lon="-49.275840" /><trkpt lat="-25.496090" lon="-49.275790" /><trkpt lat="-25.496000" lon="-49.275730" /><trkpt lat="-25.495890" lon="-49.275650" /><trkpt lat="-25.495840" lon="-49.275610" /><trkpt lat="-25.495790" lon="-49.275560" /><trkpt lat="-25.495680" lon="-49.275470" /><trkpt lat="-25.495560" lon="-49.275370" /><trkpt lat="-25.495440" lon="-49.275260" /><trkpt lat="-25.495330" lon="-49.275170" /><trkpt lat="-25.495220" lon="-49.275070" /><trkpt lat="-25.495120" lon="-49.274980" /><trkpt lat="-25.495010" lon="-49.274870" /><trkpt lat="-25.494870" lon="-49.274740" /><trkpt lat="-25.494690" lon="-49.274560" /><trkpt lat="-25.494570" lon="-49.274440" /><trkpt lat="-25.494470" lon="-49.274340" /><trkpt lat="-25.494240" lon="-49.274150" /><trkpt lat="-25.494030" lon="-49.273980" /><trkpt lat="-25.493860" lon="-49.273840" /><trkpt lat="-25.493620" lon="-49.273640" /><trkpt lat="-25.493360" lon="-49.273430" /><trkpt lat="-25.493140" lon="-49.273250" /><trkpt lat="-25.492800" lon="-49.272970" /><trkpt lat="-25.492630" lon="-49.272830" /><trkpt lat="-25.492480" lon="-49.272710" /><trkpt lat="-25.492290" lon="-49.272550" /><trkpt lat="-25.492100" lon="-49.272400" /><trkpt lat="-25.491880" lon="-49.272220" /><trkpt lat="-25.491660" lon="-49.272050" /><trkpt lat="-25.491450" lon="-49.271870" /><trkpt lat="-25.491240" lon="-49.271700" /><trkpt lat="-25.491020" lon="-49.271520" /><trkpt lat="-25.490800" lon="-49.271340" /><trkpt lat="-25.490580" lon="-49.271170" /><trkpt lat="-25.490360" lon="-49.270990" /><trkpt lat="-25.489490" lon="-49.270280" /><trkpt lat="-25.489260" lon="-49.270090" /><trkpt lat="-25.489130" lon="-49.269990" /><trkpt lat="-25.488820" lon="-49.269740" /><trkpt lat="-25.488620" lon="-49.269580" /><trkpt lat="-25.488440" lon="-49.269430" /><trkpt lat="-25.488090" lon="-49.269140" /><trkpt lat="-25.488000" lon="-49.269060" /><trkpt lat="-25.487910" lon="-49.269000" /><trkpt lat="-25.487730" lon="-49.268860" /><trkpt lat="-25.487470" lon="-49.268650" /><trkpt lat="-25.487200" lon="-49.268430" /><trkpt lat="-25.486990" lon="-49.268270" /><trkpt lat="-25.486900" lon="-49.268210" /><trkpt lat="-25.486810" lon="-49.268140" /><trkpt lat="-25.486640" lon="-49.268020" /><trkpt lat="-25.486430" lon="-49.267880" /><trkpt lat="-25.486240" lon="-49.267730" /><trkpt lat="-25.486020" lon="-49.267570" /><trkpt lat="-25.485820" lon="-49.267420" /><trkpt lat="-25.485660" lon="-49.267300" /><trkpt lat="-25.485520" lon="-49.267180" /><trkpt lat="-25.485340" lon="-49.267030" /><trkpt lat="-25.485090" lon="-49.266830" /><trkpt lat="-25.484860" lon="-49.266640" /><trkpt lat="-25.484710" lon="-49.266520" /><trkpt lat="-25.484600" lon="-49.266430" /><trkpt lat="-25.484390" lon="-49.266270" /><trkpt lat="-25.484150" lon="-49.266050" /><trkpt lat="-25.483920" lon="-49.265830" /><trkpt lat="-25.483700" lon="-49.265630" /><trkpt lat="-25.483530" lon="-49.265490" /><trkpt lat="-25.483430" lon="-49.265390" /><trkpt lat="-25.483290" lon="-49.265270" /><trkpt lat="-25.483180" lon="-49.265170" /><trkpt lat="-25.482970" lon="-49.265010" /><trkpt lat="-25.482760" lon="-49.264840" /><trkpt lat="-25.482440" lon="-49.264580" /><trkpt lat="-25.482270" lon="-49.264440" /><trkpt lat="-25.482050" lon="-49.264270" /><trkpt lat="-25.481920" lon="-49.264160" /><trkpt lat="-25.481620" lon="-49.263920" /><trkpt lat="-25.481380" lon="-49.263720" /><trkpt lat="-25.481200" lon="-49.263580" /><trkpt lat="-25.480860" lon="-49.263310" /><trkpt lat="-25.480420" lon="-49.262950" /><trkpt lat="-25.479980" lon="-49.262600" /><trkpt lat="-25.479700" lon="-49.262380" /><trkpt lat="-25.479460" lon="-49.262180" /><trkpt lat="-25.479240" lon="-49.262010" /><trkpt lat="-25.479000" lon="-49.261800" /><trkpt lat="-25.478790" lon="-49.261640" /><trkpt lat="-25.478560" lon="-49.261450" /><trkpt lat="-25.478290" lon="-49.261240" /><trkpt lat="-25.478070" lon="-49.261060" /><trkpt lat="-25.477860" lon="-49.260890" /><trkpt lat="-25.477640" lon="-49.260710" /><trkpt lat="-25.477370" lon="-49.260500" /><trkpt lat="-25.477130" lon="-49.260300" /><trkpt lat="-25.476870" lon="-49.260090" /><trkpt lat="-25.476700" lon="-49.259970" /><trkpt lat="-25.476540" lon="-49.259860" /><trkpt lat="-25.476400" lon="-49.259760" /><trkpt lat="-25.476240" lon="-49.259660" /><trkpt lat="-25.476110" lon="-49.259570" /><trkpt lat="-25.475990" lon="-49.259500" /><trkpt lat="-25.475870" lon="-49.259410" /><trkpt lat="-25.475800" lon="-49.259360" /><trkpt lat="-25.475650" lon="-49.259240" /><trkpt lat="-25.475450" lon="-49.259080" /><trkpt lat="-25.475310" lon="-49.258960" /><trkpt lat="-25.475140" lon="-49.258820" /><trkpt lat="-25.474970" lon="-49.258690" /><trkpt lat="-25.474680" lon="-49.258450" /><trkpt lat="-25.474400" lon="-49.258210" /><trkpt lat="-25.474160" lon="-49.258010" /><trkpt lat="-25.473940" lon="-49.257830" /><trkpt lat="-25.473670" lon="-49.257620" /><trkpt lat="-25.473420" lon="-49.257410" /><trkpt lat="-25.473160" lon="-49.257200" /><trkpt lat="-25.473010" lon="-49.257080" /><trkpt lat="-25.472810" lon="-49.256910" /><trkpt lat="-25.472390" lon="-49.256580" /><trkpt lat="-25.472300" lon="-49.256510" /><trkpt lat="-25.471660" lon="-49.256000" /><trkpt lat="-25.471340" lon="-49.255730" /><trkpt lat="-25.471120" lon="-49.255560" /><trkpt lat="-25.470940" lon="-49.255410" /><trkpt lat="-25.470800" lon="-49.255300" /><trkpt lat="-25.470500" lon="-49.255060" /><trkpt lat="-25.470420" lon="-49.255000" /><trkpt lat="-25.470320" lon="-49.254930" /><trkpt lat="-25.470290" lon="-49.254910" /><trkpt lat="-25.470260" lon="-49.254890" /><trkpt lat="-25.470230" lon="-49.254860" /><trkpt lat="-25.470170" lon="-49.254820" /><trkpt lat="-25.470060" lon="-49.254700" /><trkpt lat="-25.470010" lon="-49.254650" /><trkpt lat="-25.469970" lon="-49.254600" /><trkpt lat="-25.469900" lon="-49.254530" /><trkpt lat="-25.469750" lon="-49.254400" /><trkpt lat="-25.469690" lon="-49.254350" /><trkpt lat="-25.469630" lon="-49.254290" /><trkpt lat="-25.469520" lon="-49.254200" /><trkpt lat="-25.469310" lon="-49.254040" /><trkpt lat="-25.469160" lon="-49.253920" /><trkpt lat="-25.469020" lon="-49.253810" /><trkpt lat="-25.468860" lon="-49.253680" /><trkpt lat="-25.468710" lon="-49.253560" /><trkpt lat="-25.468590" lon="-49.253470" /><trkpt lat="-25.468520" lon="-49.253400" /><trkpt lat="-25.468430" lon="-49.253350" /><trkpt lat="-25.468380" lon="-49.253320" /><trkpt lat="-25.468270" lon="-49.253260" /><trkpt lat="-25.468190" lon="-49.253290" /><trkpt lat="-25.468160" lon="-49.253300" /><trkpt lat="-25.468130" lon="-49.253310" /><trkpt lat="-25.468100" lon="-49.253340" /><trkpt lat="-25.468020" lon="-49.253400" /><trkpt lat="-25.467930" lon="-49.253470" /><trkpt lat="-25.467790" lon="-49.253580" /><trkpt lat="-25.467610" lon="-49.253720" /><trkpt lat="-25.467380" lon="-49.253890" /><trkpt lat="-25.467240" lon="-49.254000" /><trkpt lat="-25.467160" lon="-49.254080" /><trkpt lat="-25.467110" lon="-49.254140" /><trkpt lat="-25.467060" lon="-49.254190" /><trkpt lat="-25.467000" lon="-49.254210" /><trkpt lat="-25.466940" lon="-49.254240" /><trkpt lat="-25.466690" lon="-49.254370" /><trkpt lat="-25.466650" lon="-49.254390" /><trkpt lat="-25.466490" lon="-49.254480" /><trkpt lat="-25.466460" lon="-49.254490" /><trkpt lat="-25.466440" lon="-49.254510" /><trkpt lat="-25.466210" lon="-49.254710" /><trkpt lat="-25.466120" lon="-49.254780" /><trkpt lat="-25.466040" lon="-49.254840" /><trkpt lat="-25.465950" lon="-49.254880" /><trkpt lat="-25.465710" lon="-49.255010" /><trkpt lat="-25.465630" lon="-49.255050" /><trkpt lat="-25.465550" lon="-49.255090" /><trkpt lat="-25.465490" lon="-49.255120" /><trkpt lat="-25.465440" lon="-49.255140" /><trkpt lat="-25.465280" lon="-49.255210" /><trkpt lat="-25.465100" lon="-49.255290" /><trkpt lat="-25.464600" lon="-49.255540" /><trkpt lat="-25.464480" lon="-49.255600" /><trkpt lat="-25.464360" lon="-49.255660" /><trkpt lat="-25.464210" lon="-49.255730" /><trkpt lat="-25.464130" lon="-49.255770" /><trkpt lat="-25.464060" lon="-49.255810" /><trkpt lat="-25.463820" lon="-49.255920" /><trkpt lat="-25.463580" lon="-49.256040" /><trkpt lat="-25.463440" lon="-49.256100" /><trkpt lat="-25.463310" lon="-49.256170" /><trkpt lat="-25.463180" lon="-49.256240" /><trkpt lat="-25.463040" lon="-49.256310" /><trkpt lat="-25.462790" lon="-49.256440" /><trkpt lat="-25.462550" lon="-49.256560" /><trkpt lat="-25.462310" lon="-49.256690" /><trkpt lat="-25.462050" lon="-49.256800" /><trkpt lat="-25.461870" lon="-49.256890" /><trkpt lat="-25.461690" lon="-49.256970" /><trkpt lat="-25.461510" lon="-49.257060" /><trkpt lat="-25.461420" lon="-49.257100" /><trkpt lat="-25.461330" lon="-49.257140" /><trkpt lat="-25.461130" lon="-49.257240" /><trkpt lat="-25.460970" lon="-49.257320" /><trkpt lat="-25.460800" lon="-49.257410" /><trkpt lat="-25.460620" lon="-49.257490" /><trkpt lat="-25.460270" lon="-49.257660" /><trkpt lat="-25.460090" lon="-49.257750" /><trkpt lat="-25.459930" lon="-49.257820" /><trkpt lat="-25.459580" lon="-49.257990" /><trkpt lat="-25.459400" lon="-49.258080" /><trkpt lat="-25.459230" lon="-49.258150" /><trkpt lat="-25.459040" lon="-49.258250" /><trkpt lat="-25.458830" lon="-49.258350" /><trkpt lat="-25.458600" lon="-49.258470" /><trkpt lat="-25.458500" lon="-49.258530" /><trkpt lat="-25.458430" lon="-49.258570" /><trkpt lat="-25.458370" lon="-49.258590" /><trkpt lat="-25.458070" lon="-49.258740" /><trkpt lat="-25.457920" lon="-49.258810" /><trkpt lat="-25.457780" lon="-49.258880" /><trkpt lat="-25.457610" lon="-49.258960" /><trkpt lat="-25.457460" lon="-49.259030" /><trkpt lat="-25.457140" lon="-49.259190" /><trkpt lat="-25.456810" lon="-49.259360" /><trkpt lat="-25.456480" lon="-49.259520" /><trkpt lat="-25.456320" lon="-49.259600" /><trkpt lat="-25.456150" lon="-49.259680" /><trkpt lat="-25.455990" lon="-49.259760" /><trkpt lat="-25.455830" lon="-49.259840" /><trkpt lat="-25.455500" lon="-49.260000" /><trkpt lat="-25.455160" lon="-49.260160" /><trkpt lat="-25.454870" lon="-49.260310" /><trkpt lat="-25.454650" lon="-49.260410" /><trkpt lat="-25.454460" lon="-49.260500" /><trkpt lat="-25.453810" lon="-49.260810" /><trkpt lat="-25.453530" lon="-49.260950" /><trkpt lat="-25.453260" lon="-49.261080" /><trkpt lat="-25.452930" lon="-49.261240" /><trkpt lat="-25.452690" lon="-49.261360" /><trkpt lat="-25.452410" lon="-49.261490" /><trkpt lat="-25.452060" lon="-49.261660" /><trkpt lat="-25.451800" lon="-49.261800" /><trkpt lat="-25.451530" lon="-49.261920" /><trkpt lat="-25.451210" lon="-49.262080" /><trkpt lat="-25.450900" lon="-49.262230" /><trkpt lat="-25.450850" lon="-49.262260" /><trkpt lat="-25.450720" lon="-49.262280" /><trkpt lat="-25.450200" lon="-49.262530" /><trkpt lat="-25.449900" lon="-49.262670" /><trkpt lat="-25.449600" lon="-49.262810" /><trkpt lat="-25.449330" lon="-49.262950" /><trkpt lat="-25.449100" lon="-49.263060" /><trkpt lat="-25.448590" lon="-49.263310" /><trkpt lat="-25.448210" lon="-49.263500" /><trkpt lat="-25.447770" lon="-49.263720" /><trkpt lat="-25.447320" lon="-49.263940" /><trkpt lat="-25.447070" lon="-49.264070" /><trkpt lat="-25.446800" lon="-49.264200" /><trkpt lat="-25.446350" lon="-49.264420" /><trkpt lat="-25.445930" lon="-49.264620" /><trkpt lat="-25.445570" lon="-49.264800" /><trkpt lat="-25.445200" lon="-49.264980" /><trkpt lat="-25.444820" lon="-49.265170" /><trkpt lat="-25.444620" lon="-49.265270" /><trkpt lat="-25.444280" lon="-49.265430" /><trkpt lat="-25.444030" lon="-49.265550" /><trkpt lat="-25.443820" lon="-49.265660" /><trkpt lat="-25.443560" lon="-49.265780" /><trkpt lat="-25.443410" lon="-49.265860" /><trkpt lat="-25.443210" lon="-49.265960" /><trkpt lat="-25.443100" lon="-49.266010" /><trkpt lat="-25.442900" lon="-49.266130" /><trkpt lat="-25.442780" lon="-49.266210" /><trkpt lat="-25.442480" lon="-49.266370" /><trkpt lat="-25.442270" lon="-49.266490" /><trkpt lat="-25.442060" lon="-49.266600" /><trkpt lat="-25.441950" lon="-49.266650" /><trkpt lat="-25.441730" lon="-49.266750" /><trkpt lat="-25.441510" lon="-49.266860" /><trkpt lat="-25.441310" lon="-49.266960" /><trkpt lat="-25.440870" lon="-49.267190" /><trkpt lat="-25.440760" lon="-49.267240" /><trkpt lat="-25.440640" lon="-49.267310" /><trkpt lat="-25.440480" lon="-49.267390" /><trkpt lat="-25.440280" lon="-49.267500" /><trkpt lat="-25.440060" lon="-49.267610" /><trkpt lat="-25.439850" lon="-49.267730" /><trkpt lat="-25.439600" lon="-49.267840" /><trkpt lat="-25.439320" lon="-49.267980" /><trkpt lat="-25.438970" lon="-49.268140" /><trkpt lat="-25.438680" lon="-49.268280" /><trkpt lat="-25.438390" lon="-49.268410" /><trkpt lat="-25.438150" lon="-49.267820" /><trkpt lat="-25.437990" lon="-49.267380" /><trkpt lat="-25.437800" lon="-49.267380" /><trkpt lat="-25.437580" lon="-49.267470" /><trkpt lat="-25.437180" lon="-49.267660" /><trkpt lat="-25.437050" lon="-49.267720" /><trkpt lat="-25.436660" lon="-49.267900" /><trkpt lat="-25.436420" lon="-49.268030" /><trkpt lat="-25.436000" lon="-49.268250" /><trkpt lat="-25.435610" lon="-49.268450" /><trkpt lat="-25.435220" lon="-49.268640" /><trkpt lat="-25.434960" lon="-49.268780" /><trkpt lat="-25.434820" lon="-49.268850" /><trkpt lat="-25.434430" lon="-49.269030" /><trkpt lat="-25.434010" lon="-49.269220" /></trkseg></trk><wpt lat="-25.512100" lon="-49.294660"><name>1 - 105704 - Terminal Pinheirinho/n550 - Pinheirinho / C. Gomes (sentido Praça Carlos Gomes)</name><desc>ID: 171351; Tipo: OBRIGATÓRIO; Distância: 0,000 km</desc></wpt><wpt lat="-25.506810" lon="-49.284270"><name>2 - 108203 - Estação Tubo Vila São Pedro/n550 - Ligeirão Pinheirinho / C. Gomes (sentido Praça Carlos Gomes)/n625 - Gramados (sentido Terminal Capão Raso)/n350 - Atuba / Pinheirinho</name><desc>ID: 171352; Tipo: INTERMEDIÁRIO; Distância: 1,410 km</desc></wpt><wpt lat="-25.496690" lon="-49.276140"><name>3 - 108205 - 657 - Xaxim / C. Raso (Sentido Capão Raso)/n550 - Ligeirão Pinheirinho / C. Gomes (Sentido Praça Carlos Gomes)/n350 - Atuba / Pinheirinho/n629 - Alto Boqueirão (Sentido Termiinal Capão Raso)/n707 - Tatuquara / Centro (Sentido T. Tatuquara)</name><desc>ID: 171353; Tipo: INTERMEDIÁRIO; Distância: 2,773 km</desc></wpt><wpt lat="-25.485230" lon="-49.266790"><name>4 - 108207 - Estação Tubo Santa Bernadethe/n550 - Ligeirão Pinheirinho / C. Gomes (sentido Pça. Carlos Gomes)/n616 - Portão / Sta Bernadete / L. Verde (sentido Portão)/n350 - Atuba / Pinheirinho</name><desc>ID: 171354; Tipo: INTERMEDIÁRIO; Distância: 4,334 km</desc></wpt><wpt lat="-25.474970" lon="-49.258530"><name>5 - 108209 - Estação Tubo Fanny/n550 - Ligeirão Pinheirinho / C. Gomes/n616 - Portão / Sta Bernadete / L.Verde (sentido Portão)/n621 - Fanny (sentido Capão Raso)/n350 - Atuba / Pinheirinho</name><desc>ID: 171355; Tipo: INTERMEDIÁRIO; Distância: 5,700 km</desc></wpt><wpt lat="-25.469290" lon="-49.253850"><name>6 - 108212 - Estação Tubo Marechal Floriano - /n502 - Circular Sul (Horário)/n550 - Ligeirão Pinheirinho / C. Gomes (sentido Praça Carlos Gomes)/n350 - Atuba / Pinheirinho</name><desc>ID: 171356; Tipo: INTERMEDIÁRIO; Distância: 6,489 km</desc></wpt><wpt lat="-25.462970" lon="-49.256240"><name>7 - 108080 - Estação Tubo Parolin/n503 - Boqueirão (sentido Praça Carlos Gomes)/n550 - Ligeirão Pinheirinho / C. Gomes (sentido Praça Carlos Gomes)</name><desc>ID: 171357; Tipo: INTERMEDIÁRIO; Distância: 7,244 km</desc></wpt><wpt lat="-25.447430" lon="-49.263820"><name>8 - 108071 - Estação Tubo Almirante Gonçalves/n503 - Boqueirão (sentido Praça Carlos Gomes)</name><desc>ID: 171358; Tipo: INTERMEDIÁRIO; Distância: 9,123 km</desc></wpt><wpt lat="-25.438800" lon="-49.268110"><name>9 - 108214 - 550 - Pinheirinho / C. Gomes (sentido Praça Carlos Gomes)/n500 - Ligeirão Boqueirão</name><desc>ID: 171359; Tipo: INTERMEDIÁRIO; Distância: 10,127 km</desc></wpt><wpt lat="-25.433990" lon="-49.269170"><name>10 - 108215 - Praça Carlos Gomes - 550 - Ligeirão Pinheirinho / C. Gomes (sentido Pinheirinho)</name><desc>ID: 171360; Tipo: OBRIGATÓRIO; Distância: 10,782 km</desc></wpt></gpx>