<?xml version='1.0' encoding='utf-8'?>
<gpx version="1.1" creator="Conversor" xmlns="http://www.topografix.com/GPX/1/1" xmlns:xsi="http://www.w3.org/2001/XMLSchema-instance" xsi:schemaLocation="http://www.topografix.com/GPX/1/1 http://www.topografix.com/GPX/1/1/gpx.xsd"><metadata><name>550-ligeirao-volta</name></metadata><trk><name>550-ligeirao-volta</name><trkseg><trkpt lat="-25.434010" lon="-49.269230" /><trkpt lat="-25.433750" lon="-49.269370" /><trkpt lat="-25.433480" lon="-49.269490" /><trkpt lat="-25.433620" lon="-49.269820" /><trkpt lat="-25.433750" lon="-49.270180" /><trkpt lat="-25.433890" lon="-49.270580" /><trkpt lat="-25.434580" lon="-49.270250" /><trkpt lat="-25.434890" lon="-49.270090" /><trkpt lat="-25.435270" lon="-49.269920" /><trkpt lat="-25.435790" lon="-49.269670" /><trkpt lat="-25.436300" lon="-49.269410" /><trkpt lat="-25.436790" lon="-49.269180" /><trkpt lat="-25.437270" lon="-49.268950" /><trkpt lat="-25.437640" lon="-49.268770" /><trkpt lat="-25.437900" lon="-49.268640" /><trkpt lat="-25.438220" lon="-49.268470" /><trkpt lat="-25.438380" lon="-49.268390" /><trkpt lat="-25.438710" lon="-49.268230" /><trkpt lat="-25.438920" lon="-49.268130" /><trkpt lat="-25.439310" lon="-49.267940" /><trkpt lat="-25.439770" lon="-49.267720" /><trkpt lat="-25.439940" lon="-49.267640" /><trkpt lat="-25.440140" lon="-49.267540" /><trkpt lat="-25.440410" lon="-49.267420" /><trkpt lat="-25.440740" lon="-49.267250" /><trkpt lat="-25.441080" lon="-49.267090" /><trkpt lat="-25.441270" lon="-49.266990" /><trkpt lat="-25.441430" lon="-49.266910" /><trkpt lat="-25.441760" lon="-49.266760" /><trkpt lat="-25.441960" lon="-49.266660" /><trkpt lat="-25.442210" lon="-49.266530" /><trkpt lat="-25.442440" lon="-49.266420" /><trkpt lat="-25.442640" lon="-49.266320" /><trkpt lat="-25.442820" lon="-49.266220" /><trkpt lat="-25.442930" lon="-49.266130" /><trkpt lat="-25.443110" lon="-49.266030" /><trkpt lat="-25.443290" lon="-49.265940" /><trkpt lat="-25.443490" lon="-49.265870" /><trkpt lat="-25.443680" lon="-49.265790" /><trkpt lat="-25.443930" lon="-49.265660" /><trkpt lat="-25.444060" lon="-49.265590" /><trkpt lat="-25.444220" lon="-49.265480" /><trkpt lat="-25.444370" lon="-49.265410" /><trkpt lat="-25.444630" lon="-49.265280" /><trkpt lat="-25.445030" lon="-49.265090" /><trkpt lat="-25.445410" lon="-49.264900" /><trkpt lat="-25.445610" lon="-49.264800" /><trkpt lat="-25.446000" lon="-49.264620" /><trkpt lat="-25.446430" lon="-49.264420" /><trkpt lat="-25.446820" lon="-49.264240" /><trkpt lat="-25.446970" lon="-49.264130" /><trkpt lat="-25.447300" lon="-49.264000" /><trkpt lat="-25.447540" lon="-49.263880" /><trkpt lat="-25.447830" lon="-49.263720" /><trkpt lat="-25.448060" lon="-49.263580" /><trkpt lat="-25.448210" lon="-49.263500" /><trkpt lat="-25.448450" lon="-49.263380" /><trkpt lat="-25.448690" lon="-49.263270" /><trkpt lat="-25.448990" lon="-49.263140" /><trkpt lat="-25.449290" lon="-49.263000" /><trkpt lat="-25.449670" lon="-49.262810" /><trkpt lat="-25.449960" lon="-49.262670" /><trkpt lat="-25.450270" lon="-49.262520" /><trkpt lat="-25.450550" lon="-49.262390" /><trkpt lat="-25.450880" lon="-49.262250" /><trkpt lat="-25.451080" lon="-49.262160" /><trkpt lat="-25.451340" lon="-49.262070" /><trkpt lat="-25.451530" lon="-49.261980" /><trkpt lat="-25.451720" lon="-49.261880" /><trkpt lat="-25.451940" lon="-49.261750" /><trkpt lat="-25.452200" lon="-49.261610" /><trkpt lat="-25.452590" lon="-49.261420" /><trkpt lat="-25.452820" lon="-49.261310" /><trkpt lat="-25.453020" lon="-49.261220" /><trkpt lat="-25.453270" lon="-49.261100" /><trkpt lat="-25.453500" lon="-49.260990" /><trkpt lat="-25.453870" lon="-49.260810" /><trkpt lat="-25.454080" lon="-49.260710" /><trkpt lat="-25.454270" lon="-49.260640" /><trkpt lat="-25.454520" lon="-49.260520" /><trkpt lat="-25.454870" lon="-49.260340" /><trkpt lat="-25.455010" lon="-49.260250" /><trkpt lat="-25.455160" lon="-49.260160" /><trkpt lat="-25.455500" lon="-49.260000" /><trkpt lat="-25.455890" lon="-49.259820" /><trkpt lat="-25.456520" lon="-49.259520" /><trkpt lat="-25.456890" lon="-49.259330" /><trkpt lat="-25.457220" lon="-49.259180" /><trkpt lat="-25.457530" lon="-49.259010" /><trkpt lat="-25.457740" lon="-49.258910" /><trkpt lat="-25.458060" lon="-49.258800" /><trkpt lat="-25.458370" lon="-49.258640" /><trkpt lat="-25.458510" lon="-49.258560" /><trkpt lat="-25.458630" lon="-49.258490" /><trkpt lat="-25.458840" lon="-49.258370" /><trkpt lat="-25.459210" lon="-49.258180" /><trkpt lat="-25.459410" lon="-49.258100" /><trkpt lat="-25.459660" lon="-49.257980" /><trkpt lat="-25.460020" lon="-49.257810" /><trkpt lat="-25.460370" lon="-49.257630" /><trkpt lat="-25.460710" lon="-49.257470" /><trkpt lat="-25.461040" lon="-49.257310" /><trkpt lat="-25.461390" lon="-49.257130" /><trkpt lat="-25.461610" lon="-49.257030" /><trkpt lat="-25.461800" lon="-49.256940" /><trkpt lat="-25.462140" lon="-49.256780" /><trkpt lat="-25.462330" lon="-49.256670" /><trkpt lat="-25.462490" lon="-49.256610" /><trkpt lat="-25.462670" lon="-49.256540" /><trkpt lat="-25.463030" lon="-49.256360" /><trkpt lat="-25.463270" lon="-49.256260" /><trkpt lat="-25.463420" lon="-49.256180" /><trkpt lat="-25.463550" lon="-49.256090" /><trkpt lat="-25.463650" lon="-49.256020" /><trkpt lat="-25.463890" lon="-49.255900" /><trkpt lat="-25.464260" lon="-49.255730" /><trkpt lat="-25.464430" lon="-49.255640" /><trkpt lat="-25.464670" lon="-49.255520" /><trkpt lat="-25.464900" lon="-49.255400" /><trkpt lat="-25.465130" lon="-49.255290" /><trkpt lat="-25.465580" lon="-49.255080" /><trkpt lat="-25.465760" lon="-49.254990" /><trkpt lat="-25.466020" lon="-49.254850" /><trkpt lat="-25.466060" lon="-49.254820" /><trkpt lat="-25.466110" lon="-49.254790" /><trkpt lat="-25.466210" lon="-49.254710" /><trkpt lat="-25.466280" lon="-49.254670" /><trkpt lat="-25.466330" lon="-49.254640" /><trkpt lat="-25.466380" lon="-49.254620" /><trkpt lat="-25.466430" lon="-49.254610" /><trkpt lat="-25.466450" lon="-49.254600" /><trkpt lat="-25.466600" lon="-49.254530" /><trkpt lat="-25.466680" lon="-49.254480" /><trkpt lat="-25.466900" lon="-49.254380" /><trkpt lat="-25.466940" lon="-49.254350" /><trkpt lat="-25.467000" lon="-49.254280" /><trkpt lat="-25.467060" lon="-49.254190" /><trkpt lat="-25.467120" lon="-49.254130" /><trkpt lat="-25.467160" lon="-49.254080" /><trkpt lat="-25.467250" lon="-49.254000" /><trkpt lat="-25.467310" lon="-49.253950" /><trkpt lat="-25.467500" lon="-49.253790" /><trkpt lat="-25.467640" lon="-49.253690" /><trkpt lat="-25.467900" lon="-49.253480" /><trkpt lat="-25.468010" lon="-49.253400" /><trkpt lat="-25.468100" lon="-49.253340" /><trkpt lat="-25.468130" lon="-49.253310" /><trkpt lat="-25.468190" lon="-49.253290" /><trkpt lat="-25.468270" lon="-49.253290" /><trkpt lat="-25.468390" lon="-49.253320" /><trkpt lat="-25.468430" lon="-49.253350" /><trkpt lat="-25.468510" lon="-49.253400" /><trkpt lat="-25.468580" lon="-49.253460" /><trkpt lat="-25.468650" lon="-49.253510" /><trkpt lat="-25.468710" lon="-49.253560" /><trkpt lat="-25.468860" lon="-49.253680" /><trkpt lat="-25.469030" lon="-49.253810" /><trkpt lat="-25.469160" lon="-49.253920" /><trkpt lat="-25.469320" lon="-49.254040" /><trkpt lat="-25.469520" lon="-49.254210" /><trkpt lat="-25.469630" lon="-49.254290" /><trkpt lat="-25.469770" lon="-49.254420" /><trkpt lat="-25.469900" lon="-49.254530" /><trkpt lat="-25.469970" lon="-49.254600" /><trkpt lat="-25.470020" lon="-49.254660" /><trkpt lat="-25.470070" lon="-49.254710" /><trkpt lat="-25.470130" lon="-49.254780" /><trkpt lat="-25.470170" lon="-49.254820" /><trkpt lat="-25.470210" lon="-49.254850" /><trkpt lat="-25.470270" lon="-49.254900" /><trkpt lat="-25.470300" lon="-49.254910" /><trkpt lat="-25.470410" lon="-49.254990" /><trkpt lat="-25.470510" lon="-49.255070" /><trkpt lat="-25.470800" lon="-49.255300" /><trkpt lat="-25.470940" lon="-49.255420" /><trkpt lat="-25.471130" lon="-49.255560" /><trkpt lat="-25.471360" lon="-49.255760" /><trkpt lat="-25.471450" lon="-49.255830" /><trkpt lat="-25.471760" lon="-49.256080" /><trkpt lat="-25.472080" lon="-49.256340" /><trkpt lat="-25.472300" lon="-49.256510" /><trkpt lat="-25.472510" lon="-49.256680" /><trkpt lat="-25.472730" lon="-49.256860" /><trkpt lat="-25.472880" lon="-49.256980" /><trkpt lat="-25.473150" lon="-49.257200" /><trkpt lat="-25.473410" lon="-49.257410" /><trkpt lat="-25.473670" lon="-49.257610" /><trkpt lat="-25.473930" lon="-49.257820" /><trkpt lat="-25.474200" lon="-49.258040" /><trkpt lat="-25.474400" lon="-49.258210" /><trkpt lat="-25.474700" lon="-49.258470" /><trkpt lat="-25.475040" lon="-49.258750" /><trkpt lat="-25.475380" lon="-49.259010" /><trkpt lat="-25.475600" lon="-49.259210" /><trkpt lat="-25.475780" lon="-49.259350" /><trkpt lat="-25.475910" lon="-49.259450" /><trkpt lat="-25.476080" lon="-49.259560" /><trkpt lat="-25.476190" lon="-49.259630" /><trkpt lat="-25.476310" lon="-49.259700" /><trkpt lat="-25.476460" lon="-49.259810" /><trkpt lat="-25.476660" lon="-49.259950" /><trkpt lat="-25.476810" lon="-49.260050" /><trkpt lat="-25.476880" lon="-49.260100" /><trkpt lat="-25.477190" lon="-49.260330" /><trkpt lat="-25.477450" lon="-49.260540" /><trkpt lat="-25.477710" lon="-49.260750" /><trkpt lat="-25.477950" lon="-49.260930" /><trkpt lat="-25.478180" lon="-49.261120" /><trkpt lat="-25.478400" lon="-49.261300" /><trkpt lat="-25.478630" lon="-49.261480" /><trkpt lat="-25.478850" lon="-49.261660" /><trkpt lat="-25.479070" lon="-49.261840" /><trkpt lat="-25.479300" lon="-49.262030" /><trkpt lat="-25.479410" lon="-49.262120" /><trkpt lat="-25.479580" lon="-49.262260" /><trkpt lat="-25.479980" lon="-49.262580" /><trkpt lat="-25.480890" lon="-49.263310" /><trkpt lat="-25.481200" lon="-49.263570" /><trkpt lat="-25.481500" lon="-49.263810" /><trkpt lat="-25.481680" lon="-49.263960" /><trkpt lat="-25.481840" lon="-49.264090" /><trkpt lat="-25.482160" lon="-49.264340" /><trkpt lat="-25.482320" lon="-49.264470" /><trkpt lat="-25.482480" lon="-49.264610" /><trkpt lat="-25.482800" lon="-49.264860" /><trkpt lat="-25.482990" lon="-49.265020" /><trkpt lat="-25.483170" lon="-49.265170" /><trkpt lat="-25.483460" lon="-49.265420" /><trkpt lat="-25.483560" lon="-49.265510" /><trkpt lat="-25.483670" lon="-49.265600" /><trkpt lat="-25.483790" lon="-49.265720" /><trkpt lat="-25.483950" lon="-49.265860" /><trkpt lat="-25.484160" lon="-49.266060" /><trkpt lat="-25.484390" lon="-49.266270" /><trkpt lat="-25.484490" lon="-49.266350" /><trkpt lat="-25.484600" lon="-49.266430" /><trkpt lat="-25.484720" lon="-49.266520" /><trkpt lat="-25.484860" lon="-49.266640" /><trkpt lat="-25.485090" lon="-49.266830" /><trkpt lat="-25.485340" lon="-49.267030" /><trkpt lat="-25.485530" lon="-49.267180" /><trkpt lat="-25.485660" lon="-49.267300" /><trkpt lat="-25.485820" lon="-49.267420" /><trkpt lat="-25.486020" lon="-49.267570" /><trkpt lat="-25.486240" lon="-49.267730" /><trkpt lat="-25.486430" lon="-49.267880" /><trkpt lat="-25.486640" lon="-49.268020" /><trkpt lat="-25.486810" lon="-49.268140" /><trkpt lat="-25.486900" lon="-49.268210" /><trkpt lat="-25.486990" lon="-49.268270" /><trkpt lat="-25.487200" lon="-49.268430" /><trkpt lat="-25.487340" lon="-49.268550" /><trkpt lat="-25.487470" lon="-49.268650" /><trkpt lat="-25.487730" lon="-49.268860" /><trkpt lat="-25.487910" lon="-49.269000" /><trkpt lat="-25.488010" lon="-49.269070" /><trkpt lat="-25.488100" lon="-49.269150" /><trkpt lat="-25.488270" lon="-49.269290" /><trkpt lat="-25.488450" lon="-49.269430" /><trkpt lat="-25.488630" lon="-49.269580" /><trkpt lat="-25.488830" lon="-49.269750" /><trkpt lat="-25.489030" lon="-49.269910" /><trkpt lat="-25.489140" lon="-49.270000" /><trkpt lat="-25.489200" lon="-49.270050" /><trkpt lat="-25.489260" lon="-49.270100" /><trkpt lat="-25.489490" lon="-49.270280" /><trkpt lat="-25.490360" lon="-49.270990" /><trkpt lat="-25.490580" lon="-49.271170" /><trkpt lat="-25.490690" lon="-49.271260" /><trkpt lat="-25.490800" lon="-49.271340" /><trkpt lat="-25.490910" lon="-49.271430" /><trkpt lat="-25.491030" lon="-49.271530" /><trkpt lat="-25.491240" lon="-49.271700" /><trkpt lat="-25.491450" lon="-49.271870" /><trkpt lat="-25.491660" lon="-49.272040" /><trkpt lat="-25.491900" lon="-49.272220" /><trkpt lat="-25.492260" lon="-49.272520" /><trkpt lat="-25.492480" lon="-49.272690" /><trkpt lat="-25.492750" lon="-49.272910" /><trkpt lat="-25.493020" lon="-49.273140" /><trkpt lat="-25.493410" lon="-49.273440" /><trkpt lat="-25.493670" lon="-49.273650" /><trkpt lat="-25.493900" lon="-49.273850" /><trkpt lat="-25.494070" lon="-49.273990" /><trkpt lat="-25.494180" lon="-49.274070" /><trkpt lat="-25.494450" lon="-49.274330" /><trkpt lat="-25.494570" lon="-49.274440" /><trkpt lat="-25.494700" lon="-49.274570" /><trkpt lat="-25.494890" lon="-49.274760" /><trkpt lat="-25.495120" lon="-49.274980" /><trkpt lat="-25.495360" lon="-49.275190" /><trkpt lat="-25.495460" lon="-49.275280" /><trkpt lat="-25.495560" lon="-49.275370" /><trkpt lat="-25.495640" lon="-49.275440" /><trkpt lat="-25.495800" lon="-49.275570" /><trkpt lat="-25.495810" lon="-49.275580" /><trkpt lat="-25.495900" lon="-49.275660" /><trkpt lat="-25.495960" lon="-49.275700" /><trkpt lat="-25.496030" lon="-49.275750" /><trkpt lat="-25.496090" lon="-49.275790" /><trkpt lat="-25.496150" lon="-49.275840" /><trkpt lat="-25.496360" lon="-49.276010" /><trkpt lat="-25.496550" lon="-49.276170" /><trkpt lat="-25.496740" lon="-49.276320" /><trkpt lat="-25.496920" lon="-49.276470" /><trkpt lat="-25.497100" lon="-49.276610" /><trkpt lat="-25.497320" lon="-49.276790" /><trkpt lat="-25.497530" lon="-49.276970" /><trkpt lat="-25.497820" lon="-49.277200" /><trkpt lat="-25.497990" lon="-49.277330" /><trkpt lat="-25.498240" lon="-49.277510" /><trkpt lat="-25.498330" lon="-49.277570" /><trkpt lat="-25.498430" lon="-49.277650" /><trkpt lat="-25.498540" lon="-49.277730" /><trkpt lat="-25.498660" lon="-49.277820" /><trkpt lat="-25.498780" lon="-49.277920" /><trkpt lat="-25.498930" lon="-49.278040" /><trkpt lat="-25.499220" lon="-49.278280" /><trkpt lat="-25.499370" lon="-49.278400" /><trkpt lat="-25.499520" lon="-49.278520" /><trkpt lat="-25.499830" lon="-49.278760" /><trkpt lat="-25.500030" lon="-49.278920" /><trkpt lat="-25.500230" lon="-49.279080" /><trkpt lat="-25.500480" lon="-49.279280" /><trkpt lat="-25.500630" lon="-49.279400" /><trkpt lat="-25.500780" lon="-49.279530" /><trkpt lat="-25.501030" lon="-49.279730" /><trkpt lat="-25.501240" lon="-49.279890" /><trkpt lat="-25.501330" lon="-49.279970" /><trkpt lat="-25.501440" lon="-49.280060" /><trkpt lat="-25.501550" lon="-49.280150" /><trkpt lat="-25.501660" lon="-49.280240" /><trkpt lat="-25.501780" lon="-49.280330" /><trkpt lat="-25.501880" lon="-49.280420" /><trkpt lat="-25.501990" lon="-49.280510" /><trkpt lat="-25.502100" lon="-49.280590" /><trkpt lat="-25.502200" lon="-49.280670" /><trkpt lat="-25.502310" lon="-49.280760" /><trkpt lat="-25.502510" lon="-49.280930" /><trkpt lat="-25.502720" lon="-49.281100" /><trkpt lat="-25.502990" lon="-49.281310" /><trkpt lat="-25.503160" lon="-49.281450" /><trkpt lat="-25.503400" lon="-49.281640" /><trkpt lat="-25.503620" lon="-49.281820" /><trkpt lat="-25.503860" lon="-49.282010" /><trkpt lat="-25.504100" lon="-49.282210" /><trkpt lat="-25.504240" lon="-49.282320" /><trkpt lat="-25.504400" lon="-49.282450" /><trkpt lat="-25.504500" lon="-49.282530" /><trkpt lat="-25.504600" lon="-49.282610" /><trkpt lat="-25.504820" lon="-49.282790" /><trkpt lat="-25.504950" lon="-49.282900" /><trkpt lat="-25.505020" lon="-49.282950" /><trkpt lat="-25.505090" lon="-49.283000" /><trkpt lat="-25.505220" lon="-49.283110" /><trkpt lat="-25.505350" lon="-49.283220" /><trkpt lat="-25.505490" lon="-49.283330" /><trkpt lat="-25.505620" lon="-49.283440" /><trkpt lat="-25.505800" lon="-49.283580" /><trkpt lat="-25.505980" lon="-49.283720" /><trkpt lat="-25.506170" lon="-49.283880" /><trkpt lat="-25.506450" lon="-49.284110" /><trkpt lat="-25.506600" lon="-49.284230" /><trkpt lat="-25.506670" lon="-49.284280" /><trkpt lat="-25.506750" lon="-49.284350" /><trkpt lat="-25.507340" lon="-49.284840" /><trkpt lat="-25.507500" lon="-49.284970" /><trkpt lat="-25.507750" lon="-49.285170" /><trkpt lat="-25.507970" lon="-49.285360" /><trkpt lat="-25.508080" lon="-49.285440" /><trkpt lat="-25.508200" lon="-49.285540" /><trkpt lat="-25.508400" lon="-49.285700" /><trkpt lat="-25.508510" lon="-49.285790" /><trkpt lat="-25.508630" lon="-49.285880" /><trkpt lat="-25.508850" lon="-49.286050" /><trkpt lat="-25.509060" lon="-49.286220" /><trkpt lat="-25.509170" lon="-49.286310" /><trkpt lat="-25.509280" lon="-49.286390" /><trkpt lat="-25.509390" lon="-49.286490" /><trkpt lat="-25.509510" lon="-49.286580" /><trkpt lat="-25.509720" lon="-49.286760" /><trkpt lat="-25.509920" lon="-49.286920" /><trkpt lat="-25.510020" lon="-49.287000" /><trkpt lat="-25.510100" lon="-49.287070" /><trkpt lat="-25.510190" lon="-49.287140" /><trkpt lat="-25.510280" lon="-49.287210" /><trkpt lat="-25.510320" lon="-49.287250" /><trkpt lat="-25.510380" lon="-49.287290" /><trkpt lat="-25.510610" lon="-49.287480" /><trkpt lat="-25.510840" lon="-49.287660" /><trkpt lat="-25.511050" lon="-49.287830" /><trkpt lat="-25.511270" lon="-49.288010" /><trkpt lat="-25.511470" lon="-49.288180" /><trkpt lat="-25.511680" lon="-49.288340" /><trkpt lat="-25.511890" lon="-49.288520" /><trkpt lat="-25.512090" lon="-49.288680" /><trkpt lat="-25.512290" lon="-49.288840" /><trkpt lat="-25.512380" lon="-49.288910" /><trkpt lat="-25.512450" lon="-49.288980" /><trkpt lat="-25.512520" lon="-49.289050" /><trkpt lat="-25.512560" lon="-49.289120" /><trkpt lat="-25.512610" lon="-49.289210" /><trkpt lat="-25.512620" lon="-49.289250" /><trkpt lat="-25.512640" lon="-49.289330" /><trkpt lat="-25.512650" lon="-49.289420" /><trkpt lat="-25.512650" lon="-49.289480" /><trkpt lat="-25.512640" lon="-49.289580" /><trkpt lat="-25.512610" lon="-49.289680" /><trkpt lat="-25.512570" lon="-49.289790" /><trkpt lat="-25.512540" lon="-49.289850" /><trkpt lat="-25.512470" lon="-49.289990" /><trkpt lat="-25.512420" lon="-49.290100" /><trkpt lat="-25.512360" lon="-49.290210" /><trkpt lat="-25.512190" lon="-49.290560" /><trkpt lat="-25.511980" lon="-49.290980" /><trkpt lat="-25.511840" lon="-49.291280" /><trkpt lat="-25.511670" lon="-49.291610" /><trkpt lat="-25.511510" lon="-49.291940" /><trkpt lat="-25.511470" lon="-49.292040" /><trkpt lat="-25.511440" lon="-49.292130" /><trkpt lat="-25.511420" lon="-49.292230" /><trkpt lat="-25.511410" lon="-49.292310" /><trkpt lat="-25.511400" lon="-49.292380" /><trkpt lat="-25.511400" lon="-49.292490" /><trkpt lat="-25.511410" lon="-49.292600" /><trkpt lat="-25.511430" lon="-49.292730" /><trkpt lat="-25.511530" lon="-49.293070" /><trkpt lat="-25.511610" lon="-49.293350" /><trkpt lat="-25.511670" lon="-49.293610" /><trkpt lat="-25.511710" lon="-49.293850" /><trkpt lat="-25.511730" lon="-49.294040" /><trkpt lat="-25.511740" lon="-49.294340" /><trkpt lat="-25.511770" lon="-49.294960" /><trkpt lat="-25.513470" lon="-49.294900" /><trkpt lat="-25.513460" lon="-49.294610" /><trkpt lat="-25.512100" lon="-49.294650" /></trkseg></trk><wpt lat="-25.433990" lon="-49.269170"><name>1 - 108215 - Praça Carlos Gomes - 550 - Ligeirão Pinheirinho / C. Gomes (sentido Pinheirinho)</name><desc>ID: 171360; Tipo: OBRIGATÓRIO; Distância: 0,000 km</desc></wpt><wpt lat="-25.439070" lon="-49.268100"><name>2 - 108213 - Estação Tubo UTFPR/n550 - Ligeirão Pinheirinho / C. Gomes</name><desc>ID: 171361; Tipo: INTERMEDIÁRIO; Distância: 0,787 km</desc></wpt><wpt lat="-25.448490" lon="-49.263410"><name>3 - 108072 - Estação Tubo Almirante Gonçalves/n503 - Boqueirão (sentido Boqueirão)</name><desc>ID: 171362; Tipo: INTERMEDIÁRIO; Distância: 1,932 km</desc></wpt><wpt lat="-25.463040" lon="-49.256410"><name>4 - 108079 - Estação Tubo Parolin/n503 - Boqueirão (sentido Boqueirão)/n550 - Ligeirão Pinheirinho / C. Gomes (sentido Pinheirinho)</name><desc>ID: 171363; Tipo: INTERMEDIÁRIO; Distância: 3,675 km</desc></wpt><wpt lat="-25.469140" lon="-49.254030"><name>5 - 108211 - Estação Tubo Marechal Floriano/n550 - Ligeirão Pinheirinho / C. Gomes (sentido Pinheirinho)/n602 - Circular Sul (AH) (sentido Portão)/n605 - Ctba / Faz. Rio Grande (sentido Fazenda Rio Grande)/n350 - Atuba / Pinheirinho</name><desc>ID: 171364; Tipo: INTERMEDIÁRIO; Distância: 4,434 km</desc></wpt><wpt lat="-25.474840" lon="-49.258700"><name>6 - 108210 - Estação Tubo Fanny/n550 - Ligeirão Pinheirinho / C. Gomes (sentido Pinheirinho)/n616 - Portão / Sta Bernadete / L.Verde (sentido Portão)/n621- Fanny (sentido Hauer)/n350 - Atuba / Pinheirinho</name><desc>ID: 171365; Tipo: INTERMEDIÁRIO; Distância: 5,233 km</desc></wpt><wpt lat="-25.485110" lon="-49.266980"><name>7 - 108208 - Estação Tubo Santa Bernadethe/n550 - Ligeirão Pinheirinho / C. Gomes (sentido Pinheirinho)/n616 - Portão / Sta Bernadete / L. Verde (sentido Portão)/n350 - Atuba / Pinheirinho</name><desc>ID: 171366; Tipo: INTERMEDIÁRIO; Distância: 6,592 km</desc></wpt><wpt lat="-25.496640" lon="-49.276370"><name>8 - 108206 - 657 - Xaxim / C. Raso (Sentido Xaxim)/n350 - Atuba / Pinheirinho/n550 / Ligeirão Pinheirinho / C. Gomes/n629 - Alto Boqueirão/n707 - Tatuquara / Centro (Sentido Centro)</name><desc>ID: 171367; Tipo: INTERMEDIÁRIO; Distância: 8,168 km</desc></wpt><wpt lat="-25.506730" lon="-49.284470"><name>9 - 108204 - Estação Tubo Vila São Pedro/n550 - Ligeirão Pinheirinho / C. Gomes (sentido Pinheirinho)/n625 - Gramados (sentido Terminal S. Cercado)/n350 - Atuba / Pinheirinho</name><desc>ID: 171368; Tipo: INTERMEDIÁRIO; Distância: 9,517 km</desc></wpt><wpt lat="-25.512100" lon="-49.294660"><name>10 - 105704 - Terminal Pinheirinho/n550 - Pinheirinho / C. Gomes (sentido Praça Carlos Gomes)</name><desc>ID: 171351; Tipo: OBRIGATÓRIO; Distância: 11,287 km</desc></wpt></gpx>