<?xml version='1.0' encoding='utf-8'?>
<gpx version="1.1" creator="Conversor" xmlns="http://www.topografix.com/GPX/1/1" xmlns:xsi="http://www.w3.org/2001/XMLSchema-instance" xsi:schemaLocation="http://www.topografix.com/GPX/1/1 http://www.topografix.com/GPX/1/1/gpx.xsd"><metadata><name>602-circular_sul-expresso</name></metadata><trk><name>602-circular_sul-expresso</name><trkseg><trkpt lat="-25.476401" lon="-49.292648" /><trkpt lat="-25.476716" lon="-49.292523" /><trkpt lat="-25.476907" lon="-49.292450" /><trkpt lat="-25.477149" lon="-49.292368" /><trkpt lat="-25.477646" lon="-49.292197" /><trkpt lat="-25.477793" lon="-49.292146" /><trkpt lat="-25.477916" lon="-49.292108" /><trkpt lat="-25.478031" lon="-49.292107" /><trkpt lat="-25.478496" lon="-49.292145" /><trkpt lat="-25.478824" lon="-49.292169" /><trkpt lat="-25.479132" lon="-49.292198" /><trkpt lat="-25.479630" lon="-49.292259" /><trkpt lat="-25.479798" lon="-49.292304" /><trkpt lat="-25.480120" lon="-49.292411" /><trkpt lat="-25.480257" lon="-49.292453" /><trkpt lat="-25.480359" lon="-49.292492" /><trkpt lat="-25.480747" lon="-49.292537" /><trkpt lat="-25.480942" lon="-49.292544" /><trkpt lat="-25.481121" lon="-49.292572" /><trkpt lat="-25.481251" lon="-49.292583" /><trkpt lat="-25.481435" lon="-49.292616" /><trkpt lat="-25.481567" lon="-49.292657" /><trkpt lat="-25.481910" lon="-49.292776" /><trkpt lat="-25.482211" lon="-49.292893" /><trkpt lat="-25.482345" lon="-49.292951" /><trkpt lat="-25.482805" lon="-49.293123" /><trkpt lat="-25.483420" lon="-49.293360" /><trkpt lat="-25.483981" lon="-49.293572" /><trkpt lat="-25.484343" lon="-49.293710" /><trkpt lat="-25.484561" lon="-49.293793" /><trkpt lat="-25.484755" lon="-49.293864" /><trkpt lat="-25.485111" lon="-49.293976" /><trkpt lat="-25.485545" lon="-49.294093" /><trkpt lat="-25.485840" lon="-49.294151" /><trkpt lat="-25.486126" lon="-49.294213" /><trkpt lat="-25.486367" lon="-49.294267" /><trkpt lat="-25.486576" lon="-49.294316" /><trkpt lat="-25.486803" lon="-49.294360" /><trkpt lat="-25.487032" lon="-49.294374" /><trkpt lat="-25.487228" lon="-49.294363" /><trkpt lat="-25.487399" lon="-49.294343" /><trkpt lat="-25.487641" lon="-49.294312" /><trkpt lat="-25.488455" lon="-49.294202" /><trkpt lat="-25.488867" lon="-49.294149" /><trkpt lat="-25.489420" lon="-49.294078" /><trkpt lat="-25.489671" lon="-49.294043" /><trkpt lat="-25.489892" lon="-49.294015" /><trkpt lat="-25.490298" lon="-49.293955" /><trkpt lat="-25.490752" lon="-49.293902" /><trkpt lat="-25.491093" lon="-49.293858" /><trkpt lat="-25.491423" lon="-49.293814" /><trkpt lat="-25.491592" lon="-49.293756" /><trkpt lat="-25.491570" lon="-49.293684" /><trkpt lat="-25.491689" lon="-49.293645" /><trkpt lat="-25.491774" lon="-49.293638" /><trkpt lat="-25.491939" lon="-49.293618" /><trkpt lat="-25.492372" lon="-49.293563" /><trkpt lat="-25.492525" lon="-49.293579" /><trkpt lat="-25.492601" lon="-49.293690" /><trkpt lat="-25.493031" lon="-49.293753" /><trkpt lat="-25.493363" lon="-49.293805" /><trkpt lat="-25.493841" lon="-49.293873" /><trkpt lat="-25.494055" lon="-49.293906" /><trkpt lat="-25.494316" lon="-49.293948" /><trkpt lat="-25.494518" lon="-49.293974" /><trkpt lat="-25.494702" lon="-49.294054" /><trkpt lat="-25.494858" lon="-49.294145" /><trkpt lat="-25.495096" lon="-49.294288" /><trkpt lat="-25.495316" lon="-49.294413" /><trkpt lat="-25.495705" lon="-49.294641" /><trkpt lat="-25.495845" lon="-49.294690" /><trkpt lat="-25.496051" lon="-49.294742" /><trkpt lat="-25.496153" lon="-49.294794" /><trkpt lat="-25.496389" lon="-49.294928" /><trkpt lat="-25.496782" lon="-49.295166" /><trkpt lat="-25.497000" lon="-49.295298" /><trkpt lat="-25.497254" lon="-49.295441" /><trkpt lat="-25.497508" lon="-49.295578" /><trkpt lat="-25.497752" lon="-49.295676" /><trkpt lat="-25.497926" lon="-49.295730" /><trkpt lat="-25.498308" lon="-49.295823" /><trkpt lat="-25.498436" lon="-49.295855" /><trkpt lat="-25.498892" lon="-49.295951" /><trkpt lat="-25.499241" lon="-49.296009" /><trkpt lat="-25.499457" lon="-49.296038" /><trkpt lat="-25.499556" lon="-49.296047" /><trkpt lat="-25.499690" lon="-49.296056" /><trkpt lat="-25.500023" lon="-49.296069" /><trkpt lat="-25.500178" lon="-49.296073" /><trkpt lat="-25.500314" lon="-49.296071" /><trkpt lat="-25.500562" lon="-49.296067" /><trkpt lat="-25.500847" lon="-49.296061" /><trkpt lat="-25.501326" lon="-49.296047" /><trkpt lat="-25.501579" lon="-49.296040" /><trkpt lat="-25.501761" lon="-49.296036" /><trkpt lat="-25.501973" lon="-49.296033" /><trkpt lat="-25.502388" lon="-49.296022" /><trkpt lat="-25.502926" lon="-49.296008" /><trkpt lat="-25.503429" lon="-49.295996" /><trkpt lat="-25.503658" lon="-49.295993" /><trkpt lat="-25.503931" lon="-49.295982" /><trkpt lat="-25.504283" lon="-49.295974" /><trkpt lat="-25.504792" lon="-49.295961" /><trkpt lat="-25.505284" lon="-49.295947" /><trkpt lat="-25.505898" lon="-49.295933" /><trkpt lat="-25.506461" lon="-49.295921" /><trkpt lat="-25.507105" lon="-49.295900" /><trkpt lat="-25.507683" lon="-49.295894" /><trkpt lat="-25.508257" lon="-49.295873" /><trkpt lat="-25.508790" lon="-49.295861" /><trkpt lat="-25.509372" lon="-49.295842" /><trkpt lat="-25.509843" lon="-49.295831" /><trkpt lat="-25.510250" lon="-49.295817" /><trkpt lat="-25.510777" lon="-49.295807" /><trkpt lat="-25.511163" lon="-49.295794" /><trkpt lat="-25.511661" lon="-49.295783" /><trkpt lat="-25.511768" lon="-49.295778" /><trkpt lat="-25.511804" lon="-49.295665" /><trkpt lat="-25.512313" lon="-49.295643" /><trkpt lat="-25.512845" lon="-49.295622" /><trkpt lat="-25.513437" lon="-49.295606" /><trkpt lat="-25.513534" lon="-49.295604" /><trkpt lat="-25.513626" lon="-49.295683" /><trkpt lat="-25.513987" lon="-49.295673" /><trkpt lat="-25.514289" lon="-49.295661" /><trkpt lat="-25.514897" lon="-49.295642" /><trkpt lat="-25.515123" lon="-49.295637" /><trkpt lat="-25.515263" lon="-49.295642" /><trkpt lat="-25.515996" lon="-49.295656" /><trkpt lat="-25.516331" lon="-49.295649" /><trkpt lat="-25.516650" lon="-49.295639" /><trkpt lat="-25.516965" lon="-49.295633" /><trkpt lat="-25.517556" lon="-49.295615" /><trkpt lat="-25.518412" lon="-49.295591" /><trkpt lat="-25.518924" lon="-49.295577" /><trkpt lat="-25.519462" lon="-49.295563" /><trkpt lat="-25.519821" lon="-49.295553" /><trkpt lat="-25.520464" lon="-49.295536" /><trkpt lat="-25.520906" lon="-49.295522" /><trkpt lat="-25.521170" lon="-49.295525" /><trkpt lat="-25.521500" lon="-49.295529" /><trkpt lat="-25.521652" lon="-49.295521" /><trkpt lat="-25.521780" lon="-49.295506" /><trkpt lat="-25.521876" lon="-49.295484" /><trkpt lat="-25.521978" lon="-49.295429" /><trkpt lat="-25.522085" lon="-49.295374" /><trkpt lat="-25.522373" lon="-49.295117" /><trkpt lat="-25.522583" lon="-49.294950" /><trkpt lat="-25.522764" lon="-49.294765" /><trkpt lat="-25.522915" lon="-49.294616" /><trkpt lat="-25.523033" lon="-49.294492" /><trkpt lat="-25.523326" lon="-49.294122" /><trkpt lat="-25.523453" lon="-49.293957" /><trkpt lat="-25.523858" lon="-49.293415" /><trkpt lat="-25.524053" lon="-49.293163" /><trkpt lat="-25.524133" lon="-49.293063" /><trkpt lat="-25.524218" lon="-49.292982" /><trkpt lat="-25.524302" lon="-49.292905" /><trkpt lat="-25.524402" lon="-49.292835" /><trkpt lat="-25.524712" lon="-49.292622" /><trkpt lat="-25.524878" lon="-49.292532" /><trkpt lat="-25.525193" lon="-49.292384" /><trkpt lat="-25.525401" lon="-49.292294" /><trkpt lat="-25.525528" lon="-49.292265" /><trkpt lat="-25.525659" lon="-49.292251" /><trkpt lat="-25.525793" lon="-49.292257" /><trkpt lat="-25.525928" lon="-49.292284" /><trkpt lat="-25.526028" lon="-49.292316" /><trkpt lat="-25.526146" lon="-49.292369" /><trkpt lat="-25.526243" lon="-49.292436" /><trkpt lat="-25.526359" lon="-49.292519" /><trkpt lat="-25.526477" lon="-49.292609" /><trkpt lat="-25.526588" lon="-49.292686" /><trkpt lat="-25.526693" lon="-49.292732" /><trkpt lat="-25.526757" lon="-49.292744" /><trkpt lat="-25.526815" lon="-49.292740" /><trkpt lat="-25.526886" lon="-49.292730" /><trkpt lat="-25.526978" lon="-49.292693" /><trkpt lat="-25.527082" lon="-49.292634" /><trkpt lat="-25.527212" lon="-49.292482" /><trkpt lat="-25.527348" lon="-49.292357" /><trkpt lat="-25.527450" lon="-49.292261" /><trkpt lat="-25.527566" lon="-49.292129" /><trkpt lat="-25.527787" lon="-49.291826" /><trkpt lat="-25.528105" lon="-49.291414" /><trkpt lat="-25.528259" lon="-49.291184" /><trkpt lat="-25.528424" lon="-49.290963" /><trkpt lat="-25.528897" lon="-49.290326" /><trkpt lat="-25.529153" lon="-49.289990" /><trkpt lat="-25.529377" lon="-49.289702" /><trkpt lat="-25.529716" lon="-49.289258" /><trkpt lat="-25.529782" lon="-49.289170" /><trkpt lat="-25.529890" lon="-49.289022" /><trkpt lat="-25.530054" lon="-49.288797" /><trkpt lat="-25.530352" lon="-49.288405" /><trkpt lat="-25.530528" lon="-49.288178" /><trkpt lat="-25.530707" lon="-49.287932" /><trkpt lat="-25.530795" lon="-49.287820" /><trkpt lat="-25.530843" lon="-49.287790" /><trkpt lat="-25.530885" lon="-49.287728" /><trkpt lat="-25.530905" lon="-49.287676" /><trkpt lat="-25.531097" lon="-49.287421" /><trkpt lat="-25.531324" lon="-49.287123" /><trkpt lat="-25.531548" lon="-49.286825" /><trkpt lat="-25.531688" lon="-49.286640" /><trkpt lat="-25.531922" lon="-49.286334" /><trkpt lat="-25.532321" lon="-49.285802" /><trkpt lat="-25.532703" lon="-49.285308" /><trkpt lat="-25.533112" lon="-49.284775" /><trkpt lat="-25.533246" lon="-49.284603" /><trkpt lat="-25.533386" lon="-49.284423" /><trkpt lat="-25.533553" lon="-49.284187" /><trkpt lat="-25.533695" lon="-49.284001" /><trkpt lat="-25.533854" lon="-49.283784" /><trkpt lat="-25.534053" lon="-49.283522" /><trkpt lat="-25.534262" lon="-49.283249" /><trkpt lat="-25.534540" lon="-49.282873" /><trkpt lat="-25.534648" lon="-49.282767" /><trkpt lat="-25.534693" lon="-49.282705" /><trkpt lat="-25.534736" lon="-49.282614" /><trkpt lat="-25.534949" lon="-49.282334" /><trkpt lat="-25.535018" lon="-49.282190" /><trkpt lat="-25.535256" lon="-49.281681" /><trkpt lat="-25.535551" lon="-49.281039" /><trkpt lat="-25.535827" lon="-49.280451" /><trkpt lat="-25.536172" lon="-49.279710" /><trkpt lat="-25.536337" lon="-49.279344" /><trkpt lat="-25.536510" lon="-49.278972" /><trkpt lat="-25.536617" lon="-49.278746" /><trkpt lat="-25.536670" lon="-49.278634" /><trkpt lat="-25.536706" lon="-49.278549" /><trkpt lat="-25.536728" lon="-49.278472" /><trkpt lat="-25.536744" lon="-49.278399" /><trkpt lat="-25.536751" lon="-49.278335" /><trkpt lat="-25.536751" lon="-49.278268" /><trkpt lat="-25.536738" lon="-49.278140" /><trkpt lat="-25.536695" lon="-49.277971" /><trkpt lat="-25.536603" lon="-49.277792" /><trkpt lat="-25.536541" lon="-49.277663" /><trkpt lat="-25.536487" lon="-49.277457" /><trkpt lat="-25.536365" lon="-49.276937" /><trkpt lat="-25.536284" lon="-49.276595" /><trkpt lat="-25.536145" lon="-49.276031" /><trkpt lat="-25.536068" lon="-49.275668" /><trkpt lat="-25.536005" lon="-49.275418" /><trkpt lat="-25.535909" lon="-49.275019" /><trkpt lat="-25.535833" lon="-49.274674" /><trkpt lat="-25.535815" lon="-49.274579" /><trkpt lat="-25.535779" lon="-49.274420" /><trkpt lat="-25.535746" lon="-49.274339" /><trkpt lat="-25.535704" lon="-49.274150" /><trkpt lat="-25.535665" lon="-49.273978" /><trkpt lat="-25.535534" lon="-49.273432" /><trkpt lat="-25.535450" lon="-49.273081" /><trkpt lat="-25.535362" lon="-49.272712" /><trkpt lat="-25.535222" lon="-49.272120" /><trkpt lat="-25.535090" lon="-49.271570" /><trkpt lat="-25.535039" lon="-49.271360" /><trkpt lat="-25.534988" lon="-49.271126" /><trkpt lat="-25.534899" lon="-49.270748" /><trkpt lat="-25.534830" lon="-49.270467" /><trkpt lat="-25.534730" lon="-49.270061" /><trkpt lat="-25.534681" lon="-49.269882" /><trkpt lat="-25.534637" lon="-49.269661" /><trkpt lat="-25.534547" lon="-49.269328" /><trkpt lat="-25.534451" lon="-49.268958" /><trkpt lat="-25.534435" lon="-49.268867" /><trkpt lat="-25.534390" lon="-49.268641" /><trkpt lat="-25.534382" lon="-49.268597" /><trkpt lat="-25.534379" lon="-49.268506" /><trkpt lat="-25.534373" lon="-49.268370" /><trkpt lat="-25.534178" lon="-49.267580" /><trkpt lat="-25.534120" lon="-49.267344" /><trkpt lat="-25.534090" lon="-49.267249" /><trkpt lat="-25.534012" lon="-49.267195" /><trkpt lat="-25.533977" lon="-49.267163" /><trkpt lat="-25.533944" lon="-49.267108" /><trkpt lat="-25.533933" lon="-49.267063" /><trkpt lat="-25.533929" lon="-49.267006" /><trkpt lat="-25.533933" lon="-49.266960" /><trkpt lat="-25.533957" lon="-49.266865" /><trkpt lat="-25.534002" lon="-49.266737" /><trkpt lat="-25.534027" lon="-49.266665" /><trkpt lat="-25.534037" lon="-49.266559" /><trkpt lat="-25.533980" lon="-49.266377" /><trkpt lat="-25.533884" lon="-49.266089" /><trkpt lat="-25.533763" lon="-49.265740" /><trkpt lat="-25.533655" lon="-49.265419" /><trkpt lat="-25.533442" lon="-49.264800" /><trkpt lat="-25.533321" lon="-49.264265" /><trkpt lat="-25.533206" lon="-49.263783" /><trkpt lat="-25.533090" lon="-49.263301" /><trkpt lat="-25.532964" lon="-49.262785" /><trkpt lat="-25.532890" lon="-49.262467" /><trkpt lat="-25.532835" lon="-49.262338" /><trkpt lat="-25.532745" lon="-49.262217" /><trkpt lat="-25.532684" lon="-49.262144" /><trkpt lat="-25.532629" lon="-49.262061" /><trkpt lat="-25.532593" lon="-49.261991" /><trkpt lat="-25.532572" lon="-49.261832" /><trkpt lat="-25.532546" lon="-49.261725" /><trkpt lat="-25.532501" lon="-49.261614" /><trkpt lat="-25.532497" lon="-49.261410" /><trkpt lat="-25.532511" lon="-49.261288" /><trkpt lat="-25.532532" lon="-49.261096" /><trkpt lat="-25.532540" lon="-49.260966" /><trkpt lat="-25.532531" lon="-49.260837" /><trkpt lat="-25.532375" lon="-49.260165" /><trkpt lat="-25.532286" lon="-49.259784" /><trkpt lat="-25.532185" lon="-49.259366" /><trkpt lat="-25.532086" lon="-49.258961" /><trkpt lat="-25.531994" lon="-49.258557" /><trkpt lat="-25.531916" lon="-49.258246" /><trkpt lat="-25.531842" lon="-49.257940" /><trkpt lat="-25.531733" lon="-49.257498" /><trkpt lat="-25.531629" lon="-49.257072" /><trkpt lat="-25.531464" lon="-49.256399" /><trkpt lat="-25.531294" lon="-49.255669" /><trkpt lat="-25.531246" lon="-49.255416" /><trkpt lat="-25.531221" lon="-49.255302" /><trkpt lat="-25.531183" lon="-49.255223" /><trkpt lat="-25.531110" lon="-49.254884" /><trkpt lat="-25.531014" lon="-49.254487" /><trkpt lat="-25.530943" lon="-49.254209" /><trkpt lat="-25.530897" lon="-49.253992" /><trkpt lat="-25.530782" lon="-49.253505" /><trkpt lat="-25.530663" lon="-49.253005" /><trkpt lat="-25.530625" lon="-49.252816" /><trkpt lat="-25.530586" lon="-49.252636" /><trkpt lat="-25.530542" lon="-49.252469" /><trkpt lat="-25.530462" lon="-49.252187" /><trkpt lat="-25.530392" lon="-49.251914" /><trkpt lat="-25.530338" lon="-49.251674" /><trkpt lat="-25.530282" lon="-49.251448" /><trkpt lat="-25.530206" lon="-49.251133" /><trkpt lat="-25.530155" lon="-49.250935" /><trkpt lat="-25.530077" lon="-49.250605" /><trkpt lat="-25.530008" lon="-49.250304" /><trkpt lat="-25.529998" lon="-49.250201" /><trkpt lat="-25.529984" lon="-49.250104" /><trkpt lat="-25.529931" lon="-49.249971" /><trkpt lat="-25.529798" lon="-49.249407" /><trkpt lat="-25.529703" lon="-49.249003" /><trkpt lat="-25.529568" lon="-49.248424" /><trkpt lat="-25.529499" lon="-49.248145" /><trkpt lat="-25.529408" lon="-49.247741" /><trkpt lat="-25.529331" lon="-49.247438" /><trkpt lat="-25.529296" lon="-49.247267" /><trkpt lat="-25.529231" lon="-49.246975" /><trkpt lat="-25.529155" lon="-49.246701" /><trkpt lat="-25.529078" lon="-49.246370" /><trkpt lat="-25.529057" lon="-49.246239" /><trkpt lat="-25.529042" lon="-49.246162" /><trkpt lat="-25.529003" lon="-49.246074" /><trkpt lat="-25.528835" lon="-49.245359" /><trkpt lat="-25.528700" lon="-49.244771" /><trkpt lat="-25.528640" lon="-49.244524" /><trkpt lat="-25.528594" lon="-49.244340" /><trkpt lat="-25.528557" lon="-49.244198" /><trkpt lat="-25.528433" lon="-49.243675" /><trkpt lat="-25.528296" lon="-49.243105" /><trkpt lat="-25.528200" lon="-49.242701" /><trkpt lat="-25.528100" lon="-49.242295" /><trkpt lat="-25.527959" lon="-49.241692" /><trkpt lat="-25.527788" lon="-49.240974" /><trkpt lat="-25.527758" lon="-49.240768" /><trkpt lat="-25.527728" lon="-49.240630" /><trkpt lat="-25.527680" lon="-49.240512" /><trkpt lat="-25.527620" lon="-49.240259" /><trkpt lat="-25.527564" lon="-49.240005" /><trkpt lat="-25.527499" lon="-49.239746" /><trkpt lat="-25.527410" lon="-49.239364" /><trkpt lat="-25.527351" lon="-49.239134" /><trkpt lat="-25.527254" lon="-49.238713" /><trkpt lat="-25.527117" lon="-49.238157" /><trkpt lat="-25.526986" lon="-49.237593" /><trkpt lat="-25.526939" lon="-49.237412" /><trkpt lat="-25.526936" lon="-49.237326" /><trkpt lat="-25.526909" lon="-49.237208" /><trkpt lat="-25.526850" lon="-49.237058" /><trkpt lat="-25.526716" lon="-49.236472" /><trkpt lat="-25.526608" lon="-49.236014" /><trkpt lat="-25.526497" lon="-49.235544" /><trkpt lat="-25.526367" lon="-49.235001" /><trkpt lat="-25.526251" lon="-49.234508" /><trkpt lat="-25.526123" lon="-49.233987" /><trkpt lat="-25.526076" lon="-49.233797" /><trkpt lat="-25.525988" lon="-49.233433" /><trkpt lat="-25.525923" lon="-49.233167" /><trkpt lat="-25.525859" lon="-49.232892" /><trkpt lat="-25.525780" lon="-49.232549" /><trkpt lat="-25.525683" lon="-49.232160" /><trkpt lat="-25.525629" lon="-49.231920" /><trkpt lat="-25.525572" lon="-49.231688" /><trkpt lat="-25.525479" lon="-49.231270" /><trkpt lat="-25.525430" lon="-49.231067" /><trkpt lat="-25.525419" lon="-49.230956" /><trkpt lat="-25.525396" lon="-49.230853" /><trkpt lat="-25.525323" lon="-49.230642" /><trkpt lat="-25.525230" lon="-49.230243" /><trkpt lat="-25.525207" lon="-49.229938" /><trkpt lat="-25.525212" lon="-49.229763" /><trkpt lat="-25.525213" lon="-49.229503" /><trkpt lat="-25.525195" lon="-49.229325" /><trkpt lat="-25.525164" lon="-49.229090" /><trkpt lat="-25.525138" lon="-49.228939" /><trkpt lat="-25.525064" lon="-49.228644" /><trkpt lat="-25.524904" lon="-49.228236" /><trkpt lat="-25.524755" lon="-49.227859" /><trkpt lat="-25.524700" lon="-49.227750" /><trkpt lat="-25.524516" lon="-49.227717" /><trkpt lat="-25.524403" lon="-49.227709" /><trkpt lat="-25.524238" lon="-49.227728" /><trkpt lat="-25.523890" lon="-49.227900" /><trkpt lat="-25.523439" lon="-49.228117" /><trkpt lat="-25.523215" lon="-49.228221" /><trkpt lat="-25.522642" lon="-49.228497" /><trkpt lat="-25.522301" lon="-49.228665" /><trkpt lat="-25.521855" lon="-49.228879" /><trkpt lat="-25.521685" lon="-49.228464" /><trkpt lat="-25.521510" lon="-49.228039" /><trkpt lat="-25.521454" lon="-49.227910" /><trkpt lat="-25.521406" lon="-49.227756" /><trkpt lat="-25.521196" lon="-49.227910" /><trkpt lat="-25.520806" lon="-49.228105" /><trkpt lat="-25.520481" lon="-49.228265" /><trkpt lat="-25.520100" lon="-49.228449" /><trkpt lat="-25.519416" lon="-49.228776" /><trkpt lat="-25.519165" lon="-49.228906" /><trkpt lat="-25.518605" lon="-49.229179" /><trkpt lat="-25.517998" lon="-49.229474" /><trkpt lat="-25.517753" lon="-49.229591" /><trkpt lat="-25.517598" lon="-49.229718" /><trkpt lat="-25.517228" lon="-49.229926" /><trkpt lat="-25.516855" lon="-49.230135" /><trkpt lat="-25.516405" lon="-49.230317" /><trkpt lat="-25.516240" lon="-49.230385" /><trkpt lat="-25.516048" lon="-49.230445" /><trkpt lat="-25.515929" lon="-49.230474" /><trkpt lat="-25.515317" lon="-49.230772" /><trkpt lat="-25.514779" lon="-49.231037" /><trkpt lat="-25.514071" lon="-49.231377" /><trkpt lat="-25.513646" lon="-49.231589" /><trkpt lat="-25.513164" lon="-49.231821" /><trkpt lat="-25.512705" lon="-49.232034" /><trkpt lat="-25.512223" lon="-49.232264" /><trkpt lat="-25.511620" lon="-49.232572" /><trkpt lat="-25.511562" lon="-49.232590" /><trkpt lat="-25.511471" lon="-49.232641" /><trkpt lat="-25.511223" lon="-49.232757" /><trkpt lat="-25.510407" lon="-49.233146" /><trkpt lat="-25.510138" lon="-49.233278" /><trkpt lat="-25.509869" lon="-49.233414" /><trkpt lat="-25.509272" lon="-49.233703" /><trkpt lat="-25.508973" lon="-49.233849" /><trkpt lat="-25.508678" lon="-49.233995" /><trkpt lat="-25.508385" lon="-49.234133" /><trkpt lat="-25.508089" lon="-49.234280" /><trkpt lat="-25.507891" lon="-49.234372" /><trkpt lat="-25.507680" lon="-49.234477" /><trkpt lat="-25.507345" lon="-49.234628" /><trkpt lat="-25.506772" lon="-49.234911" /><trkpt lat="-25.506190" lon="-49.235198" /><trkpt lat="-25.506024" lon="-49.235290" /><trkpt lat="-25.505778" lon="-49.235405" /><trkpt lat="-25.505169" lon="-49.235704" /><trkpt lat="-25.504447" lon="-49.236059" /><trkpt lat="-25.503708" lon="-49.236413" /><trkpt lat="-25.503294" lon="-49.236617" /><trkpt lat="-25.503141" lon="-49.236691" /><trkpt lat="-25.502750" lon="-49.236901" /><trkpt lat="-25.502431" lon="-49.237062" /><trkpt lat="-25.502239" lon="-49.237158" /><trkpt lat="-25.502005" lon="-49.237329" /><trkpt lat="-25.501926" lon="-49.237409" /><trkpt lat="-25.501735" lon="-49.237499" /><trkpt lat="-25.501582" lon="-49.237571" /><trkpt lat="-25.501255" lon="-49.237722" /><trkpt lat="-25.501058" lon="-49.237823" /><trkpt lat="-25.500852" lon="-49.237929" /><trkpt lat="-25.500689" lon="-49.238008" /><trkpt lat="-25.500543" lon="-49.238039" /><trkpt lat="-25.500432" lon="-49.238082" /><trkpt lat="-25.500240" lon="-49.238130" /><trkpt lat="-25.500080" lon="-49.238217" /><trkpt lat="-25.499296" lon="-49.238601" /><trkpt lat="-25.498715" lon="-49.238879" /><trkpt lat="-25.497669" lon="-49.239391" /><trkpt lat="-25.497408" lon="-49.239522" /><trkpt lat="-25.496617" lon="-49.239902" /><trkpt lat="-25.496470" lon="-49.239962" /><trkpt lat="-25.496134" lon="-49.240113" /><trkpt lat="-25.495894" lon="-49.240215" /><trkpt lat="-25.495760" lon="-49.240297" /><trkpt lat="-25.495558" lon="-49.240434" /><trkpt lat="-25.495224" lon="-49.240576" /><trkpt lat="-25.495116" lon="-49.240631" /><trkpt lat="-25.494944" lon="-49.240723" /><trkpt lat="-25.494279" lon="-49.241043" /><trkpt lat="-25.493488" lon="-49.241430" /><trkpt lat="-25.493072" lon="-49.241637" /><trkpt lat="-25.492177" lon="-49.242072" /><trkpt lat="-25.491888" lon="-49.242210" /><trkpt lat="-25.491594" lon="-49.242357" /><trkpt lat="-25.491001" lon="-49.242646" /><trkpt lat="-25.490791" lon="-49.242733" /><trkpt lat="-25.490574" lon="-49.242832" /><trkpt lat="-25.490200" lon="-49.243032" /><trkpt lat="-25.489259" lon="-49.243497" /><trkpt lat="-25.488314" lon="-49.243960" /><trkpt lat="-25.488042" lon="-49.244096" /><trkpt lat="-25.487777" lon="-49.244224" /><trkpt lat="-25.487291" lon="-49.244464" /><trkpt lat="-25.486788" lon="-49.244681" /><trkpt lat="-25.486314" lon="-49.244941" /><trkpt lat="-25.485892" lon="-49.245140" /><trkpt lat="-25.485524" lon="-49.245320" /><trkpt lat="-25.485321" lon="-49.245417" /><trkpt lat="-25.484932" lon="-49.245606" /><trkpt lat="-25.484501" lon="-49.245816" /><trkpt lat="-25.484059" lon="-49.246032" /><trkpt lat="-25.483428" lon="-49.246342" /><trkpt lat="-25.483161" lon="-49.246474" /><trkpt lat="-25.482841" lon="-49.246628" /><trkpt lat="-25.482802" lon="-49.246537" /><trkpt lat="-25.482738" lon="-49.246535" /><trkpt lat="-25.482688" lon="-49.246528" /><trkpt lat="-25.482610" lon="-49.246503" /><trkpt lat="-25.482497" lon="-49.246447" /><trkpt lat="-25.482471" lon="-49.246443" /><trkpt lat="-25.482437" lon="-49.246442" /><trkpt lat="-25.482397" lon="-49.246457" /><trkpt lat="-25.482366" lon="-49.246482" /><trkpt lat="-25.482346" lon="-49.246516" /><trkpt lat="-25.482337" lon="-49.246588" /><trkpt lat="-25.482328" lon="-49.246677" /><trkpt lat="-25.482321" lon="-49.246702" /><trkpt lat="-25.482303" lon="-49.246736" /><trkpt lat="-25.482263" lon="-49.246765" /><trkpt lat="-25.482015" lon="-49.246883" /><trkpt lat="-25.481504" lon="-49.247129" /><trkpt lat="-25.481370" lon="-49.247193" /><trkpt lat="-25.481294" lon="-49.247245" /><trkpt lat="-25.481254" lon="-49.247282" /><trkpt lat="-25.481164" lon="-49.247376" /><trkpt lat="-25.481095" lon="-49.247483" /><trkpt lat="-25.481016" lon="-49.247528" /><trkpt lat="-25.480693" lon="-49.247678" /><trkpt lat="-25.479904" lon="-49.248065" /><trkpt lat="-25.479403" lon="-49.248309" /><trkpt lat="-25.479003" lon="-49.248507" /><trkpt lat="-25.478603" lon="-49.248704" /><trkpt lat="-25.478205" lon="-49.248896" /><trkpt lat="-25.477485" lon="-49.249241" /><trkpt lat="-25.476747" lon="-49.249586" /><trkpt lat="-25.476445" lon="-49.249728" /><trkpt lat="-25.475887" lon="-49.250022" /><trkpt lat="-25.475319" lon="-49.250296" /><trkpt lat="-25.474739" lon="-49.250585" /><trkpt lat="-25.474119" lon="-49.250885" /><trkpt lat="-25.473812" lon="-49.251037" /><trkpt lat="-25.473508" lon="-49.251171" /><trkpt lat="-25.472844" lon="-49.251480" /><trkpt lat="-25.472566" lon="-49.251622" /><trkpt lat="-25.472406" lon="-49.251679" /><trkpt lat="-25.472229" lon="-49.251776" /><trkpt lat="-25.472024" lon="-49.251886" /><trkpt lat="-25.471584" lon="-49.252123" /><trkpt lat="-25.471422" lon="-49.252209" /><trkpt lat="-25.471155" lon="-49.252316" /><trkpt lat="-25.470852" lon="-49.252434" /><trkpt lat="-25.470374" lon="-49.252582" /><trkpt lat="-25.470064" lon="-49.252740" /><trkpt lat="-25.469871" lon="-49.252830" /><trkpt lat="-25.469710" lon="-49.252887" /><trkpt lat="-25.469571" lon="-49.252943" /><trkpt lat="-25.469414" lon="-49.253013" /><trkpt lat="-25.469206" lon="-49.253115" /><trkpt lat="-25.468880" lon="-49.253261" /><trkpt lat="-25.468686" lon="-49.253334" /><trkpt lat="-25.468537" lon="-49.253465" /><trkpt lat="-25.468706" lon="-49.253599" /><trkpt lat="-25.469055" lon="-49.253874" /><trkpt lat="-25.469254" lon="-49.254026" /><trkpt lat="-25.469518" lon="-49.254240" /><trkpt lat="-25.469668" lon="-49.254369" /><trkpt lat="-25.469765" lon="-49.254450" /><trkpt lat="-25.469911" lon="-49.254599" /><trkpt lat="-25.470049" lon="-49.254748" /><trkpt lat="-25.470195" lon="-49.254876" /><trkpt lat="-25.470283" lon="-49.254946" /><trkpt lat="-25.470342" lon="-49.254990" /><trkpt lat="-25.470388" lon="-49.255055" /><trkpt lat="-25.470405" lon="-49.255126" /><trkpt lat="-25.470404" lon="-49.255195" /><trkpt lat="-25.470375" lon="-49.255277" /><trkpt lat="-25.470287" lon="-49.255406" /><trkpt lat="-25.470252" lon="-49.255478" /><trkpt lat="-25.470237" lon="-49.255563" /><trkpt lat="-25.470240" lon="-49.255669" /><trkpt lat="-25.470260" lon="-49.255751" /><trkpt lat="-25.470302" lon="-49.255920" /><trkpt lat="-25.470377" lon="-49.256246" /><trkpt lat="-25.470630" lon="-49.257262" /><trkpt lat="-25.470761" lon="-49.257797" /><trkpt lat="-25.470889" lon="-49.258313" /><trkpt lat="-25.470948" lon="-49.258440" /><trkpt lat="-25.471024" lon="-49.258726" /><trkpt lat="-25.471084" lon="-49.258994" /><trkpt lat="-25.471099" lon="-49.259164" /><trkpt lat="-25.471150" lon="-49.259356" /><trkpt lat="-25.471235" lon="-49.259685" /><trkpt lat="-25.471352" lon="-49.260160" /><trkpt lat="-25.471468" lon="-49.260627" /><trkpt lat="-25.471590" lon="-49.261144" /><trkpt lat="-25.471812" lon="-49.262040" /><trkpt lat="-25.471933" lon="-49.262542" /><trkpt lat="-25.472061" lon="-49.263068" /><trkpt lat="-25.472162" lon="-49.263489" /><trkpt lat="-25.472272" lon="-49.263946" /><trkpt lat="-25.472326" lon="-49.264136" /><trkpt lat="-25.472398" lon="-49.264295" /><trkpt lat="-25.472478" lon="-49.264618" /><trkpt lat="-25.472501" lon="-49.264842" /><trkpt lat="-25.472552" lon="-49.265074" /><trkpt lat="-25.472660" lon="-49.265508" /><trkpt lat="-25.472766" lon="-49.265936" /><trkpt lat="-25.472892" lon="-49.266449" /><trkpt lat="-25.473027" lon="-49.266989" /><trkpt lat="-25.473111" lon="-49.267333" /><trkpt lat="-25.473198" lon="-49.267702" /><trkpt lat="-25.473249" lon="-49.267909" /><trkpt lat="-25.473331" lon="-49.268238" /><trkpt lat="-25.473442" lon="-49.268710" /><trkpt lat="-25.473577" lon="-49.269253" /><trkpt lat="-25.473668" lon="-49.269654" /><trkpt lat="-25.473777" lon="-49.269935" /><trkpt lat="-25.473848" lon="-49.270232" /><trkpt lat="-25.473862" lon="-49.270425" /><trkpt lat="-25.473898" lon="-49.270602" /><trkpt lat="-25.474118" lon="-49.271482" /><trkpt lat="-25.474173" lon="-49.271733" /><trkpt lat="-25.474298" lon="-49.272227" /><trkpt lat="-25.474395" lon="-49.272610" /><trkpt lat="-25.474474" lon="-49.272926" /><trkpt lat="-25.474569" lon="-49.273357" /><trkpt lat="-25.474647" lon="-49.273744" /><trkpt lat="-25.474697" lon="-49.273849" /><trkpt lat="-25.474759" lon="-49.273993" /><trkpt lat="-25.474809" lon="-49.274201" /><trkpt lat="-25.474830" lon="-49.274300" /><trkpt lat="-25.474843" lon="-49.274530" /><trkpt lat="-25.475004" lon="-49.275185" /><trkpt lat="-25.475174" lon="-49.275875" /><trkpt lat="-25.475369" lon="-49.276664" /><trkpt lat="-25.475541" lon="-49.277367" /><trkpt lat="-25.475721" lon="-49.278118" /><trkpt lat="-25.475892" lon="-49.278808" /><trkpt lat="-25.476075" lon="-49.279557" /><trkpt lat="-25.476133" lon="-49.279803" /><trkpt lat="-25.476220" lon="-49.280004" /><trkpt lat="-25.476259" lon="-49.280104" /><trkpt lat="-25.476301" lon="-49.280287" /><trkpt lat="-25.476322" lon="-49.280426" /><trkpt lat="-25.476326" lon="-49.280586" /><trkpt lat="-25.476426" lon="-49.281009" /><trkpt lat="-25.476583" lon="-49.281637" /><trkpt lat="-25.476716" lon="-49.282168" /><trkpt lat="-25.476802" lon="-49.282534" /><trkpt lat="-25.476983" lon="-49.283289" /><trkpt lat="-25.477067" lon="-49.283625" /><trkpt lat="-25.477202" lon="-49.284177" /><trkpt lat="-25.477250" lon="-49.284374" /><trkpt lat="-25.477299" lon="-49.284572" /><trkpt lat="-25.477418" lon="-49.284875" /><trkpt lat="-25.477488" lon="-49.285155" /><trkpt lat="-25.477548" lon="-49.285263" /><trkpt lat="-25.477707" lon="-49.285453" /><trkpt lat="-25.477769" lon="-49.285575" /><trkpt lat="-25.477840" lon="-49.285876" /><trkpt lat="-25.477933" lon="-49.286316" /><trkpt lat="-25.477964" lon="-49.286539" /><trkpt lat="-25.477957" lon="-49.286650" /><trkpt lat="-25.477928" lon="-49.286809" /><trkpt lat="-25.477874" lon="-49.286980" /><trkpt lat="-25.477798" lon="-49.287232" /><trkpt lat="-25.477747" lon="-49.287388" /><trkpt lat="-25.477620" lon="-49.287726" /><trkpt lat="-25.477377" lon="-49.288327" /><trkpt lat="-25.477126" lon="-49.288946" /><trkpt lat="-25.477021" lon="-49.289169" /><trkpt lat="-25.476991" lon="-49.289431" /><trkpt lat="-25.476946" lon="-49.289977" /><trkpt lat="-25.476929" lon="-49.290187" /><trkpt lat="-25.476905" lon="-49.290297" /><trkpt lat="-25.476863" lon="-49.290394" /><trkpt lat="-25.476782" lon="-49.290485" /><trkpt lat="-25.476698" lon="-49.290535" /><trkpt lat="-25.476597" lon="-49.290576" /><trkpt lat="-25.476501" lon="-49.290603" /><trkpt lat="-25.476374" lon="-49.290617" /><trkpt lat="-25.476290" lon="-49.290727" /><trkpt lat="-25.476073" lon="-49.291064" /><trkpt lat="-25.475932" lon="-49.291275" /><trkpt lat="-25.475533" lon="-49.291893" /><trkpt lat="-25.475193" lon="-49.292422" /><trkpt lat="-25.474940" lon="-49.292638" /><trkpt lat="-25.474745" lon="-49.292807" /><trkpt lat="-25.474603" lon="-49.292894" /><trkpt lat="-25.474475" lon="-49.292975" /><trkpt lat="-25.474279" lon="-49.293072" /><trkpt lat="-25.474355" lon="-49.293257" /><trkpt lat="-25.474481" lon="-49.293536" /><trkpt lat="-25.474857" lon="-49.293348" /><trkpt lat="-25.475100" lon="-49.293228" /><trkpt lat="-25.475338" lon="-49.293109" /><trkpt lat="-25.475616" lon="-49.292970" /><trkpt lat="-25.475759" lon="-49.292899" /><trkpt lat="-25.475963" lon="-49.292821" /><trkpt lat="-25.476260" lon="-49.292704" /><trkpt lat="-25.476397" lon="-49.292650" /></trkseg></trk><wpt lat="-25.476410" lon="-49.292681"><name>1 - 105802 - Terminal  Portão - 250 - Ligeirão Norte/Sul_Terminal  Portão - 202 - Cabral / C.Raso (Sentido Capão Raso)_Terminal  Portão - 203 - Sta. Cândida / C. Raso (Sentido Capão Raso)_Terminal  Portão - 603 - Pinheirinho / R. Barbosa  (Sentido Pinheirinho)_Terminal  Portão - 602 - Circular Sul (AH)  (Sentido Pinheirinho)_Terminal  Portão - X20 - Portão / Sítio Cercado (Sentido Sítio Cercado)</name><desc>ID: 285440; Tipo: OBRIGATÓRIO; Distância: 0,000 km</desc></wpt><wpt lat="-25.481815" lon="-49.292786"><name>2 - 108052 - Estação Tubo Itajubá - Pinheirinho / Capão Raso/nX20 - Portão / Sitio Cercado/n200 - Ligeirão STA. Candida / PÇA do Japão/n202 - Cabral / C. Raso/n203 - STA. Candida / C. Raso/n602 - Circular Sul (ANTI-HORÁRIO)/n603 - Pinheirinho / Rui Barbosa/nX08 - Reforço Pinheirinho</name><desc>ID: 285441; Tipo: INTERMEDIÁRIO; Distância: 0,617 km</desc></wpt><wpt lat="-25.485803" lon="-49.294195"><name>3 - 108054 - Estação Tubo Hospital do Trabalhador - Pinheirinho / Capão Raso/n200 - Ligeirão Sta. Candida / Pça. Do Japão/n202 - Cabral / C. Raso/n203 - Sta. Candida / C. Raso/n602 - Circular Sul ( Anti-Horário)/n603 - Pinheirinho / Rui Barbosa/nX20 - Portao/ SitIo Cercado/nX08 - Reforço Pinheirinho</name><desc>ID: 285442; Tipo: INTERMEDIÁRIO; Distância: 1,069 km</desc></wpt><wpt lat="-25.487814" lon="-49.294330"><name>4 - 108055 - Estação Tubo Herculano de Araújo - Pinheirinho / Capão Raso/n200 - Ligeirão Sta. Candida / Pça. Do Japão/n202 - Cabral / C. Raso/n203 - Sta. Candida / C. Raso/n602 - Circular Sul ( Anti-Horário)/n603 - Pinheirinho / Rui Barbosa/nX20 - Portao/ Sitio Cercado/nX08 - Reforço Pinheirinho</name><desc>ID: 285443; Tipo: INTERMEDIÁRIO; Distância: 1,268 km</desc></wpt><wpt lat="-25.492092" lon="-49.293635"><name>5 - 104803 - Terminal Capão Raso (Sentido Pinheirinho / Sitio Cercado)/nX20 - Portão / Sítio Cercado/n200 - Ligeirão STA. Candida / PÇA. Do Japão/n602 - Circular Sul (ANTI-HORÁRIO)/n603 - Pinheirinho / Rui Barbosa</name><desc>ID: 285444; Tipo: INTERMEDIÁRIO; Distância: 1,753 km</desc></wpt><wpt lat="-25.495513" lon="-49.294531"><name>6 - 108057 - Estação Tubo Pedro Gusso - Pinheirinho/nX20 - Portao / Sitio Cercado/n200 - Ligeirão Sta. Candida / Pça. Do Japão/n602 - Circular Sul (Anti-Horario)/n603 - Pinheirinho / Rui Barbosa/nX08 - Reforço Pinheirinho</name><desc>ID: 285445; Tipo: INTERMEDIÁRIO; Distância: 2,189 km</desc></wpt><wpt lat="-25.500485" lon="-49.296098"><name>7 - 108059 - Estação Tubo José C. Bettega - Pinheirinho/nX20 - Portao / Sitio Cercado/n200 - Ligeirão Sta. Candida/ Pça. Do Japão/n602 - Circular Sul (Anti-Horario)/n603 - Pinheirinho / Rui Barbosa/nX08 - Reforço Pinheirinho</name><desc>ID: 285446; Tipo: INTERMEDIÁRIO; Distância: 2,747 km</desc></wpt><wpt lat="-25.503444" lon="-49.296033"><name>8 - 108061 - Estação Tubo Santa Regina - Pinheirinho/nX20 - Portao / Sitio Cercado/n200 - Ligeirão Sta. Candida / Pça. Do Japão/n602 - Circular Sul (Anti-Horario)/n603 - Pinheirinho / Rui Barbosa/nX08 - Reforço Pinheirinho</name><desc>ID: 285447; Tipo: INTERMEDIÁRIO; Distância: 3,062 km</desc></wpt><wpt lat="-25.508499" lon="-49.295882"><name>9 - 108063 - Estação Tubo Ouro Verde - Pinheirinho/nX20 - Portao / Sitio Cercado/n200 - Ligeirão Sta. Candida / Pça. Do Japão/n602 - Circular Sul (Anti-Horario)/n603 - Pinheirinho / Rui Barbosa/nX08 - Reforço Pinheirinho</name><desc>ID: 285448; Tipo: INTERMEDIÁRIO; Distância: 3,594 km</desc></wpt><wpt lat="-25.512314" lon="-49.295636"><name>10 - 105703 - Terminal Pinheirinho/n602 - Circular Sul (Anti-Horário) (Sentido Sitio Cercado)</name><desc>ID: 285449; Tipo: OBRIGATÓRIO; Distância: 4,048 km</desc></wpt><wpt lat="-25.520712" lon="-49.295568"><name>11 - 108123 - Estação Tubo Winston Churchill -  Sítio Cercado/nX20 - Potão/Sítio Cercado (Sentido Terminal Sítio Cercado)/n602 - Circular Sul (ANTI-HORÁRIO)(Sentido Terminal Sítio Cercado)</name><desc>ID: 285450; Tipo: INTERMEDIÁRIO; Distância: 4,996 km</desc></wpt><wpt lat="-25.528058" lon="-49.291496"><name>12 - 108125 - Estação Tubo Sagrado Coração -  Sitio Cercado/nX20 - Potão/Sitio Cercado(Sentido Terminal Sítio Cercado)/n602 - Circular Sul (ANTI-HORÁRIO)(Sentido Terminal Sítio Cercado)</name><desc>ID: 285451; Tipo: INTERMEDIÁRIO; Distância: 5,964 km</desc></wpt><wpt lat="-25.530848" lon="-49.287770"><name>13 - 108127 - Estação Tubo Rosa Tortato - Sitio Cercado/nX20 - Portão/Sítio Cercado (Sentido Terminal Sítio Cercado)/n602 - Circular Sul(ANTI-HORÁRIO)(Sentido Termiinal Sítio Cercado)</name><desc>ID: 285452; Tipo: INTERMEDIÁRIO; Distância: 6,433 km</desc></wpt><wpt lat="-25.534667" lon="-49.282751"><name>14 - 108129 - Estação Tubo Arroio Cercado -  Sítio Cercado/nX20 - Portão/Sítio Cercado(Sentido Terminal Sítio Cercado)/n602 - Circular Sul (ANTI-HORÁRIO)(Sentido Terminal Sítio Cercado)</name><desc>ID: 285453; Tipo: INTERMEDIÁRIO; Distância: 7,083 km</desc></wpt><wpt lat="-25.535810" lon="-49.274466"><name>15 - 108131 - Estação Tubo Quitandinha -  Sitio Cercado/nX20 - Portão/Sítio Cercado(Sentido Terminal Sítio Cercado)/n602 - Circular Sul(ANTI-HORÁRIO)(Sentido Terminal Sítio Cercado)</name><desc>ID: 285454; Tipo: INTERMEDIÁRIO; Distância: 7,979 km</desc></wpt><wpt lat="-25.534440" lon="-49.268594"><name>16 - 106102 - Terminal Sítio Cercado - 602 - Circular Sul (Anti-Horário) Sentido Boqueirão_Terminal Sítio Cercado - X12 - Especial Boqueirão_Terminal Sítio Cercado - X20 - Portão / Sítio Cercado.</name><desc>ID: 285455; Tipo: OBRIGATÓRIO; Distância: 8,574 km</desc></wpt><wpt lat="-25.532562" lon="-49.261786"><name>17 - 108098 - Estação Tubo Coqueiros - Boqueirão/n602 - Circular Sul(ANTI-HORÁRIO)(Sentido Terminal Sítio Cercado)</name><desc>ID: 285456; Tipo: INTERMEDIÁRIO; Distância: 9,283 km</desc></wpt><wpt lat="-25.531236" lon="-49.255340"><name>18 - 108100 - Estação Tubo Érico Veríssimo - Boqueirão/n602 - Circular Sul(ANTI-HORÁRIO)(Sentido Terminal Sítio Cercado)</name><desc>ID: 285457; Tipo: INTERMEDIÁRIO; Distância: 9,948 km</desc></wpt><wpt lat="-25.529997" lon="-49.250161"><name>19 - 108102 - Estação Tubo Euclides da Cunha - Boqueirão/n602 - Ciruclar Sul(ANTI-HORÁRIO)(Sentido Terminal Sítio Cercado)</name><desc>ID: 285458; Tipo: INTERMEDIÁRIO; Distância: 10,467 km</desc></wpt><wpt lat="-25.529054" lon="-49.246220"><name>20 - 108104 - Estação Tubo Eucaliptos - Boqueirão/n602 - Circular Sul(ANTI-HORÁRIO)(Sentido Terminal Sítio Cercado)</name><desc>ID: 285459; Tipo: INTERMEDIÁRIO; Distância: 10,872 km</desc></wpt><wpt lat="-25.527780" lon="-49.240706"><name>21 - 108106 - Estação Tubo Nova Europa - Boqueirão/n602 - Circular Sul(ANTI-HORÁRIO)(Sentido Terminal Sítio Cercado)</name><desc>ID: 285460; Tipo: INTERMEDIÁRIO; Distância: 11,432 km</desc></wpt><wpt lat="-25.526944" lon="-49.237278"><name>22 - 108108 - Estação Tubo Araça - Boqueirão/n602 - Circular SUl(ANTI-HORÁRIO)(Sentido Terminal Sítio Cercado)</name><desc>ID: 285461; Tipo: INTERMEDIÁRIO; Distância: 11,782 km</desc></wpt><wpt lat="-25.525441" lon="-49.230906"><name>23 - 108110 - Estação Tubo Erton Coelho - Boqueirão/n602 - Circular Sul(ANTI-HORÁRIO)(Sentido Terminal Sítio Cercado)</name><desc>ID: 285462; Tipo: INTERMEDIÁRIO; Distância: 12,435 km</desc></wpt><wpt lat="-25.521034" lon="-49.227946"><name>24 - 108112 - Estação Tubo Parque Iguaçú - Boqueirão/nX12 - Especial Boqueirão/n503 - Boqueirão/n602 - Circular Sul (ANTI-HORÁRIO)</name><desc>ID: 285463; Tipo: INTERMEDIÁRIO; Distância: 13,249 km</desc></wpt><wpt lat="-25.516450" lon="-49.230245"><name>25 - 104304 - Terminal Boqueirão - 602 - Circular Sul (Anti-Horário) Sentido Hauer</name><desc>ID: 285464; Tipo: OBRIGATÓRIO; Distância: 13,829 km</desc></wpt><wpt lat="-25.511499" lon="-49.232588"><name>26 - 108095 - Estação Tubo Antônio de Paula/n503 - Boqueirão (sentido Praça Carlos Gomes)/n602 - Circular Sul (AH) (sentido Hauer)</name><desc>ID: 285465; Tipo: INTERMEDIÁRIO; Distância: 14,419 km</desc></wpt><wpt lat="-25.506250" lon="-49.235135"><name>27 - 108093 - Estação Tubo Quartel /n503 - Boqueirão (sentido Praça Carlos Gomes)/n602 - Circular Sul (AH) (sentido Hauer)</name><desc>ID: 285466; Tipo: INTERMEDIÁRIO; Distância: 15,051 km</desc></wpt><wpt lat="-25.501615" lon="-49.237535"><name>28 - 104904 - Terminal Carmo/n503 - Boqueirão (Sentido Praça Carlos Gomes)/n602 - Circular Sul (Anti-Horário) (Sentido Hauer)</name><desc>ID: 285467; Tipo: INTERMEDIÁRIO; Distância: 15,610 km</desc></wpt><wpt lat="-25.495178" lon="-49.240567"><name>29 - 108091 - Estação Tubo Cel. Luiz José dos Santos/n503 - Boqueirão (Sentido Praça Carlos Gomes)/n602 - Circular Sul (AH) (Sentido Hauer)</name><desc>ID: 285468; Tipo: INTERMEDIÁRIO; Distância: 16,371 km</desc></wpt><wpt lat="-25.489675" lon="-49.243255"><name>30 - 108089 - Estação Tubo Hipólito da Costa/n503 - Boqueirão (sentido Praça Carlos Gomes)/n602 - Circular Sul (AH) (sentido Hauer)</name><desc>ID: 285469; Tipo: INTERMEDIÁRIO; Distância: 17,090 km</desc></wpt><wpt lat="-25.485848" lon="-49.245121"><name>31 - 108087 - Estação Tubo Passarela/n602 - Circular Sul (AH) (sentido Hauer)/n503 - Boqueirão (sentido Praça Carlos Gomes</name><desc>ID: 285470; Tipo: INTERMEDIÁRIO; Distância: 17,496 km</desc></wpt><wpt lat="-25.482014" lon="-49.246866"><name>32 - 105503 - Terminal Hauer - 602 - Circular Sul (Anti-Horário) (Sentido Portão)</name><desc>ID: 285471; Tipo: OBRIGATÓRIO; Distância: 17,978 km</desc></wpt><wpt lat="-25.475889" lon="-49.249993"><name>33 - 108085 - Estação Tubo Pádua Fleury/n503 - Boqueirão (sentido Praça Carlos Gomes)/n602 - Circular Sul (AH) (sentido Portão)</name><desc>ID: 285472; Tipo: INTERMEDIÁRIO; Distância: 18,721 km</desc></wpt><wpt lat="-25.472307" lon="-49.251698"><name>34 - 108084 - Estação Tubo Roberto Hauer/n503 - Boqueirão (sentido Praça Carlos Gomes)/n602 - Circular Sul (AH) (sentido Portão)</name><desc>ID: 285473; Tipo: INTERMEDIÁRIO; Distância: 19,139 km</desc></wpt><wpt lat="-25.469144" lon="-49.254036"><name>35 - 108211 - Estação Tubo Marechal Floriano/n550 - Ligeirão Pinheirinho / C. Gomes (sentido Pinheirinho)/n602 - Circular Sul (AH) (sentido Portão)/n605 - Ctba / Faz. Rio Grande (sentido Fazenda Rio Grande)/n350 - Atuba / Pinheirinho</name><desc>ID: 285474; Tipo: INTERMEDIÁRIO; Distância: 19,694 km</desc></wpt><wpt lat="-25.472415" lon="-49.264478"><name>36 - 108113 - Estação Tubo Marumbi -  Portão /n602 - Circular Sul(ANTI-HORÁRIO)</name><desc>ID: 285475; Tipo: INTERMEDIÁRIO; Distância: 20,837 km</desc></wpt><wpt lat="-25.473775" lon="-49.270055"><name>37 - 108115 - Estação Tubo Lindóia - Portão/n602 - CIrcular Sul(ANTI-HORÁRIO)</name><desc>ID: 285476; Tipo: INTERMEDIÁRIO; Distância: 21,383 km</desc></wpt><wpt lat="-25.474764" lon="-49.274147"><name>38 - 108117 - Estação Tubo Antero de Quental -  Portão/n602 - Circular Sul(ANTI-HORÁRIO)</name><desc>ID: 285477; Tipo: INTERMEDIÁRIO; Distância: 21,819 km</desc></wpt><wpt lat="-25.476243" lon="-49.280207"><name>39 - 108119 - Estação Tubo Dom Ático -  Portão/n602  - Circular Sul(ANTI-HORÁRIO)</name><desc>ID: 285478; Tipo: INTERMEDIÁRIO; Distância: 22,446 km</desc></wpt><wpt lat="-25.477418" lon="-49.285011"><name>40 - 108121 - Estação Tubo Wenceslau Braz -  Portão/n602 - Circular Sul (ANTI-HORÁRIO)</name><desc>ID: 285479; Tipo: INTERMEDIÁRIO; Distância: 22,918 km</desc></wpt><wpt lat="-25.476410" lon="-49.292681"><name>41 - 105802 - Terminal  Portão - 250 - Ligeirão Norte/Sul_Terminal  Portão - 202 - Cabral / C.Raso (Sentido Capão Raso)_Terminal  Portão - 203 - Sta. Cândida / C. Raso (Sentido Capão Raso)_Terminal  Portão - 603 - Pinheirinho / R. Barbosa  (Sentido Pinheirinho)_Terminal  Portão - 602 - Circular Sul (AH)  (Sentido Pinheirinho)_Terminal  Portão - X20 - Portão / Sítio Cercado (Sentido Sítio Cercado)</name><desc>ID: 285440; Tipo: OBRIGATÓRIO; Distância: 24,179 km</desc></wpt></gpx>