<?xml version='1.0' encoding='utf-8'?>
<kml xmlns="http://www.opengis.net/kml/2.2"><Document><name>602-circular_sul-expresso</name><Style id="trajeto"><LineStyle><color>ff0000ff</color><width>5</width></LineStyle></Style><Placemark><name>Trajeto</name><styleUrl>#trajeto</styleUrl><LineString><tessellate>1</tessellate><coordinates>-49.292648,-25.476401,0
-49.292523,-25.476716,0
-49.292450,-25.476907,0
-49.292368,-25.477149,0
-49.292197,-25.477646,0
-49.292146,-25.477793,0
-49.292108,-25.477916,0
-49.292107,-25.478031,0
-49.292145,-25.478496,0
-49.292169,-25.478824,0
-49.292198,-25.479132,0
-49.292259,-25.479630,0
-49.292304,-25.479798,0
-49.292411,-25.480120,0
-49.292453,-25.480257,0
-49.292492,-25.480359,0
-49.292537,-25.480747,0
-49.292544,-25.480942,0
-49.292572,-25.481121,0
-49.292583,-25.481251,0
-49.292616,-25.481435,0
-49.292657,-25.481567,0
-49.292776,-25.481910,0
-49.292893,-25.482211,0
-49.292951,-25.482345,0
-49.293123,-25.482805,0
-49.293360,-25.483420,0
-49.293572,-25.483981,0
-49.293710,-25.484343,0
-49.293793,-25.484561,0
-49.293864,-25.484755,0
-49.293976,-25.485111,0
-49.294093,-25.485545,0
-49.294151,-25.485840,0
-49.294213,-25.486126,0
-49.294267,-25.486367,0
-49.294316,-25.486576,0
-49.294360,-25.486803,0
-49.294374,-25.487032,0
-49.294363,-25.487228,0
-49.294343,-25.487399,0
-49.294312,-25.487641,0
-49.294202,-25.488455,0
-49.294149,-25.488867,0
-49.294078,-25.489420,0
-49.294043,-25.489671,0
-49.294015,-25.489892,0
-49.293955,-25.490298,0
-49.293902,-25.490752,0
-49.293858,-25.491093,0
-49.293814,-25.491423,0
-49.293756,-25.491592,0
-49.293684,-25.491570,0
-49.293645,-25.491689,0
-49.293638,-25.491774,0
-49.293618,-25.491939,0
-49.293563,-25.492372,0
-49.293579,-25.492525,0
-49.293690,-25.492601,0
-49.293753,-25.493031,0
-49.293805,-25.493363,0
-49.293873,-25.493841,0
-49.293906,-25.494055,0
-49.293948,-25.494316,0
-49.293974,-25.494518,0
-49.294054,-25.494702,0
-49.294145,-25.494858,0
-49.294288,-25.495096,0
-49.294413,-25.495316,0
-49.294641,-25.495705,0
-49.294690,-25.495845,0
-49.294742,-25.496051,0
-49.294794,-25.496153,0
-49.294928,-25.496389,0
-49.295166,-25.496782,0
-49.295298,-25.497000,0
-49.295441,-25.497254,0
-49.295578,-25.497508,0
-49.295676,-25.497752,0
-49.295730,-25.497926,0
-49.295823,-25.498308,0
-49.295855,-25.498436,0
-49.295951,-25.498892,0
-49.296009,-25.499241,0
-49.296038,-25.499457,0
-49.296047,-25.499556,0
-49.296056,-25.499690,0
-49.296069,-25.500023,0
-49.296073,-25.500178,0
-49.296071,-25.500314,0
-49.296067,-25.500562,0
-49.296061,-25.500847,0
-49.296047,-25.501326,0
-49.296040,-25.501579,0
-49.296036,-25.501761,0
-49.296033,-25.501973,0
-49.296022,-25.502388,0
-49.296008,-25.502926,0
-49.295996,-25.503429,0
-49.295993,-25.503658,0
-49.295982,-25.503931,0
-49.295974,-25.504283,0
-49.295961,-25.504792,0
-49.295947,-25.505284,0
-49.295933,-25.505898,0
-49.295921,-25.506461,0
-49.295900,-25.507105,0
-49.295894,-25.507683,0
-49.295873,-25.508257,0
-49.295861,-25.508790,0
-49.295842,-25.509372,0
-49.295831,-25.509843,0
-49.295817,-25.510250,0
-49.295807,-25.510777,0
-49.295794,-25.511163,0
-49.295783,-25.511661,0
-49.295778,-25.511768,0
-49.295665,-25.511804,0
-49.295643,-25.512313,0
-49.295622,-25.512845,0
-49.295606,-25.513437,0
-49.295604,-25.513534,0
-49.295683,-25.513626,0
-49.295673,-25.513987,0
-49.295661,-25.514289,0
-49.295642,-25.514897,0
-49.295637,-25.515123,0
-49.295642,-25.515263,0
-49.295656,-25.515996,0
-49.295649,-25.516331,0
-49.295639,-25.516650,0
-49.295633,-25.516965,0
-49.295615,-25.517556,0
-49.295591,-25.518412,0
-49.295577,-25.518924,0
-49.295563,-25.519462,0
-49.295553,-25.519821,0
-49.295536,-25.520464,0
-49.295522,-25.520906,0
-49.295525,-25.521170,0
-49.295529,-25.521500,0
-49.295521,-25.521652,0
-49.295506,-25.521780,0
-49.295484,-25.521876,0
-49.295429,-25.521978,0
-49.295374,-25.522085,0
-49.295117,-25.522373,0
-49.294950,-25.522583,0
-49.294765,-25.522764,0
-49.294616,-25.522915,0
-49.294492,-25.523033,0
-49.294122,-25.523326,0
-49.293957,-25.523453,0
-49.293415,-25.523858,0
-49.293163,-25.524053,0
-49.293063,-25.524133,0
-49.292982,-25.524218,0
-49.292905,-25.524302,0
-49.292835,-25.524402,0
-49.292622,-25.524712,0
-49.292532,-25.524878,0
-49.292384,-25.525193,0
-49.292294,-25.525401,0
-49.292265,-25.525528,0
-49.292251,-25.525659,0
-49.292257,-25.525793,0
-49.292284,-25.525928,0
-49.292316,-25.526028,0
-49.292369,-25.526146,0
-49.292436,-25.526243,0
-49.292519,-25.526359,0
-49.292609,-25.526477,0
-49.292686,-25.526588,0
-49.292732,-25.526693,0
-49.292744,-25.526757,0
-49.292740,-25.526815,0
-49.292730,-25.526886,0
-49.292693,-25.526978,0
-49.292634,-25.527082,0
-49.292482,-25.527212,0
-49.292357,-25.527348,0
-49.292261,-25.527450,0
-49.292129,-25.527566,0
-49.291826,-25.527787,0
-49.291414,-25.528105,0
-49.291184,-25.528259,0
-49.290963,-25.528424,0
-49.290326,-25.528897,0
-49.289990,-25.529153,0
-49.289702,-25.529377,0
-49.289258,-25.529716,0
-49.289170,-25.529782,0
-49.289022,-25.529890,0
-49.288797,-25.530054,0
-49.288405,-25.530352,0
-49.288178,-25.530528,0
-49.287932,-25.530707,0
-49.287820,-25.530795,0
-49.287790,-25.530843,0
-49.287728,-25.530885,0
-49.287676,-25.530905,0
-49.287421,-25.531097,0
-49.287123,-25.531324,0
-49.286825,-25.531548,0
-49.286640,-25.531688,0
-49.286334,-25.531922,0
-49.285802,-25.532321,0
-49.285308,-25.532703,0
-49.284775,-25.533112,0
-49.284603,-25.533246,0
-49.284423,-25.533386,0
-49.284187,-25.533553,0
-49.284001,-25.533695,0
-49.283784,-25.533854,0
-49.283522,-25.534053,0
-49.283249,-25.534262,0
-49.282873,-25.534540,0
-49.282767,-25.534648,0
-49.282705,-25.534693,0
-49.282614,-25.534736,0
-49.282334,-25.534949,0
-49.282190,-25.535018,0
-49.281681,-25.535256,0
-49.281039,-25.535551,0
-49.280451,-25.535827,0
-49.279710,-25.536172,0
-49.279344,-25.536337,0
-49.278972,-25.536510,0
-49.278746,-25.536617,0
-49.278634,-25.536670,0
-49.278549,-25.536706,0
-49.278472,-25.536728,0
-49.278399,-25.536744,0
-49.278335,-25.536751,0
-49.278268,-25.536751,0
-49.278140,-25.536738,0
-49.277971,-25.536695,0
-49.277792,-25.536603,0
-49.277663,-25.536541,0
-49.277457,-25.536487,0
-49.276937,-25.536365,0
-49.276595,-25.536284,0
-49.276031,-25.536145,0
-49.275668,-25.536068,0
-49.275418,-25.536005,0
-49.275019,-25.535909,0
-49.274674,-25.535833,0
-49.274579,-25.535815,0
-49.274420,-25.535779,0
-49.274339,-25.535746,0
-49.274150,-25.535704,0
-49.273978,-25.535665,0
-49.273432,-25.535534,0
-49.273081,-25.535450,0
-49.272712,-25.535362,0
-49.272120,-25.535222,0
-49.271570,-25.535090,0
-49.271360,-25.535039,0
-49.271126,-25.534988,0
-49.270748,-25.534899,0
-49.270467,-25.534830,0
-49.270061,-25.534730,0
-49.269882,-25.534681,0
-49.269661,-25.534637,0
-49.269328,-25.534547,0
-49.268958,-25.534451,0
-49.268867,-25.534435,0
-49.268641,-25.534390,0
-49.268597,-25.534382,0
-49.268506,-25.534379,0
-49.268370,-25.534373,0
-49.267580,-25.534178,0
-49.267344,-25.534120,0
-49.267249,-25.534090,0
-49.267195,-25.534012,0
-49.267163,-25.533977,0
-49.267108,-25.533944,0
-49.267063,-25.533933,0
-49.267006,-25.533929,0
-49.266960,-25.533933,0
-49.266865,-25.533957,0
-49.266737,-25.534002,0
-49.266665,-25.534027,0
-49.266559,-25.534037,0
-49.266377,-25.533980,0
-49.266089,-25.533884,0
-49.265740,-25.533763,0
-49.265419,-25.533655,0
-49.264800,-25.533442,0
-49.264265,-25.533321,0
-49.263783,-25.533206,0
-49.263301,-25.533090,0
-49.262785,-25.532964,0
-49.262467,-25.532890,0
-49.262338,-25.532835,0
-49.262217,-25.532745,0
-49.262144,-25.532684,0
-49.262061,-25.532629,0
-49.261991,-25.532593,0
-49.261832,-25.532572,0
-49.261725,-25.532546,0
-49.261614,-25.532501,0
-49.261410,-25.532497,0
-49.261288,-25.532511,0
-49.261096,-25.532532,0
-49.260966,-25.532540,0
-49.260837,-25.532531,0
-49.260165,-25.532375,0
-49.259784,-25.532286,0
-49.259366,-25.532185,0
-49.258961,-25.532086,0
-49.258557,-25.531994,0
-49.258246,-25.531916,0
-49.257940,-25.531842,0
-49.257498,-25.531733,0
-49.257072,-25.531629,0
-49.256399,-25.531464,0
-49.255669,-25.531294,0
-49.255416,-25.531246,0
-49.255302,-25.531221,0
-49.255223,-25.531183,0
-49.254884,-25.531110,0
-49.254487,-25.531014,0
-49.254209,-25.530943,0
-49.253992,-25.530897,0
-49.253505,-25.530782,0
-49.253005,-25.530663,0
-49.252816,-25.530625,0
-49.252636,-25.530586,0
-49.252469,-25.530542,0
-49.252187,-25.530462,0
-49.251914,-25.530392,0
-49.251674,-25.530338,0
-49.251448,-25.530282,0
-49.251133,-25.530206,0
-49.250935,-25.530155,0
-49.250605,-25.530077,0
-49.250304,-25.530008,0
-49.250201,-25.529998,0
-49.250104,-25.529984,0
-49.249971,-25.529931,0
-49.249407,-25.529798,0
-49.249003,-25.529703,0
-49.248424,-25.529568,0
-49.248145,-25.529499,0
-49.247741,-25.529408,0
-49.247438,-25.529331,0
-49.247267,-25.529296,0
-49.246975,-25.529231,0
-49.246701,-25.529155,0
-49.246370,-25.529078,0
-49.246239,-25.529057,0
-49.246162,-25.529042,0
-49.246074,-25.529003,0
-49.245359,-25.528835,0
-49.244771,-25.528700,0
-49.244524,-25.528640,0
-49.244340,-25.528594,0
-49.244198,-25.528557,0
-49.243675,-25.528433,0
-49.243105,-25.528296,0
-49.242701,-25.528200,0
-49.242295,-25.528100,0
-49.241692,-25.527959,0
-49.240974,-25.527788,0
-49.240768,-25.527758,0
-49.240630,-25.527728,0
-49.240512,-25.527680,0
-49.240259,-25.527620,0
-49.240005,-25.527564,0
-49.239746,-25.527499,0
-49.239364,-25.527410,0
-49.239134,-25.527351,0
-49.238713,-25.527254,0
-49.238157,-25.527117,0
-49.237593,-25.526986,0
-49.237412,-25.526939,0
-49.237326,-25.526936,0
-49.237208,-25.526909,0
-49.237058,-25.526850,0
-49.236472,-25.526716,0
-49.236014,-25.526608,0
-49.235544,-25.526497,0
-49.235001,-25.526367,0
-49.234508,-25.526251,0
-49.233987,-25.526123,0
-49.233797,-25.526076,0
-49.233433,-25.525988,0
-49.233167,-25.525923,0
-49.232892,-25.525859,0
-49.232549,-25.525780,0
-49.232160,-25.525683,0
-49.231920,-25.525629,0
-49.231688,-25.525572,0
-49.231270,-25.525479,0
-49.231067,-25.525430,0
-49.230956,-25.525419,0
-49.230853,-25.525396,0
-49.230642,-25.525323,0
-49.230243,-25.525230,0
-49.229938,-25.525207,0
-49.229763,-25.525212,0
-49.229503,-25.525213,0
-49.229325,-25.525195,0
-49.229090,-25.525164,0
-49.228939,-25.525138,0
-49.228644,-25.525064,0
-49.228236,-25.524904,0
-49.227859,-25.524755,0
-49.227750,-25.524700,0
-49.227717,-25.524516,0
-49.227709,-25.524403,0
-49.227728,-25.524238,0
-49.227900,-25.523890,0
-49.228117,-25.523439,0
-49.228221,-25.523215,0
-49.228497,-25.522642,0
-49.228665,-25.522301,0
-49.228879,-25.521855,0
-49.228464,-25.521685,0
-49.228039,-25.521510,0
-49.227910,-25.521454,0
-49.227756,-25.521406,0
-49.227910,-25.521196,0
-49.228105,-25.520806,0
-49.228265,-25.520481,0
-49.228449,-25.520100,0
-49.228776,-25.519416,0
-49.228906,-25.519165,0
-49.229179,-25.518605,0
-49.229474,-25.517998,0
-49.229591,-25.517753,0
-49.229718,-25.517598,0
-49.229926,-25.517228,0
-49.230135,-25.516855,0
-49.230317,-25.516405,0
-49.230385,-25.516240,0
-49.230445,-25.516048,0
-49.230474,-25.515929,0
-49.230772,-25.515317,0
-49.231037,-25.514779,0
-49.231377,-25.514071,0
-49.231589,-25.513646,0
-49.231821,-25.513164,0
-49.232034,-25.512705,0
-49.232264,-25.512223,0
-49.232572,-25.511620,0
-49.232590,-25.511562,0
-49.232641,-25.511471,0
-49.232757,-25.511223,0
-49.233146,-25.510407,0
-49.233278,-25.510138,0
-49.233414,-25.509869,0
-49.233703,-25.509272,0
-49.233849,-25.508973,0
-49.233995,-25.508678,0
-49.234133,-25.508385,0
-49.234280,-25.508089,0
-49.234372,-25.507891,0
-49.234477,-25.507680,0
-49.234628,-25.507345,0
-49.234911,-25.506772,0
-49.235198,-25.506190,0
-49.235290,-25.506024,0
-49.235405,-25.505778,0
-49.235704,-25.505169,0
-49.236059,-25.504447,0
-49.236413,-25.503708,0
-49.236617,-25.503294,0
-49.236691,-25.503141,0
-49.236901,-25.502750,0
-49.237062,-25.502431,0
-49.237158,-25.502239,0
-49.237329,-25.502005,0
-49.237409,-25.501926,0
-49.237499,-25.501735,0
-49.237571,-25.501582,0
-49.237722,-25.501255,0
-49.237823,-25.501058,0
-49.237929,-25.500852,0
-49.238008,-25.500689,0
-49.238039,-25.500543,0
-49.238082,-25.500432,0
-49.238130,-25.500240,0
-49.238217,-25.500080,0
-49.238601,-25.499296,0
-49.238879,-25.498715,0
-49.239391,-25.497669,0
-49.239522,-25.497408,0
-49.239902,-25.496617,0
-49.239962,-25.496470,0
-49.240113,-25.496134,0
-49.240215,-25.495894,0
-49.240297,-25.495760,0
-49.240434,-25.495558,0
-49.240576,-25.495224,0
-49.240631,-25.495116,0
-49.240723,-25.494944,0
-49.241043,-25.494279,0
-49.241430,-25.493488,0
-49.241637,-25.493072,0
-49.242072,-25.492177,0
-49.242210,-25.491888,0
-49.242357,-25.491594,0
-49.242646,-25.491001,0
-49.242733,-25.490791,0
-49.242832,-25.490574,0
-49.243032,-25.490200,0
-49.243497,-25.489259,0
-49.243960,-25.488314,0
-49.244096,-25.488042,0
-49.244224,-25.487777,0
-49.244464,-25.487291,0
-49.244681,-25.486788,0
-49.244941,-25.486314,0
-49.245140,-25.485892,0
-49.245320,-25.485524,0
-49.245417,-25.485321,0
-49.245606,-25.484932,0
-49.245816,-25.484501,0
-49.246032,-25.484059,0
-49.246342,-25.483428,0
-49.246474,-25.483161,0
-49.246628,-25.482841,0
-49.246537,-25.482802,0
-49.246535,-25.482738,0
-49.246528,-25.482688,0
-49.246503,-25.482610,0
-49.246447,-25.482497,0
-49.246443,-25.482471,0
-49.246442,-25.482437,0
-49.246457,-25.482397,0
-49.246482,-25.482366,0
-49.246516,-25.482346,0
-49.246588,-25.482337,0
-49.246677,-25.482328,0
-49.246702,-25.482321,0
-49.246736,-25.482303,0
-49.246765,-25.482263,0
-49.246883,-25.482015,0
-49.247129,-25.481504,0
-49.247193,-25.481370,0
-49.247245,-25.481294,0
-49.247282,-25.481254,0
-49.247376,-25.481164,0
-49.247483,-25.481095,0
-49.247528,-25.481016,0
-49.247678,-25.480693,0
-49.248065,-25.479904,0
-49.248309,-25.479403,0
-49.248507,-25.479003,0
-49.248704,-25.478603,0
-49.248896,-25.478205,0
-49.249241,-25.477485,0
-49.249586,-25.476747,0
-49.249728,-25.476445,0
-49.250022,-25.475887,0
-49.250296,-25.475319,0
-49.250585,-25.474739,0
-49.250885,-25.474119,0
-49.251037,-25.473812,0
-49.251171,-25.473508,0
-49.251480,-25.472844,0
-49.251622,-25.472566,0
-49.251679,-25.472406,0
-49.251776,-25.472229,0
-49.251886,-25.472024,0
-49.252123,-25.471584,0
-49.252209,-25.471422,0
-49.252316,-25.471155,0
-49.252434,-25.470852,0
-49.252582,-25.470374,0
-49.252740,-25.470064,0
-49.252830,-25.469871,0
-49.252887,-25.469710,0
-49.252943,-25.469571,0
-49.253013,-25.469414,0
-49.253115,-25.469206,0
-49.253261,-25.468880,0
-49.253334,-25.468686,0
-49.253465,-25.468537,0
-49.253599,-25.468706,0
-49.253874,-25.469055,0
-49.254026,-25.469254,0
-49.254240,-25.469518,0
-49.254369,-25.469668,0
-49.254450,-25.469765,0
-49.254599,-25.469911,0
-49.254748,-25.470049,0
-49.254876,-25.470195,0
-49.254946,-25.470283,0
-49.254990,-25.470342,0
-49.255055,-25.470388,0
-49.255126,-25.470405,0
-49.255195,-25.470404,0
-49.255277,-25.470375,0
-49.255406,-25.470287,0
-49.255478,-25.470252,0
-49.255563,-25.470237,0
-49.255669,-25.470240,0
-49.255751,-25.470260,0
-49.255920,-25.470302,0
-49.256246,-25.470377,0
-49.257262,-25.470630,0
-49.257797,-25.470761,0
-49.258313,-25.470889,0
-49.258440,-25.470948,0
-49.258726,-25.471024,0
-49.258994,-25.471084,0
-49.259164,-25.471099,0
-49.259356,-25.471150,0
-49.259685,-25.471235,0
-49.260160,-25.471352,0
-49.260627,-25.471468,0
-49.261144,-25.471590,0
-49.262040,-25.471812,0
-49.262542,-25.471933,0
-49.263068,-25.472061,0
-49.263489,-25.472162,0
-49.263946,-25.472272,0
-49.264136,-25.472326,0
-49.264295,-25.472398,0
-49.264618,-25.472478,0
-49.264842,-25.472501,0
-49.265074,-25.472552,0
-49.265508,-25.472660,0
-49.265936,-25.472766,0
-49.266449,-25.472892,0
-49.266989,-25.473027,0
-49.267333,-25.473111,0
-49.267702,-25.473198,0
-49.267909,-25.473249,0
-49.268238,-25.473331,0
-49.268710,-25.473442,0
-49.269253,-25.473577,0
-49.269654,-25.473668,0
-49.269935,-25.473777,0
-49.270232,-25.473848,0
-49.270425,-25.473862,0
-49.270602,-25.473898,0
-49.271482,-25.474118,0
-49.271733,-25.474173,0
-49.272227,-25.474298,0
-49.272610,-25.474395,0
-49.272926,-25.474474,0
-49.273357,-25.474569,0
-49.273744,-25.474647,0
-49.273849,-25.474697,0
-49.273993,-25.474759,0
-49.274201,-25.474809,0
-49.274300,-25.474830,0
-49.274530,-25.474843,0
-49.275185,-25.475004,0
-49.275875,-25.475174,0
-49.276664,-25.475369,0
-49.277367,-25.475541,0
-49.278118,-25.475721,0
-49.278808,-25.475892,0
-49.279557,-25.476075,0
-49.279803,-25.476133,0
-49.280004,-25.476220,0
-49.280104,-25.476259,0
-49.280287,-25.476301,0
-49.280426,-25.476322,0
-49.280586,-25.476326,0
-49.281009,-25.476426,0
-49.281637,-25.476583,0
-49.282168,-25.476716,0
-49.282534,-25.476802,0
-49.283289,-25.476983,0
-49.283625,-25.477067,0
-49.284177,-25.477202,0
-49.284374,-25.477250,0
-49.284572,-25.477299,0
-49.284875,-25.477418,0
-49.285155,-25.477488,0
-49.285263,-25.477548,0
-49.285453,-25.477707,0
-49.285575,-25.477769,0
-49.285876,-25.477840,0
-49.286316,-25.477933,0
-49.286539,-25.477964,0
-49.286650,-25.477957,0
-49.286809,-25.477928,0
-49.286980,-25.477874,0
-49.287232,-25.477798,0
-49.287388,-25.477747,0
-49.287726,-25.477620,0
-49.288327,-25.477377,0
-49.288946,-25.477126,0
-49.289169,-25.477021,0
-49.289431,-25.476991,0
-49.289977,-25.476946,0
-49.290187,-25.476929,0
-49.290297,-25.476905,0
-49.290394,-25.476863,0
-49.290485,-25.476782,0
-49.290535,-25.476698,0
-49.290576,-25.476597,0
-49.290603,-25.476501,0
-49.290617,-25.476374,0
-49.290727,-25.476290,0
-49.291064,-25.476073,0
-49.291275,-25.475932,0
-49.291893,-25.475533,0
-49.292422,-25.475193,0
-49.292638,-25.474940,0
-49.292807,-25.474745,0
-49.292894,-25.474603,0
-49.292975,-25.474475,0
-49.293072,-25.474279,0
-49.293257,-25.474355,0
-49.293536,-25.474481,0
-49.293348,-25.474857,0
-49.293228,-25.475100,0
-49.293109,-25.475338,0
-49.292970,-25.475616,0
-49.292899,-25.475759,0
-49.292821,-25.475963,0
-49.292704,-25.476260,0
-49.292650,-25.476397,0</coordinates></LineString></Placemark><Placemark><name>1 - 105802 - Terminal  Portão - 250 - Ligeirão Norte/Sul_Terminal  Portão - 202 - Cabral / C.Raso (Sentido Capão Raso)_Terminal  Portão - 203 - Sta. Cândida / C. Raso (Sentido Capão Raso)_Terminal  Portão - 603 - Pinheirinho / R. Barbosa  (Sentido Pinheirinho)_Terminal  Portão - 602 - Circular Sul (AH)  (Sentido Pinheirinho)_Terminal  Portão - X20 - Portão / Sítio Cercado (Sentido Sítio Cercado)</name><description>ID: 285440&lt;br/&gt;Tipo: OBRIGATÓRIO&lt;br/&gt;Distância: 0,000 km</description><Point><coordinates>-49.292681,-25.476410,0</coordinates></Point></Placemark><Placemark><name>2 - 108052 - Estação Tubo Itajubá - Pinheirinho / Capão Raso/nX20 - Portão / Sitio Cercado/n200 - Ligeirão STA. Candida / PÇA do Japão/n202 - Cabral / C. Raso/n203 - STA. Candida / C. Raso/n602 - Circular Sul (ANTI-HORÁRIO)/n603 - Pinheirinho / Rui Barbosa/nX08 - Reforço Pinheirinho</name><description>ID: 285441&lt;br/&gt;Tipo: INTERMEDIÁRIO&lt;br/&gt;Distância: 0,617 km</description><Point><coordinates>-49.292786,-25.481815,0</coordinates></Point></Placemark><Placemark><name>3 - 108054 - Estação Tubo Hospital do Trabalhador - Pinheirinho / Capão Raso/n200 - Ligeirão Sta. Candida / Pça. Do Japão/n202 - Cabral / C. Raso/n203 - Sta. Candida / C. Raso/n602 - Circular Sul ( Anti-Horário)/n603 - Pinheirinho / Rui Barbosa/nX20 - Portao/ SitIo Cercado/nX08 - Reforço Pinheirinho</name><description>ID: 285442&lt;br/&gt;Tipo: INTERMEDIÁRIO&lt;br/&gt;Distância: 1,069 km</description><Point><coordinates>-49.294195,-25.485803,0</coordinates></Point></Placemark><Placemark><name>4 - 108055 - Estação Tubo Herculano de Araújo - Pinheirinho / Capão Raso/n200 - Ligeirão Sta. Candida / Pça. Do Japão/n202 - Cabral / C. Raso/n203 - Sta. Candida / C. Raso/n602 - Circular Sul ( Anti-Horário)/n603 - Pinheirinho / Rui Barbosa/nX20 - Portao/ Sitio Cercado/nX08 - Reforço Pinheirinho</name><description>ID: 285443&lt;br/&gt;Tipo: INTERMEDIÁRIO&lt;br/&gt;Distância: 1,268 km</description><Point><coordinates>-49.294330,-25.487814,0</coordinates></Point></Placemark><Placemark><name>5 - 104803 - Terminal Capão Raso (Sentido Pinheirinho / Sitio Cercado)/nX20 - Portão / Sítio Cercado/n200 - Ligeirão STA. Candida / PÇA. Do Japão/n602 - Circular Sul (ANTI-HORÁRIO)/n603 - Pinheirinho / Rui Barbosa</name><description>ID: 285444&lt;br/&gt;Tipo: INTERMEDIÁRIO&lt;br/&gt;Distância: 1,753 km</description><Point><coordinates>-49.293635,-25.492092,0</coordinates></Point></Placemark><Placemark><name>6 - 108057 - Estação Tubo Pedro Gusso - Pinheirinho/nX20 - Portao / Sitio Cercado/n200 - Ligeirão Sta. Candida / Pça. Do Japão/n602 - Circular Sul (Anti-Horario)/n603 - Pinheirinho / Rui Barbosa/nX08 - Reforço Pinheirinho</name><description>ID: 285445&lt;br/&gt;Tipo: INTERMEDIÁRIO&lt;br/&gt;Distância: 2,189 km</description><Point><coordinates>-49.294531,-25.495513,0</coordinates></Point></Placemark><Placemark><name>7 - 108059 - Estação Tubo José C. Bettega - Pinheirinho/nX20 - Portao / Sitio Cercado/n200 - Ligeirão Sta. Candida/ Pça. Do Japão/n602 - Circular Sul (Anti-Horario)/n603 - Pinheirinho / Rui Barbosa/nX08 - Reforço Pinheirinho</name><description>ID: 285446&lt;br/&gt;Tipo: INTERMEDIÁRIO&lt;br/&gt;Distância: 2,747 km</description><Point><coordinates>-49.296098,-25.500485,0</coordinates></Point></Placemark><Placemark><name>8 - 108061 - Estação Tubo Santa Regina - Pinheirinho/nX20 - Portao / Sitio Cercado/n200 - Ligeirão Sta. Candida / Pça. Do Japão/n602 - Circular Sul (Anti-Horario)/n603 - Pinheirinho / Rui Barbosa/nX08 - Reforço Pinheirinho</name><description>ID: 285447&lt;br/&gt;Tipo: INTERMEDIÁRIO&lt;br/&gt;Distância: 3,062 km</description><Point><coordinates>-49.296033,-25.503444,0</coordinates></Point></Placemark><Placemark><name>9 - 108063 - Estação Tubo Ouro Verde - Pinheirinho/nX20 - Portao / Sitio Cercado/n200 - Ligeirão Sta. Candida / Pça. Do Japão/n602 - Circular Sul (Anti-Horario)/n603 - Pinheirinho / Rui Barbosa/nX08 - Reforço Pinheirinho</name><description>ID: 285448&lt;br/&gt;Tipo: INTERMEDIÁRIO&lt;br/&gt;Distância: 3,594 km</description><Point><coordinates>-49.295882,-25.508499,0</coordinates></Point></Placemark><Placemark><name>10 - 105703 - Terminal Pinheirinho/n602 - Circular Sul (Anti-Horário) (Sentido Sitio Cercado)</name><description>ID: 285449&lt;br/&gt;Tipo: OBRIGATÓRIO&lt;br/&gt;Distância: 4,048 km</description><Point><coordinates>-49.295636,-25.512314,0</coordinates></Point></Placemark><Placemark><name>11 - 108123 - Estação Tubo Winston Churchill -  Sítio Cercado/nX20 - Potão/Sítio Cercado (Sentido Terminal Sítio Cercado)/n602 - Circular Sul (ANTI-HORÁRIO)(Sentido Terminal Sítio Cercado)</name><description>ID: 285450&lt;br/&gt;Tipo: INTERMEDIÁRIO&lt;br/&gt;Distância: 4,996 km</description><Point><coordinates>-49.295568,-25.520712,0</coordinates></Point></Placemark><Placemark><name>12 - 108125 - Estação Tubo Sagrado Coração -  Sitio Cercado/nX20 - Potão/Sitio Cercado(Sentido Terminal Sítio Cercado)/n602 - Circular Sul (ANTI-HORÁRIO)(Sentido Terminal Sítio Cercado)</name><description>ID: 285451&lt;br/&gt;Tipo: INTERMEDIÁRIO&lt;br/&gt;Distância: 5,964 km</description><Point><coordinates>-49.291496,-25.528058,0</coordinates></Point></Placemark><Placemark><name>13 - 108127 - Estação Tubo Rosa Tortato - Sitio Cercado/nX20 - Portão/Sítio Cercado (Sentido Terminal Sítio Cercado)/n602 - Circular Sul(ANTI-HORÁRIO)(Sentido Termiinal Sítio Cercado)</name><description>ID: 285452&lt;br/&gt;Tipo: INTERMEDIÁRIO&lt;br/&gt;Distância: 6,433 km</description><Point><coordinates>-49.287770,-25.530848,0</coordinates></Point></Placemark><Placemark><name>14 - 108129 - Estação Tubo Arroio Cercado -  Sítio Cercado/nX20 - Portão/Sítio Cercado(Sentido Terminal Sítio Cercado)/n602 - Circular Sul (ANTI-HORÁRIO)(Sentido Terminal Sítio Cercado)</name><description>ID: 285453&lt;br/&gt;Tipo: INTERMEDIÁRIO&lt;br/&gt;Distância: 7,083 km</description><Point><coordinates>-49.282751,-25.534667,0</coordinates></Point></Placemark><Placemark><name>15 - 108131 - Estação Tubo Quitandinha -  Sitio Cercado/nX20 - Portão/Sítio Cercado(Sentido Terminal Sítio Cercado)/n602 - Circular Sul(ANTI-HORÁRIO)(Sentido Terminal Sítio Cercado)</name><description>ID: 285454&lt;br/&gt;Tipo: INTERMEDIÁRIO&lt;br/&gt;Distância: 7,979 km</description><Point><coordinates>-49.274466,-25.535810,0</coordinates></Point></Placemark><Placemark><name>16 - 106102 - Terminal Sítio Cercado - 602 - Circular Sul (Anti-Horário) Sentido Boqueirão_Terminal Sítio Cercado - X12 - Especial Boqueirão_Terminal Sítio Cercado - X20 - Portão / Sítio Cercado.</name><description>ID: 285455&lt;br/&gt;Tipo: OBRIGATÓRIO&lt;br/&gt;Distância: 8,574 km</description><Point><coordinates>-49.268594,-25.534440,0</coordinates></Point></Placemark><Placemark><name>17 - 108098 - Estação Tubo Coqueiros - Boqueirão/n602 - Circular Sul(ANTI-HORÁRIO)(Sentido Terminal Sítio Cercado)</name><description>ID: 285456&lt;br/&gt;Tipo: INTERMEDIÁRIO&lt;br/&gt;Distância: 9,283 km</description><Point><coordinates>-49.261786,-25.532562,0</coordinates></Point></Placemark><Placemark><name>18 - 108100 - Estação Tubo Érico Veríssimo - Boqueirão/n602 - Circular Sul(ANTI-HORÁRIO)(Sentido Terminal Sítio Cercado)</name><description>ID: 285457&lt;br/&gt;Tipo: INTERMEDIÁRIO&lt;br/&gt;Distância: 9,948 km</description><Point><coordinates>-49.255340,-25.531236,0</coordinates></Point></Placemark><Placemark><name>19 - 108102 - Estação Tubo Euclides da Cunha - Boqueirão/n602 - Ciruclar Sul(ANTI-HORÁRIO)(Sentido Terminal Sítio Cercado)</name><description>ID: 285458&lt;br/&gt;Tipo: INTERMEDIÁRIO&lt;br/&gt;Distância: 10,467 km</description><Point><coordinates>-49.250161,-25.529997,0</coordinates></Point></Placemark><Placemark><name>20 - 108104 - Estação Tubo Eucaliptos - Boqueirão/n602 - Circular Sul(ANTI-HORÁRIO)(Sentido Terminal Sítio Cercado)</name><description>ID: 285459&lt;br/&gt;Tipo: INTERMEDIÁRIO&lt;br/&gt;Distância: 10,872 km</description><Point><coordinates>-49.246220,-25.529054,0</coordinates></Point></Placemark><Placemark><name>21 - 108106 - Estação Tubo Nova Europa - Boqueirão/n602 - Circular Sul(ANTI-HORÁRIO)(Sentido Terminal Sítio Cercado)</name><description>ID: 285460&lt;br/&gt;Tipo: INTERMEDIÁRIO&lt;br/&gt;Distância: 11,432 km</description><Point><coordinates>-49.240706,-25.527780,0</coordinates></Point></Placemark><Placemark><name>22 - 108108 - Estação Tubo Araça - Boqueirão/n602 - Circular SUl(ANTI-HORÁRIO)(Sentido Terminal Sítio Cercado)</name><description>ID: 285461&lt;br/&gt;Tipo: INTERMEDIÁRIO&lt;br/&gt;Distância: 11,782 km</description><Point><coordinates>-49.237278,-25.526944,0</coordinates></Point></Placemark><Placemark><name>23 - 108110 - Estação Tubo Erton Coelho - Boqueirão/n602 - Circular Sul(ANTI-HORÁRIO)(Sentido Terminal Sítio Cercado)</name><description>ID: 285462&lt;br/&gt;Tipo: INTERMEDIÁRIO&lt;br/&gt;Distância: 12,435 km</description><Point><coordinates>-49.230906,-25.525441,0</coordinates></Point></Placemark><Placemark><name>24 - 108112 - Estação Tubo Parque Iguaçú - Boqueirão/nX12 - Especial Boqueirão/n503 - Boqueirão/n602 - Circular Sul (ANTI-HORÁRIO)</name><description>ID: 285463&lt;br/&gt;Tipo: INTERMEDIÁRIO&lt;br/&gt;Distância: 13,249 km</description><Point><coordinates>-49.227946,-25.521034,0</coordinates></Point></Placemark><Placemark><name>25 - 104304 - Terminal Boqueirão - 602 - Circular Sul (Anti-Horário) Sentido Hauer</name><description>ID: 285464&lt;br/&gt;Tipo: OBRIGATÓRIO&lt;br/&gt;Distância: 13,829 km</description><Point><coordinates>-49.230245,-25.516450,0</coordinates></Point></Placemark><Placemark><name>26 - 108095 - Estação Tubo Antônio de Paula/n503 - Boqueirão (sentido Praça Carlos Gomes)/n602 - Circular Sul (AH) (sentido Hauer)</name><description>ID: 285465&lt;br/&gt;Tipo: INTERMEDIÁRIO&lt;br/&gt;Distância: 14,419 km</description><Point><coordinates>-49.232588,-25.511499,0</coordinates></Point></Placemark><Placemark><name>27 - 108093 - Estação Tubo Quartel /n503 - Boqueirão (sentido Praça Carlos Gomes)/n602 - Circular Sul (AH) (sentido Hauer)</name><description>ID: 285466&lt;br/&gt;Tipo: INTERMEDIÁRIO&lt;br/&gt;Distância: 15,051 km</description><Point><coordinates>-49.235135,-25.506250,0</coordinates></Point></Placemark><Placemark><name>28 - 104904 - Terminal Carmo/n503 - Boqueirão (Sentido Praça Carlos Gomes)/n602 - Circular Sul (Anti-Horário) (Sentido Hauer)</name><description>ID: 285467&lt;br/&gt;Tipo: INTERMEDIÁRIO&lt;br/&gt;Distância: 15,610 km</description><Point><coordinates>-49.237535,-25.501615,0</coordinates></Point></Placemark><Placemark><name>29 - 108091 - Estação Tubo Cel. Luiz José dos Santos/n503 - Boqueirão (Sentido Praça Carlos Gomes)/n602 - Circular Sul (AH) (Sentido Hauer)</name><description>ID: 285468&lt;br/&gt;Tipo: INTERMEDIÁRIO&lt;br/&gt;Distância: 16,371 km</description><Point><coordinates>-49.240567,-25.495178,0</coordinates></Point></Placemark><Placemark><name>30 - 108089 - Estação Tubo Hipólito da Costa/n503 - Boqueirão (sentido Praça Carlos Gomes)/n602 - Circular Sul (AH) (sentido Hauer)</name><description>ID: 285469&lt;br/&gt;Tipo: INTERMEDIÁRIO&lt;br/&gt;Distância: 17,090 km</description><Point><coordinates>-49.243255,-25.489675,0</coordinates></Point></Placemark><Placemark><name>31 - 108087 - Estação Tubo Passarela/n602 - Circular Sul (AH) (sentido Hauer)/n503 - Boqueirão (sentido Praça Carlos Gomes</name><description>ID: 285470&lt;br/&gt;Tipo: INTERMEDIÁRIO&lt;br/&gt;Distância: 17,496 km</description><Point><coordinates>-49.245121,-25.485848,0</coordinates></Point></Placemark><Placemark><name>32 - 105503 - Terminal Hauer - 602 - Circular Sul (Anti-Horário) (Sentido Portão)</name><description>ID: 285471&lt;br/&gt;Tipo: OBRIGATÓRIO&lt;br/&gt;Distância: 17,978 km</description><Point><coordinates>-49.246866,-25.482014,0</coordinates></Point></Placemark><Placemark><name>33 - 108085 - Estação Tubo Pádua Fleury/n503 - Boqueirão (sentido Praça Carlos Gomes)/n602 - Circular Sul (AH) (sentido Portão)</name><description>ID: 285472&lt;br/&gt;Tipo: INTERMEDIÁRIO&lt;br/&gt;Distância: 18,721 km</description><Point><coordinates>-49.249993,-25.475889,0</coordinates></Point></Placemark><Placemark><name>34 - 108084 - Estação Tubo Roberto Hauer/n503 - Boqueirão (sentido Praça Carlos Gomes)/n602 - Circular Sul (AH) (sentido Portão)</name><description>ID: 285473&lt;br/&gt;Tipo: INTERMEDIÁRIO&lt;br/&gt;Distância: 19,139 km</description><Point><coordinates>-49.251698,-25.472307,0</coordinates></Point></Placemark><Placemark><name>35 - 108211 - Estação Tubo Marechal Floriano/n550 - Ligeirão Pinheirinho / C. Gomes (sentido Pinheirinho)/n602 - Circular Sul (AH) (sentido Portão)/n605 - Ctba / Faz. Rio Grande (sentido Fazenda Rio Grande)/n350 - Atuba / Pinheirinho</name><description>ID: 285474&lt;br/&gt;Tipo: INTERMEDIÁRIO&lt;br/&gt;Distância: 19,694 km</description><Point><coordinates>-49.254036,-25.469144,0</coordinates></Point></Placemark><Placemark><name>36 - 108113 - Estação Tubo Marumbi -  Portão /n602 - Circular Sul(ANTI-HORÁRIO)</name><description>ID: 285475&lt;br/&gt;Tipo: INTERMEDIÁRIO&lt;br/&gt;Distância: 20,837 km</description><Point><coordinates>-49.264478,-25.472415,0</coordinates></Point></Placemark><Placemark><name>37 - 108115 - Estação Tubo Lindóia - Portão/n602 - CIrcular Sul(ANTI-HORÁRIO)</name><description>ID: 285476&lt;br/&gt;Tipo: INTERMEDIÁRIO&lt;br/&gt;Distância: 21,383 km</description><Point><coordinates>-49.270055,-25.473775,0</coordinates></Point></Placemark><Placemark><name>38 - 108117 - Estação Tubo Antero de Quental -  Portão/n602 - Circular Sul(ANTI-HORÁRIO)</name><description>ID: 285477&lt;br/&gt;Tipo: INTERMEDIÁRIO&lt;br/&gt;Distância: 21,819 km</description><Point><coordinates>-49.274147,-25.474764,0</coordinates></Point></Placemark><Placemark><name>39 - 108119 - Estação Tubo Dom Ático -  Portão/n602  - Circular Sul(ANTI-HORÁRIO)</name><description>ID: 285478&lt;br/&gt;Tipo: INTERMEDIÁRIO&lt;br/&gt;Distância: 22,446 km</description><Point><coordinates>-49.280207,-25.476243,0</coordinates></Point></Placemark><Placemark><name>40 - 108121 - Estação Tubo Wenceslau Braz -  Portão/n602 - Circular Sul (ANTI-HORÁRIO)</name><description>ID: 285479&lt;br/&gt;Tipo: INTERMEDIÁRIO&lt;br/&gt;Distância: 22,918 km</description><Point><coordinates>-49.285011,-25.477418,0</coordinates></Point></Placemark><Placemark><name>41 - 105802 - Terminal  Portão - 250 - Ligeirão Norte/Sul_Terminal  Portão - 202 - Cabral / C.Raso (Sentido Capão Raso)_Terminal  Portão - 203 - Sta. Cândida / C. Raso (Sentido Capão Raso)_Terminal  Portão - 603 - Pinheirinho / R. Barbosa  (Sentido Pinheirinho)_Terminal  Portão - 602 - Circular Sul (AH)  (Sentido Pinheirinho)_Terminal  Portão - X20 - Portão / Sítio Cercado (Sentido Sítio Cercado)</name><description>ID: 285440&lt;br/&gt;Tipo: OBRIGATÓRIO&lt;br/&gt;Distância: 24,179 km</description><Point><coordinates>-49.292681,-25.476410,0</coordinates></Point></Placemark></Document></kml>