<?xml version='1.0' encoding='utf-8'?>
<kml xmlns="http://www.opengis.net/kml/2.2"><Document><name>666-novo_mundo-convencional-volta</name><Style id="trajeto"><LineStyle><color>ff0000ff</color><width>5</width></LineStyle></Style><Placemark><name>Trajeto</name><styleUrl>#trajeto</styleUrl><LineString><tessellate>1</tessellate><coordinates>-49.274537,-25.435827,0
-49.274251,-25.435642,0
-49.274011,-25.435492,0
-49.273896,-25.435424,0
-49.273802,-25.435366,0
-49.273485,-25.435244,0
-49.272971,-25.435030,0
-49.272374,-25.434795,0
-49.272147,-25.434706,0
-49.271980,-25.434643,0
-49.271843,-25.434970,0
-49.271737,-25.435217,0
-49.271460,-25.435767,0
-49.271396,-25.435885,0
-49.271314,-25.436068,0
-49.271138,-25.436464,0
-49.271034,-25.436695,0
-49.270825,-25.437138,0
-49.270652,-25.437502,0
-49.270594,-25.437608,0
-49.270921,-25.437733,0
-49.271551,-25.437970,0
-49.271832,-25.438086,0
-49.272179,-25.438225,0
-49.272430,-25.438328,0
-49.272636,-25.438413,0
-49.272997,-25.438552,0
-49.273213,-25.438634,0
-49.273638,-25.438802,0
-49.273563,-25.438910,0
-49.273484,-25.439068,0
-49.273347,-25.439336,0
-49.273216,-25.439598,0
-49.273106,-25.439821,0
-49.273024,-25.439982,0
-49.272947,-25.440137,0
-49.272859,-25.440319,0
-49.272764,-25.440513,0
-49.272690,-25.440662,0
-49.272616,-25.440812,0
-49.272292,-25.441470,0
-49.272236,-25.441578,0
-49.272050,-25.441972,0
-49.271794,-25.442513,0
-49.271685,-25.442740,0
-49.271556,-25.442984,0
-49.271503,-25.443096,0
-49.271407,-25.443296,0
-49.271311,-25.443492,0
-49.271164,-25.443802,0
-49.271029,-25.444071,0
-49.270893,-25.444354,0
-49.270802,-25.444540,0
-49.270581,-25.445014,0
-49.270414,-25.445367,0
-49.270254,-25.445708,0
-49.270146,-25.445941,0
-49.270006,-25.446215,0
-49.269884,-25.446455,0
-49.269675,-25.446868,0
-49.269484,-25.447242,0
-49.269346,-25.447522,0
-49.269189,-25.447848,0
-49.269071,-25.448086,0
-49.268836,-25.448568,0
-49.268655,-25.448902,0
-49.268501,-25.449190,0
-49.268384,-25.449409,0
-49.268217,-25.449720,0
-49.268105,-25.449960,0
-49.268000,-25.450183,0
-49.267837,-25.450539,0
-49.267623,-25.450997,0
-49.267408,-25.451456,0
-49.267268,-25.451737,0
-49.267067,-25.452138,0
-49.266943,-25.452391,0
-49.266843,-25.452584,0
-49.266682,-25.452924,0
-49.266530,-25.453239,0
-49.266417,-25.453474,0
-49.266315,-25.453683,0
-49.266112,-25.454106,0
-49.266237,-25.454210,0
-49.266448,-25.454388,0
-49.266880,-25.454772,0
-49.267126,-25.454991,0
-49.267317,-25.455162,0
-49.267613,-25.455431,0
-49.267955,-25.455739,0
-49.268313,-25.456060,0
-49.268569,-25.456289,0
-49.268859,-25.456552,0
-49.269095,-25.456765,0
-49.269326,-25.456979,0
-49.269608,-25.457231,0
-49.269932,-25.457521,0
-49.270083,-25.457658,0
-49.270230,-25.457790,0
-49.270386,-25.457934,0
-49.270544,-25.458074,0
-49.270824,-25.458329,0
-49.271038,-25.458520,0
-49.271233,-25.458699,0
-49.271321,-25.458776,0
-49.271414,-25.458860,0
-49.271981,-25.459369,0
-49.272278,-25.459638,0
-49.272621,-25.459951,0
-49.272907,-25.460211,0
-49.273172,-25.460449,0
-49.273318,-25.460579,0
-49.273487,-25.460730,0
-49.273718,-25.460939,0
-49.273936,-25.461140,0
-49.274266,-25.461443,0
-49.274403,-25.461565,0
-49.274756,-25.461881,0
-49.275050,-25.462145,0
-49.275041,-25.462297,0
-49.274875,-25.462654,0
-49.274644,-25.463155,0
-49.274598,-25.463249,0
-49.274443,-25.463592,0
-49.274153,-25.464219,0
-49.273873,-25.464814,0
-49.273689,-25.465205,0
-49.273575,-25.465460,0
-49.273438,-25.465771,0
-49.273320,-25.466023,0
-49.273243,-25.466192,0
-49.273115,-25.466471,0
-49.272887,-25.466958,0
-49.272808,-25.467131,0
-49.272731,-25.467305,0
-49.272532,-25.467754,0
-49.272373,-25.468108,0
-49.272210,-25.468450,0
-49.272131,-25.468616,0
-49.272084,-25.468717,0
-49.271991,-25.468922,0
-49.271904,-25.469119,0
-49.271798,-25.469350,0
-49.271714,-25.469538,0
-49.271728,-25.469548,0
-49.271740,-25.469560,0
-49.271748,-25.469573,0
-49.271755,-25.469593,0
-49.271748,-25.469621,0
-49.271758,-25.469625,0
-49.271949,-25.469697,0
-49.272189,-25.469787,0
-49.272530,-25.469916,0
-49.273037,-25.470107,0
-49.273784,-25.470396,0
-49.274335,-25.470606,0
-49.274864,-25.470810,0
-49.275656,-25.471113,0
-49.276038,-25.471262,0
-49.276606,-25.471479,0
-49.276967,-25.471618,0
-49.277531,-25.471833,0
-49.277844,-25.471954,0
-49.278319,-25.472135,0
-49.278704,-25.472281,0
-49.279322,-25.472517,0
-49.279648,-25.472642,0
-49.280044,-25.472796,0
-49.280468,-25.472961,0
-49.280991,-25.473164,0
-49.281293,-25.473278,0
-49.281783,-25.473463,0
-49.282330,-25.473667,0
-49.282666,-25.473797,0
-49.282972,-25.473918,0
-49.283280,-25.474041,0
-49.283642,-25.474183,0
-49.283895,-25.474278,0
-49.284175,-25.474383,0
-49.284586,-25.474537,0
-49.285007,-25.474693,0
-49.285297,-25.474801,0
-49.285732,-25.474964,0
-49.286058,-25.475085,0
-49.287228,-25.475521,0
-49.287746,-25.475713,0
-49.287467,-25.476252,0
-49.287420,-25.476308,0
-49.287368,-25.476356,0
-49.287216,-25.476480,0
-49.287129,-25.476553,0
-49.287094,-25.476596,0
-49.287038,-25.476670,0
-49.287010,-25.476707,0
-49.286904,-25.476911,0
-49.286761,-25.477179,0
-49.286632,-25.477423,0
-49.286620,-25.477558,0
-49.286616,-25.477689,0
-49.286623,-25.477753,0
-49.286753,-25.477786,0
-49.286840,-25.477805,0
-49.286894,-25.477804,0
-49.286894,-25.477914,0
-49.286874,-25.478063,0
-49.286798,-25.478092,0
-49.286716,-25.478108,0
-49.286668,-25.478106,0
-49.286558,-25.478086,0
-49.286424,-25.478061,0
-49.286274,-25.478048,0
-49.286172,-25.478024,0
-49.286076,-25.477999,0
-49.285925,-25.478070,0
-49.285761,-25.478140,0
-49.285628,-25.478192,0
-49.285410,-25.478252,0
-49.285544,-25.478561,0
-49.285682,-25.478883,0
-49.285768,-25.479083,0
-49.285977,-25.479459,0
-49.286188,-25.479846,0
-49.286297,-25.480106,0
-49.286364,-25.480277,0
-49.286348,-25.480496,0
-49.286334,-25.480701,0
-49.286324,-25.480872,0
-49.286396,-25.480901,0
-49.286466,-25.480928,0
-49.286518,-25.480957,0
-49.286621,-25.481017,0
-49.286688,-25.481075,0
-49.286747,-25.481157,0
-49.287052,-25.481235,0
-49.287372,-25.481301,0
-49.287694,-25.481359,0
-49.288150,-25.481441,0
-49.288131,-25.481594,0
-49.288108,-25.481769,0
-49.288078,-25.482024,0
-49.288075,-25.482062,0
-49.288077,-25.482232,0
-49.288089,-25.482317,0
-49.288110,-25.482383,0
-49.288178,-25.482515,0
-49.288241,-25.482585,0
-49.288304,-25.482645,0
-49.288409,-25.482726,0
-49.288554,-25.482845,0
-49.288685,-25.482947,0
-49.288781,-25.483019,0
-49.288875,-25.483093,0
-49.288900,-25.483115,0
-49.288958,-25.483214,0
-49.288995,-25.483298,0
-49.289017,-25.483413,0
-49.289038,-25.483515,0
-49.289101,-25.483668,0
-49.289092,-25.483931,0
-49.289104,-25.484193,0
-49.289112,-25.484447,0
-49.289117,-25.484665,0
-49.289121,-25.484860,0
-49.289105,-25.485263,0
-49.289094,-25.485639,0
-49.289090,-25.485843,0
-49.289083,-25.486083,0
-49.289109,-25.486314,0
-49.289134,-25.486541,0
-49.289167,-25.486614,0
-49.289192,-25.486690,0
-49.289194,-25.486714,0
-49.289188,-25.486744,0
-49.289151,-25.486804,0
-49.289112,-25.486858,0
-49.289016,-25.486990,0
-49.288866,-25.487196,0
-49.288635,-25.487473,0
-49.288387,-25.487766,0
-49.288239,-25.487943,0
-49.288018,-25.488226,0
-49.287842,-25.488448,0
-49.287761,-25.488550,0
-49.287612,-25.488724,0
-49.287354,-25.489030,0
-49.287117,-25.489309,0
-49.286866,-25.489603,0
-49.286712,-25.489787,0
-49.286543,-25.489983,0
-49.286316,-25.490259,0
-49.286269,-25.490327,0
-49.286223,-25.490404,0
-49.286196,-25.490450,0
-49.286176,-25.490492,0
-49.286126,-25.490592,0
-49.285985,-25.490878,0
-49.285895,-25.491092,0
-49.285801,-25.491317,0</coordinates></LineString></Placemark><Placemark><name>1 - 102001 - Praça Rui Barbosa - 666- Novo Mundo</name><description>ID: 297128&lt;br/&gt;Tipo: OBRIGATÓRIO&lt;br/&gt;Distância: 0,000 km</description><Point><coordinates>-49.274486,-25.435887,0</coordinates></Point></Placemark><Placemark><name>2 - 110022 - 661 - Lindóia (Sentido Lindóia)/n662 - Dom Ático (Sentido Dom Ático)/n663 - Vila Cubas (Sentido Vila Cubas)/n665 - Vila Rex (Sentido V. Rex)/n666 - Novo Mundo (Sentido Novo Mundo)/n670 - São Jorge (Sentido S. Jorge)/n671 - Portão (Sentido Portão)/n673 - Formosa (Sentido Formosa)/n674 - Nossa Sra. da Luz (Sentido Nossa Sra. da Luz)/n689 - Mad. São Pedro / Rio Negro (Sentido São Pedro)/n701 - Fazendinha (SentidoTerminal Fazendinha)/n703 - Caiuá (Sentido Terminal Caiuá)/n706 - Caiua/Faz/Centro (Sentid</name><description>ID: 297129&lt;br/&gt;Tipo: INTERMEDIÁRIO&lt;br/&gt;Distância: 1,090 km</description><Point><coordinates>-49.273240,-25.439756,0</coordinates></Point></Placemark><Placemark><name>3 - 110023 - 378 - Inter-Hospitais/n661 - Lindóia (sentido Lindóia)/n662 - Dom Ático (sentido D. Ático)/n663 - Vila Cubas (sentido V. Cubas)/n665 - Vila Rex (sentido V. Rex)/n666 - Novo Mundo (sentido N. Mundo)/n689 - Mad. S. Pedro / Rio Negro (Sentido S. Pedro)/n863 - Água Verde</name><description>ID: 297130&lt;br/&gt;Tipo: INTERMEDIÁRIO&lt;br/&gt;Distância: 1,599 km</description><Point><coordinates>-49.271078,-25.444237,0</coordinates></Point></Placemark><Placemark><name>4 - 150180 - 661 - Lindóia (Sentido Lindóia)/n662 - Dom Ático (Sentido D. Ático)/n663 - Vila Cubas (Sentido V. Cubas)/n665 - Vila Rex (Sentido V. Rex)/n666 - Novo Mundo (Sentido N. Mundo)/n689 - Mad. S. Pedro / Rio Negro (Sentido S. Pedro)</name><description>ID: 297131&lt;br/&gt;Tipo: INTERMEDIÁRIO&lt;br/&gt;Distância: 2,081 km</description><Point><coordinates>-49.269060,-25.448215,0</coordinates></Point></Placemark><Placemark><name>5 - 150181 - 661 - Lindóia (Sentido Lindóia)/n662 - Dom Ático (Sentido D. Ático)/n663 - Vila Cubas (Sentido V. Cubas)/n665 - Vila Rex (Sentido V. Rex)/n666 - Novo Mundo (Sentido N. Mundo)/n689 - Mad. S. Pedro / Rio Negro (Sentido Bairro)</name><description>ID: 297132&lt;br/&gt;Tipo: INTERMEDIÁRIO&lt;br/&gt;Distância: 2,431 km</description><Point><coordinates>-49.267590,-25.451248,0</coordinates></Point></Placemark><Placemark><name>6 - 150182 - 216 - Cabral / Portão (Sentido Terminal Portão)/n614 - Fazendinha / Puc/n661 - Lindóia (sentido Lindóia)/n662 - Dom Ático (sentido D. Ático)/n663 - Vila Cubas (sentido V. Cubas)/n665 - Vila Rex (sentido V. Rex)/n666 - Novo Mundo (sentido N. Mundo)/n689 - Mad. S. Pedro / Rio Negro (Sentido Bairro)</name><description>ID: 297133&lt;br/&gt;Tipo: INTERMEDIÁRIO&lt;br/&gt;Distância: 2,753 km</description><Point><coordinates>-49.266295,-25.453896,0</coordinates></Point></Placemark><Placemark><name>7 - 150005 - 050 - Interbairros V (Sentido Terminal Fazendinha )/n216 - Cabral / Portão (Sentido Terminal Portão)/n614- Fazendinha / Puc (Sentido Terminal Fazendinha)/n661 - Lindóia (sentido Lindóia)/n662 - Dom Ático (sentido D. Ático)/n663 - Vila Cubas (sentido V. Cubas)/n665 - Vila Rex (sentido V. Rex)/n666 - Novo Mundo (sentido N. Mundo)/n689 - Mad. S. Pedro / Rio Negro (Sentido bairro)</name><description>ID: 297134&lt;br/&gt;Tipo: INTERMEDIÁRIO&lt;br/&gt;Distância: 2,970 km</description><Point><coordinates>-49.267390,-25.455180,0</coordinates></Point></Placemark><Placemark><name>8 - 150007 - 050 - Interbairros V (Sentido Terminal Fazendinha )/n216 - Cabral / Portão (Sentido Terminal Portão)/n614- Fazendinha / Puc (Sentido Terminal Fazendinha)/n661 - Lindóia (sentido Lindóia)/n662 - Dom Ático (sentido D. Ático)/n663 - Vila Cubas (sentido V. Cubas)/n665 - Vila Rex (sentido V. Rex)/n666 - Novo Mundo (sentido N. Mundo)/n689 - Mad. S. Pedro / Rio Negro (Sentido bairro)</name><description>ID: 297135&lt;br/&gt;Tipo: INTERMEDIÁRIO&lt;br/&gt;Distância: 3,400 km</description><Point><coordinates>-49.270440,-25.457920,0</coordinates></Point></Placemark><Placemark><name>9 - 150008 - 050 - Interbairros V (Sentido Terminal Fazendinha )/n216 - Cabral / Portão (Sentido Terminal Portão)/n614- Fazendinha / Puc (Sentido Terminal Fazendinha)/n661 - Lindóia (sentido Lindóia)/n662 - Dom Ático (sentido D. Ático)/n663 - Vila Cubas (sentido V. Cubas)/n665 - Vila Rex (sentido V. Rex)/n666 - Novo Mundo (sentido N. Mundo)/n689 - Mad. S. Pedro / Rio Negro (Sentido bairro)</name><description>ID: 297136&lt;br/&gt;Tipo: INTERMEDIÁRIO&lt;br/&gt;Distância: 3,810 km</description><Point><coordinates>-49.273366,-25.460568,0</coordinates></Point></Placemark><Placemark><name>10 - 150656 - 661 - Lindóia (sentido Lindóia)/n662 - Dom Ático (sentido D. Ático)/n666 - Novo Mundo (sentido N. Mundo)</name><description>ID: 297137&lt;br/&gt;Tipo: INTERMEDIÁRIO&lt;br/&gt;Distância: 4,171 km</description><Point><coordinates>-49.274737,-25.463050,0</coordinates></Point></Placemark><Placemark><name>11 - 150659 - 616- Portão / Sta Bernadete - L. Verde (Sentido E.T. Fanny)/n661 - Lindóia (sentido Lindóia)/n662 - Dom Ático (sentido D. Ático)/n666 - Novo Mundo (sentido N. Mundo)</name><description>ID: 297138&lt;br/&gt;Tipo: INTERMEDIÁRIO&lt;br/&gt;Distância: 4,369 km</description><Point><coordinates>-49.273880,-25.464962,0</coordinates></Point></Placemark><Placemark><name>12 - 150661 - 616- Portão / Sta Bernadete - L. Verde (Sentido E.T. Fanny)/n661 - Lindóia (sentido Lindóia)/n662 - Dom Ático (sentido D. Ático)/n666 - Novo Mundo (sentido N. Mundo)</name><description>ID: 297139&lt;br/&gt;Tipo: INTERMEDIÁRIO&lt;br/&gt;Distância: 4,624 km</description><Point><coordinates>-49.272961,-25.466962,0</coordinates></Point></Placemark><Placemark><name>13 - 150662 - 661 - Lindóia (sentido Lindóia)/n662 - Dom Ático (sentido D. Ático)/n666 - Novo Mundo (sentido N. Mundo)</name><description>ID: 297140&lt;br/&gt;Tipo: INTERMEDIÁRIO&lt;br/&gt;Distância: 4,906 km</description><Point><coordinates>-49.271813,-25.469383,0</coordinates></Point></Placemark><Placemark><name>14 - 150664 - 661 - Lindóia (sentido Lindóia)/n662 - Dom Ático (sentido D. Ático)/n666 - Novo Mundo (sentido N. Mundo)</name><description>ID: 297141&lt;br/&gt;Tipo: INTERMEDIÁRIO&lt;br/&gt;Distância: 5,075 km</description><Point><coordinates>-49.273341,-25.470183,0</coordinates></Point></Placemark><Placemark><name>15 - 150816 - 616- Portão / Sta Bernadete - L. Verde (Sentido Terminal Portão)/n661 - Lindóia (sentido Lindóia)/n662 - Dom Ático (sentido D. Ático)/n666 - Novo Mundo (sentido N. Mundo)</name><description>ID: 297142&lt;br/&gt;Tipo: INTERMEDIÁRIO&lt;br/&gt;Distância: 5,359 km</description><Point><coordinates>-49.275456,-25.470985,0</coordinates></Point></Placemark><Placemark><name>16 - 150667 - 616- Portão / Sta Bernadete - L. Verde (Sentido Terminal Portão)/n661 - Lindóia (sentido Lindóia)/n662 - Dom Ático (sentido D. Ático)/n666 - Novo Mundo (sentido N. Mundo)</name><description>ID: 297143&lt;br/&gt;Tipo: INTERMEDIÁRIO&lt;br/&gt;Distância: 5,561 km</description><Point><coordinates>-49.277623,-25.471839,0</coordinates></Point></Placemark><Placemark><name>17 - 150034 - 616 - Portão / Sta Bernadete - L. Verde (Sentido Terminal Portão)/n666 - Novo Mundo (sentido N. Mundo)</name><description>ID: 297144&lt;br/&gt;Tipo: INTERMEDIÁRIO&lt;br/&gt;Distância: 6,020 km</description><Point><coordinates>-49.281780,-25.473413,0</coordinates></Point></Placemark><Placemark><name>18 - 150767 - 616- Portão / Sta Bernadete - L. Verde (Sentido Terminal Portão)/n666 - Novo Mundo (sentido N. Mundo)</name><description>ID: 297145&lt;br/&gt;Tipo: INTERMEDIÁRIO&lt;br/&gt;Distância: 6,321 km</description><Point><coordinates>-49.284758,-25.474567,0</coordinates></Point></Placemark><Placemark><name>19 - 150768 - 616- Portão / Sta Bernadete - L. Verde (Sentido Portão)/n666 - Novo Mundo (sentido N. Mundo)</name><description>ID: 297146&lt;br/&gt;Tipo: INTERMEDIÁRIO&lt;br/&gt;Distância: 6,606 km</description><Point><coordinates>-49.286861,-25.475354,0</coordinates></Point></Placemark><Placemark><name>20 - 150769 - 616- Portão / Sta Bernadete - L. Verde (Sentido E.T. Sta Bernadete)/n663 - Vila Cubas (sentido V. Cubas)/n666 - Novo Mundo (sentido N. Mundo)/n689 - Mad. S. Pedro / Rio Negro (Sentido Bairro)</name><description>ID: 297147&lt;br/&gt;Tipo: INTERMEDIÁRIO&lt;br/&gt;Distância: 6,879 km</description><Point><coordinates>-49.286743,-25.477344,0</coordinates></Point></Placemark><Placemark><name>21 - 150770 - 616- Portão / Sta Bernadete - L. Verde (Sentido E.T. Sta Bernadete)/n663 - Vila Cubas (sentido V. Cubas)/n666 - Novo Mundo (sentido N. Mundo)</name><description>ID: 297148&lt;br/&gt;Tipo: INTERMEDIÁRIO&lt;br/&gt;Distância: 7,216 km</description><Point><coordinates>-49.285906,-25.479221,0</coordinates></Point></Placemark><Placemark><name>22 - 150110 - 616- Portão / Sta Bernadete - L. Verde (Sentido E.T. Sta Bernadete)/n663 - Vila Cubas (sentido V. Cubas)/n666 - Novo Mundo (sentido N. Mundo)</name><description>ID: 297149&lt;br/&gt;Tipo: INTERMEDIÁRIO&lt;br/&gt;Distância: 7,570 km</description><Point><coordinates>-49.287937,-25.481324,0</coordinates></Point></Placemark><Placemark><name>23 - 150115 - 616- Portão / Sta Bernadete - L. Verde (Sentido E.T. Sta Bernadete)/n663 - Vila Cubas (sentido V. Cubas)/n666 - Novo Mundo (sentido N. Mundo)</name><description>ID: 297150&lt;br/&gt;Tipo: INTERMEDIÁRIO&lt;br/&gt;Distância: 7,785 km</description><Point><coordinates>-49.288572,-25.482753,0</coordinates></Point></Placemark><Placemark><name>24 - 150772 - 616- Portão / Sta Bernadete - L. Verde (Sentido E.T. Sta Bernadete)/n663 - Vila Cubas (sentido V. Cubas) /n666 - Novo Mundo (sentido N. Mundo)</name><description>ID: 297151&lt;br/&gt;Tipo: INTERMEDIÁRIO&lt;br/&gt;Distância: 8,067 km</description><Point><coordinates>-49.289134,-25.485097,0</coordinates></Point></Placemark><Placemark><name>25 - 150643 - 666 - Novo Mundo (sentido bairro)</name><description>ID: 297099&lt;br/&gt;Tipo: INTERMEDIÁRIO&lt;br/&gt;Distância: 8,258 km</description><Point><coordinates>-49.289060,-25.486982,0</coordinates></Point></Placemark><Placemark><name>26 - 150645 - 666 - Novo Mundo (sentido bairro)</name><description>ID: 297152&lt;br/&gt;Tipo: INTERMEDIÁRIO&lt;br/&gt;Distância: 8,426 km</description><Point><coordinates>-49.288113,-25.488129,0</coordinates></Point></Placemark><Placemark><name>27 - 150647 - 666 - Novo Mundo (sentido bairro)</name><description>ID: 297153&lt;br/&gt;Tipo: INTERMEDIÁRIO&lt;br/&gt;Distância: 8,640 km</description><Point><coordinates>-49.286775,-25.489787,0</coordinates></Point></Placemark><Placemark><name>28 - 150651 - 666 - Novo Mundo</name><description>ID: 297090&lt;br/&gt;Tipo: OBRIGATÓRIO&lt;br/&gt;Distância: 8,829 km</description><Point><coordinates>-49.285910,-25.491331,0</coordinates></Point></Placemark></Document></kml>