<?xml version='1.0' encoding='utf-8'?>
<kml xmlns="http://www.opengis.net/kml/2.2"><Document><name>666-novo_mundo-convencional-ida</name><Style id="trajeto"><LineStyle><color>ff0000ff</color><width>5</width></LineStyle></Style><Placemark><name>Trajeto</name><styleUrl>#trajeto</styleUrl><LineString><tessellate>1</tessellate><coordinates>-49.285822,-25.491274,0
-49.285564,-25.491881,0
-49.285317,-25.492392,0
-49.285019,-25.492035,0
-49.284683,-25.491641,0
-49.284379,-25.491250,0
-49.284208,-25.490999,0
-49.284138,-25.490909,0
-49.284108,-25.490889,0
-49.284062,-25.490872,0
-49.284004,-25.490882,0
-49.283874,-25.490966,0
-49.283562,-25.491167,0
-49.282780,-25.491697,0
-49.281453,-25.492599,0
-49.281264,-25.492732,0
-49.281071,-25.492862,0
-49.280797,-25.493048,0
-49.280579,-25.493193,0
-49.280407,-25.493312,0
-49.280588,-25.493542,0
-49.280752,-25.493750,0
-49.280909,-25.493955,0
-49.280999,-25.494058,0
-49.281148,-25.494226,0
-49.281211,-25.494388,0
-49.281486,-25.494399,0
-49.281875,-25.494427,0
-49.282284,-25.494464,0
-49.282611,-25.494496,0
-49.282780,-25.494512,0
-49.283121,-25.494549,0
-49.283248,-25.494562,0
-49.283486,-25.494579,0
-49.283635,-25.494593,0
-49.283822,-25.494604,0
-49.284208,-25.494625,0
-49.284535,-25.494633,0
-49.284829,-25.494644,0
-49.284948,-25.494643,0
-49.285332,-25.494643,0
-49.285707,-25.494628,0
-49.285864,-25.494629,0
-49.285926,-25.494631,0
-49.286017,-25.494644,0
-49.286064,-25.494654,0
-49.286149,-25.494670,0
-49.286251,-25.494692,0
-49.286298,-25.494709,0
-49.286348,-25.494739,0
-49.286399,-25.494765,0
-49.286563,-25.494846,0
-49.286692,-25.494906,0
-49.286779,-25.494943,0
-49.286848,-25.494962,0
-49.286921,-25.494982,0
-49.287055,-25.495011,0
-49.287159,-25.495008,0
-49.287245,-25.495000,0
-49.287322,-25.494986,0
-49.287435,-25.494939,0
-49.287511,-25.494897,0
-49.287639,-25.494816,0
-49.287798,-25.494693,0
-49.287925,-25.494578,0
-49.288086,-25.494425,0
-49.288258,-25.494263,0
-49.288374,-25.494155,0
-49.288693,-25.493822,0
-49.288880,-25.493629,0
-49.289097,-25.493404,0
-49.289311,-25.493052,0
-49.289511,-25.492722,0
-49.289671,-25.492407,0
-49.289221,-25.492069,0
-49.288982,-25.491889,0
-49.288813,-25.491762,0
-49.288623,-25.491623,0
-49.288434,-25.491470,0
-49.288146,-25.491231,0
-49.287864,-25.491013,0
-49.287601,-25.490808,0
-49.287341,-25.490603,0
-49.287101,-25.490418,0
-49.286872,-25.490239,0
-49.286625,-25.490047,0
-49.286544,-25.489984,0
-49.286667,-25.489837,0
-49.286881,-25.489586,0
-49.287022,-25.489422,0
-49.287249,-25.489154,0
-49.287479,-25.488884,0
-49.287774,-25.488535,0
-49.287885,-25.488396,0
-49.288014,-25.488231,0
-49.288242,-25.487940,0
-49.288371,-25.487787,0
-49.288525,-25.487602,0
-49.288710,-25.487381,0
-49.288871,-25.487188,0
-49.289036,-25.486965,0
-49.289171,-25.486777,0
-49.289186,-25.486752,0
-49.289194,-25.486727,0
-49.289192,-25.486689,0
-49.289166,-25.486615,0
-49.289133,-25.486540,0
-49.289107,-25.486309,0
-49.289084,-25.486083,0
-49.289087,-25.485945,0
-49.289094,-25.485669,0
-49.289104,-25.485256,0
-49.289120,-25.484856,0
-49.289112,-25.484431,0
-49.289095,-25.484007,0
-49.289093,-25.483924,0
-49.289100,-25.483671,0
-49.289089,-25.483637,0
-49.289035,-25.483507,0
-49.288991,-25.483293,0
-49.288956,-25.483212,0
-49.288899,-25.483116,0
-49.288747,-25.482993,0
-49.288509,-25.482810,0
-49.288310,-25.482648,0
-49.288257,-25.482602,0
-49.288177,-25.482514,0
-49.288123,-25.482410,0
-49.288096,-25.482345,0
-49.288076,-25.482233,0
-49.288075,-25.482059,0
-49.288080,-25.482012,0
-49.288094,-25.481884,0
-49.288119,-25.481690,0
-49.288149,-25.481442,0
-49.287862,-25.481390,0
-49.287447,-25.481314,0
-49.287117,-25.481250,0
-49.286864,-25.481185,0
-49.286747,-25.481155,0
-49.286687,-25.481074,0
-49.286611,-25.481010,0
-49.286529,-25.480961,0
-49.286451,-25.480920,0
-49.286379,-25.480894,0
-49.286322,-25.480872,0
-49.286334,-25.480693,0
-49.286365,-25.480274,0
-49.286263,-25.480024,0
-49.286187,-25.479843,0
-49.286077,-25.479643,0
-49.285976,-25.479456,0
-49.285851,-25.479232,0
-49.285766,-25.479076,0
-49.285626,-25.478752,0
-49.285501,-25.478465,0
-49.285409,-25.478252,0
-49.284560,-25.478433,0
-49.284096,-25.478531,0
-49.283473,-25.478667,0
-49.283295,-25.478709,0
-49.283130,-25.479326,0
-49.282981,-25.479801,0
-49.282654,-25.480897,0
-49.281345,-25.480590,0
-49.281596,-25.479758,0
-49.281805,-25.479046,0
-49.281865,-25.478880,0
-49.282761,-25.478710,0
-49.283046,-25.478651,0
-49.283212,-25.478616,0
-49.283379,-25.478583,0
-49.283819,-25.478492,0
-49.284243,-25.478402,0
-49.284589,-25.478332,0
-49.285003,-25.478244,0
-49.285311,-25.478167,0
-49.285378,-25.478148,0
-49.285419,-25.478137,0
-49.285464,-25.478114,0
-49.285507,-25.478081,0
-49.285538,-25.478058,0
-49.285562,-25.478031,0
-49.285591,-25.477984,0
-49.285619,-25.477918,0
-49.285670,-25.477783,0
-49.285825,-25.477564,0
-49.286118,-25.477633,0
-49.286387,-25.477700,0
-49.286463,-25.477616,0
-49.286544,-25.477530,0
-49.286627,-25.477430,0
-49.286761,-25.477179,0
-49.286884,-25.476945,0
-49.286947,-25.476830,0
-49.287014,-25.476702,0
-49.287091,-25.476597,0
-49.287156,-25.476529,0
-49.287213,-25.476485,0
-49.287282,-25.476426,0
-49.287376,-25.476351,0
-49.287430,-25.476298,0
-49.287467,-25.476253,0
-49.287572,-25.476050,0
-49.287674,-25.475856,0
-49.287746,-25.475713,0
-49.287376,-25.475578,0
-49.286061,-25.475090,0
-49.285680,-25.474944,0
-49.285222,-25.474774,0
-49.284995,-25.474688,0
-49.284521,-25.474512,0
-49.284062,-25.474342,0
-49.283643,-25.474183,0
-49.283254,-25.474031,0
-49.282995,-25.473928,0
-49.282732,-25.473825,0
-49.282327,-25.473665,0
-49.281765,-25.473455,0
-49.281193,-25.473242,0
-49.280982,-25.473161,0
-49.280680,-25.473043,0
-49.280236,-25.472871,0
-49.279638,-25.472638,0
-49.278954,-25.472388,0
-49.278551,-25.472244,0
-49.278316,-25.472156,0
-49.278064,-25.472059,0
-49.277733,-25.471927,0
-49.277347,-25.471775,0
-49.276989,-25.471635,0
-49.276631,-25.471493,0
-49.276302,-25.471362,0
-49.275968,-25.471234,0
-49.275651,-25.471113,0
-49.275341,-25.470992,0
-49.274674,-25.470737,0
-49.274312,-25.470597,0
-49.273721,-25.470374,0
-49.273453,-25.470269,0
-49.273037,-25.470108,0
-49.272775,-25.470007,0
-49.272501,-25.469904,0
-49.272278,-25.469820,0
-49.271750,-25.469621,0
-49.271726,-25.469636,0
-49.271698,-25.469645,0
-49.271676,-25.469642,0
-49.271655,-25.469631,0
-49.271642,-25.469613,0
-49.271635,-25.469597,0
-49.271641,-25.469578,0
-49.271651,-25.469558,0
-49.271667,-25.469550,0
-49.271685,-25.469541,0
-49.271711,-25.469543,0
-49.271715,-25.469532,0
-49.271842,-25.469256,0
-49.271998,-25.468914,0
-49.272092,-25.468708,0
-49.272139,-25.468600,0
-49.272244,-25.468381,0
-49.272354,-25.468153,0
-49.272466,-25.467897,0
-49.272573,-25.467658,0
-49.272735,-25.467298,0
-49.272809,-25.467124,0
-49.273013,-25.466688,0
-49.273154,-25.466386,0
-49.273258,-25.466162,0
-49.273349,-25.465967,0
-49.273442,-25.465757,0
-49.273563,-25.465490,0
-49.273688,-25.465207,0
-49.273940,-25.464675,0
-49.274041,-25.464456,0
-49.274156,-25.464212,0
-49.274284,-25.463933,0
-49.274437,-25.463600,0
-49.274603,-25.463243,0
-49.274820,-25.462774,0
-49.275041,-25.462296,0
-49.274773,-25.462056,0
-49.274546,-25.461855,0
-49.274323,-25.461637,0
-49.274122,-25.461460,0
-49.273923,-25.461283,0
-49.273775,-25.461151,0
-49.273479,-25.460882,0
-49.273051,-25.460494,0
-49.272836,-25.460308,0
-49.272237,-25.459787,0
-49.271814,-25.459420,0
-49.271692,-25.459314,0
-49.271513,-25.459140,0
-49.271232,-25.458866,0
-49.271039,-25.458681,0
-49.270759,-25.458426,0
-49.270594,-25.458282,0
-49.270338,-25.458048,0
-49.269935,-25.457680,0
-49.269725,-25.457490,0
-49.269516,-25.457303,0
-49.269314,-25.457124,0
-49.269227,-25.457046,0
-49.269019,-25.456854,0
-49.268845,-25.456693,0
-49.268492,-25.456377,0
-49.268181,-25.456099,0
-49.267889,-25.455845,0
-49.267552,-25.455542,0
-49.267297,-25.455325,0
-49.267068,-25.455125,0
-49.266664,-25.454745,0
-49.266486,-25.454584,0
-49.266400,-25.454503,0
-49.266315,-25.454433,0
-49.266062,-25.454218,0
-49.265884,-25.454048,0
-49.265651,-25.453828,0
-49.265537,-25.453743,0
-49.265372,-25.453618,0
-49.265410,-25.453546,0
-49.265454,-25.453479,0
-49.265474,-25.453438,0
-49.265514,-25.453348,0
-49.265621,-25.453125,0
-49.265724,-25.452907,0
-49.265875,-25.452590,0
-49.266033,-25.452252,0
-49.266153,-25.452002,0
-49.266281,-25.451734,0
-49.266424,-25.451434,0
-49.266572,-25.451122,0
-49.266691,-25.450887,0
-49.266802,-25.450663,0
-49.267228,-25.449810,0
-49.267427,-25.449413,0
-49.267599,-25.449027,0
-49.267796,-25.448590,0
-49.267948,-25.448251,0
-49.268102,-25.447919,0
-49.268267,-25.447560,0
-49.268409,-25.447253,0
-49.268525,-25.447001,0
-49.268575,-25.446891,0
-49.268693,-25.446649,0
-49.268853,-25.446320,0
-49.269227,-25.445561,0
-49.269467,-25.445053,0
-49.269784,-25.444389,0
-49.269878,-25.444194,0
-49.269921,-25.444082,0
-49.269966,-25.443984,0
-49.270067,-25.443768,0
-49.270190,-25.443503,0
-49.270314,-25.443248,0
-49.270564,-25.442732,0
-49.270622,-25.442604,0
-49.270699,-25.442458,0
-49.270773,-25.442283,0
-49.270862,-25.442107,0
-49.271039,-25.441750,0
-49.271163,-25.441495,0
-49.271299,-25.441228,0
-49.271355,-25.441092,0
-49.271487,-25.440827,0
-49.271662,-25.440457,0
-49.271830,-25.440103,0
-49.271991,-25.439761,0
-49.272052,-25.439613,0
-49.272067,-25.439533,0
-49.272119,-25.439417,0
-49.272161,-25.439332,0
-49.272251,-25.439164,0
-49.272333,-25.439004,0
-49.272465,-25.438708,0
-49.272528,-25.438569,0
-49.272604,-25.438400,0
-49.272656,-25.438281,0
-49.272780,-25.438020,0
-49.272903,-25.437763,0
-49.273122,-25.437301,0
-49.273299,-25.436907,0
-49.273400,-25.436686,0
-49.273460,-25.436576,0
-49.273407,-25.436561,0
-49.273383,-25.436554,0
-49.273361,-25.436543,0
-49.273355,-25.436533,0
-49.273347,-25.436520,0
-49.273341,-25.436492,0
-49.273345,-25.436456,0
-49.273364,-25.436417,0
-49.273389,-25.436395,0
-49.273415,-25.436379,0
-49.273491,-25.436374,0
-49.273589,-25.436352,0
-49.274198,-25.436206,0
-49.274400,-25.436161,0
-49.274427,-25.436140,0
-49.274455,-25.436120,0
-49.274477,-25.436111,0
-49.274503,-25.436104,0
-49.274534,-25.436103,0
-49.274575,-25.436112,0
-49.274605,-25.436128,0
-49.274642,-25.436159,0
-49.274680,-25.436132,0
-49.274726,-25.436062,0
-49.274779,-25.435955,0
-49.274647,-25.435894,0
-49.274536,-25.435826,0</coordinates></LineString></Placemark><Placemark><name>1 - 150651 - 666 - Novo Mundo</name><description>ID: 297090&lt;br/&gt;Tipo: OBRIGATÓRIO&lt;br/&gt;Distância: 0,000 km</description><Point><coordinates>-49.285910,-25.491331,0</coordinates></Point></Placemark><Placemark><name>2 - 150650 - 666 - Novo Mundo (sentido bairro)</name><description>ID: 297091&lt;br/&gt;Tipo: INTERMEDIÁRIO&lt;br/&gt;Distância: 0,290 km</description><Point><coordinates>-49.284231,-25.491186,0</coordinates></Point></Placemark><Placemark><name>3 - 150942 - Rua das Perdizes, 16 - Novo Mundo.</name><description>ID: 297092&lt;br/&gt;Tipo: INTERMEDIÁRIO&lt;br/&gt;Distância: 0,664 km</description><Point><coordinates>-49.281751,-25.492510,0</coordinates></Point></Placemark><Placemark><name>4 - 150106 - 020 - Interbairros II (Horário - Sentido Terminal  Capão Raso)/n629 - Alto Boqueirão (Sentido Terminal Capão Raso)/n657 -  Xaxim / C. Raso (Sentido Terminal Capão Raso)/n666 - Novo Mundo (sentido Praça  Rui Barbosa)</name><description>ID: 297093&lt;br/&gt;Tipo: INTERMEDIÁRIO&lt;br/&gt;Distância: 1,002 km</description><Point><coordinates>-49.282067,-25.494404,0</coordinates></Point></Placemark><Placemark><name>5 - 150107 - 020 - Interbairros II (Horário - Sentido Terminal  Capão Raso)/n629 - Alto Boqueirão (Sentido Terminal Capão Raso)/n657 - Xaxim / C. Raso (Sentido Terminal Capão Raso)/n666 - Novo Mundo (sentido Praça Rui Barbosa)</name><description>ID: 297094&lt;br/&gt;Tipo: INTERMEDIÁRIO&lt;br/&gt;Distância: 1,343 km</description><Point><coordinates>-49.285269,-25.494590,0</coordinates></Point></Placemark><Placemark><name>6 - 150652 - 665 - Vila Rex (sentido Praça Rui Barbosa)/n666 - Novo Mundo (sentido Praça Rui Barbosa)</name><description>ID: 297095&lt;br/&gt;Tipo: INTERMEDIÁRIO&lt;br/&gt;Distância: 1,872 km</description><Point><coordinates>-49.289407,-25.492787,0</coordinates></Point></Placemark><Placemark><name>7 - 150169 - Rua Clara Polsin, 140 - Novo Mundo</name><description>ID: 297096&lt;br/&gt;Tipo: INTERMEDIÁRIO&lt;br/&gt;Distância: 2,021 km</description><Point><coordinates>-49.288763,-25.491797,0</coordinates></Point></Placemark><Placemark><name>8 - 150648 - 666 - Novo Mundo (sentido Praça  Rui Barbosa)</name><description>ID: 297097&lt;br/&gt;Tipo: INTERMEDIÁRIO&lt;br/&gt;Distância: 2,337 km</description><Point><coordinates>-49.286665,-25.489756,0</coordinates></Point></Placemark><Placemark><name>9 - 150646 - 666 - Novo Mundo (sentido Praça  Rui Barbosa)</name><description>ID: 297098&lt;br/&gt;Tipo: INTERMEDIÁRIO&lt;br/&gt;Distância: 2,597 km</description><Point><coordinates>-49.288092,-25.487999,0</coordinates></Point></Placemark><Placemark><name>10 - 150643 - 666 - Novo Mundo (sentido bairro)</name><description>ID: 297099&lt;br/&gt;Tipo: INTERMEDIÁRIO&lt;br/&gt;Distância: 2,728 km</description><Point><coordinates>-49.289060,-25.486982,0</coordinates></Point></Placemark><Placemark><name>11 - 150116 - 616- Portão / Sta Bernadete - L. Verde (Sentido Terminal Portão)/n663 - Vila Cubas (sentido Praça Rui Barbosa)/n666 - Novo Mundo (sentido Praça Rui Barbosa)</name><description>ID: 297100&lt;br/&gt;Tipo: INTERMEDIÁRIO&lt;br/&gt;Distância: 2,961 km</description><Point><coordinates>-49.289025,-25.484988,0</coordinates></Point></Placemark><Placemark><name>12 - 150114 - 616- Portão / Sta Bernadete - L. Verde (Sentido Terminal Portão)/n663 - Vila Cubas (sentido Praça Rui Barbosa)/n666 - Novo Mundo (sentido Praça Rui Barbosa)</name><description>ID: 297101&lt;br/&gt;Tipo: INTERMEDIÁRIO&lt;br/&gt;Distância: 3,232 km</description><Point><coordinates>-49.288306,-25.482721,0</coordinates></Point></Placemark><Placemark><name>13 - 150109 - 663 - Vila Cubas (sentido Praça Rui Barbosa)/n666 - Novo Mundo (sentido Praça Rui Barbosa)</name><description>ID: 297102&lt;br/&gt;Tipo: INTERMEDIÁRIO&lt;br/&gt;Distância: 3,439 km</description><Point><coordinates>-49.287610,-25.481385,0</coordinates></Point></Placemark><Placemark><name>14 - 150069 - 663 - Vila Cubas (sentido Praça Rui Barbosa)/n666 - Novo Mundo (sentido Praça Rui Barbosa)</name><description>ID: 297103&lt;br/&gt;Tipo: INTERMEDIÁRIO&lt;br/&gt;Distância: 3,750 km</description><Point><coordinates>-49.285788,-25.479245,0</coordinates></Point></Placemark><Placemark><name>15 - 150824 - 662 - Dom Ático (sentido D. Ático)</name><description>ID: 297104&lt;br/&gt;Tipo: INTERMEDIÁRIO&lt;br/&gt;Distância: 4,332 km</description><Point><coordinates>-49.282749,-25.480688,0</coordinates></Point></Placemark><Placemark><name>16 - 150642 - 662- Dom Atico (Sentido Praça Rui Barbosa)/n689 - MAD. São Pedro / R. Negro (Sentido Prç. Rui Barbosa)</name><description>ID: 297105&lt;br/&gt;Tipo: INTERMEDIÁRIO&lt;br/&gt;Distância: 4,643 km</description><Point><coordinates>-49.281692,-25.479333,0</coordinates></Point></Placemark><Placemark><name>17 - 150638 - 662 - Dom Ático (sentido Praça Rui Barbosa)/n663 - Vila Cubas (sentido Praça Rui Barbosa)/n666 - Novo Mundo (sentido Praça Rui Barbosa)</name><description>ID: 297106&lt;br/&gt;Tipo: INTERMEDIÁRIO&lt;br/&gt;Distância: 4,981 km</description><Point><coordinates>-49.284975,-25.478215,0</coordinates></Point></Placemark><Placemark><name>18 - 150068 - 663 - Vila Cubas (sentido Praça Rui Barbosa)                                  /n666 - Novo Mundo (sentido Praça Rui Barbosa)/n689 - Mad. S. Pedro / Rio Negro (Sentido Praça Rui Barbosa)</name><description>ID: 297107&lt;br/&gt;Tipo: INTERMEDIÁRIO&lt;br/&gt;Distância: 5,221 km</description><Point><coordinates>-49.286730,-25.477121,0</coordinates></Point></Placemark><Placemark><name>19 - 150067 - 616- Portão / Sta Bernadete - L. Verde (Sentido E.T. Fanny)/n666 - Novo Mundo (sentido Praça Rui Barbosa)</name><description>ID: 297108&lt;br/&gt;Tipo: INTERMEDIÁRIO&lt;br/&gt;Distância: 5,589 km</description><Point><coordinates>-49.286660,-25.475417,0</coordinates></Point></Placemark><Placemark><name>20 - 150066 - 616- Portão / Sta Bernadete - L. Verde (Sentido E.T. Fanny)/n666 - Novo Mundo (sentido Praça Rui Barbosa)</name><description>ID: 297109&lt;br/&gt;Tipo: INTERMEDIÁRIO&lt;br/&gt;Distância: 5,754 km</description><Point><coordinates>-49.284593,-25.474625,0</coordinates></Point></Placemark><Placemark><name>21 - 150766 - 616- Portão / Sta Bernadete - L. Verde (Sentido E.T. Fanny)/n666 - Novo Mundo (sentido Praça Rui Barbosa)</name><description>ID: 297110&lt;br/&gt;Tipo: INTERMEDIÁRIO&lt;br/&gt;Distância: 6,113 km</description><Point><coordinates>-49.281100,-25.473284,0</coordinates></Point></Placemark><Placemark><name>22 - 150668 - Rua Alagoas, 2436 - Guaíra.</name><description>ID: 297111&lt;br/&gt;Tipo: INTERMEDIÁRIO&lt;br/&gt;Distância: 6,487 km</description><Point><coordinates>-49.277636,-25.471953,0</coordinates></Point></Placemark><Placemark><name>23 - 150666 - 616- Portão / Sta Bernadete - L. Verde (Sentido E.T. Fanny)/n661 - Lindóia (sentido Praça Rui Barbosa)/n662 - Dom Ático (sentido Praça Rui Barbosa)/n666 - Novo Mundo (sentido Praça Rui Barbosa)</name><description>ID: 297112&lt;br/&gt;Tipo: INTERMEDIÁRIO&lt;br/&gt;Distância: 6,679 km</description><Point><coordinates>-49.275812,-25.471246,0</coordinates></Point></Placemark><Placemark><name>24 - 150665 - 661 - Lindóia (sentido Praça Rui Barbosa)/n662 - Dom Ático (sentido Praça Rui Barbosa)/n666 - Novo Mundo (sentido Praça Rui Barbosa)</name><description>ID: 297113&lt;br/&gt;Tipo: INTERMEDIÁRIO&lt;br/&gt;Distância: 6,950 km</description><Point><coordinates>-49.273215,-25.470257,0</coordinates></Point></Placemark><Placemark><name>25 - 150663 - 661 - Lindóia (sentido Praça Rui Barbosa)/n662 - Dom Ático (sentido Praça Rui Barbosa)/n666 - Novo Mundo (sentido Praça Rui Barbosa)</name><description>ID: 297114&lt;br/&gt;Tipo: INTERMEDIÁRIO&lt;br/&gt;Distância: 7,187 km</description><Point><coordinates>-49.271773,-25.469162,0</coordinates></Point></Placemark><Placemark><name>26 - 150660 - 616- Portão / Sta Bernadete - L. Verde (Sentido Terminal Portão)/n661 - Lindóia (sentido Praça Rui Barbosa)/n662 - Dom Ático (sentido Praça Rui Barbosa)/n666 - Novo Mundo (sentido Praça Rui Barbosa)</name><description>ID: 297115&lt;br/&gt;Tipo: INTERMEDIÁRIO&lt;br/&gt;Distância: 7,438 km</description><Point><coordinates>-49.272859,-25.466908,0</coordinates></Point></Placemark><Placemark><name>27 - 150658 - 616- Portão / Sta Bernadete - L. Verde (Sentido Terminal Portão)/n661 - Lindóia (sentido Praça Rui Barbosa)/n662 - Dom Ático (sentido Praça Rui Barbosa)/n666 - Novo Mundo (sentido Praça Rui Barbosa)</name><description>ID: 297116&lt;br/&gt;Tipo: INTERMEDIÁRIO&lt;br/&gt;Distância: 7,730 km</description><Point><coordinates>-49.273842,-25.464662,0</coordinates></Point></Placemark><Placemark><name>28 - 150900 - 661 - Lindóia/n662 - Dom Ático/n666 - Novo Mundo</name><description>ID: 297117&lt;br/&gt;Tipo: INTERMEDIÁRIO&lt;br/&gt;Distância: 7,957 km</description><Point><coordinates>-49.274717,-25.462717,0</coordinates></Point></Placemark><Placemark><name>29 - 150009 - 050 - Interbairros V (Sentido Puc/Oficinas )/n216 - Cabral / Portão (Sentido Terminal Cabral)/n614 - Fazendinha / Puc (Sentido  Puc)/n661 - Lindóia (sentido Praça Rui Barbosa)/n662 - Dom Ático (sentido Praça Rui Barbosa)/n663 - Vila Cubas (sentido Praça Rui Barbosa)/n665 - Vila Rex (sentido Praça Rui Barbosa)/n666 - Novo Mundo (sentido Praça Rui Barbosa)/n689 - Mad. S. Pedro / Rio Negro (Sentido Praça Rui Barbosa)</name><description>ID: 297118&lt;br/&gt;Tipo: INTERMEDIÁRIO&lt;br/&gt;Distância: 8,082 km</description><Point><coordinates>-49.274485,-25.461916,0</coordinates></Point></Placemark><Placemark><name>30 - 150248 - 050 - Interbairros V (Sentido Puc/Oficinas )/n216 - Cabral / Portão (Sentido Terminal Cabral)/n614 - Fazendinha / Puc (Sentido  Puc)/n661 - Lindóia (sentido Praça Rui Barbosa)/n662 - Dom Ático (sentido Praça Rui Barbosa)/n663 - Vila Cubas (sentido Praça Rui Barbosa)/n665 - Vila Rex (sentido Praça Rui Barbosa)/n666 - Novo Mundo (sentido Praça Rui Barbosa)/n689 - Mad. S. Pedro / Rio Negro (Sentido Praça Rui Barbosa)</name><description>ID: 297119&lt;br/&gt;Tipo: INTERMEDIÁRIO&lt;br/&gt;Distância: 8,462 km</description><Point><coordinates>-49.271815,-25.459500,0</coordinates></Point></Placemark><Placemark><name>31 - 150006 - 050 - Interbairros V (Sentido Puc/Oficinas )/n216 - Cabral / Portão (Sentido Terminal Cabral)/n614 - Fazendinha / Puc (Sentido  Puc)/n661 - Lindóia (sentido Praça Rui Barbosa)/n662 - Dom Ático (sentido Praça Rui Barbosa)/n663 - Vila Cubas (sentido Praça Rui Barbosa)/n665 - Vila Rex (sentido Praça Rui Barbosa)/n666 - Novo Mundo (sentido Praça Rui Barbosa)/n689 - Mad. S. Pedro / Rio Negro (Sentido Praça Rui Barbosa)</name><description>ID: 297120&lt;br/&gt;Tipo: INTERMEDIÁRIO&lt;br/&gt;Distância: 8,786 km</description><Point><coordinates>-49.269540,-25.457440,0</coordinates></Point></Placemark><Placemark><name>32 - 150004 - 050 - Interbairros V (Sentido Puc/Oficinas )/n216 - Cabral / Portão (Sentido Terminal Cabral)/n614- Fazendinha / Puc (Sentido  Puc)/n661 - Lindóia (sentido Praça Rui Barbosa)/n662 - Dom Ático (sentido Praça Rui Barbosa)/n663 - Vila Cubas (sentido Praça Rui Barbosa)/n665 - Vila Rex (sentido Praça Rui Barbosa)/n666 - Novo Mundo (sentido Praça Rui Barbosa)/n689 - Mad. S. Pedro / Rio Negro (Sentido Praça Rui Barbosa)</name><description>ID: 297121&lt;br/&gt;Tipo: INTERMEDIÁRIO&lt;br/&gt;Distância: 9,125 km</description><Point><coordinates>-49.266860,-25.455030,0</coordinates></Point></Placemark><Placemark><name>33 - 150249 - 560 - Alferes Poli (Sentido  Praça Rui Barbosa)/n561 - Guilhermina (sentido Praça Rui Barbosa)/n661 - Lindóia (sentido Praça  Rui Barbosa)/n662 - Dom Ático (sentido Praça  Rui Barbosa)/n663 - Vila Cubas (sentido Praça  Rui Barbosa)/n665 - Vila Rex (sentido Praça  Rui Barbosa)/n666 - Novo Mundo (sentido Praça  Rui Barbosa)/n689 - Mad. S. Pedro / Rio Negro (Sentido Praça  Rui Barbosa)</name><description>ID: 297122&lt;br/&gt;Tipo: INTERMEDIÁRIO&lt;br/&gt;Distância: 9,442 km</description><Point><coordinates>-49.265678,-25.452850,0</coordinates></Point></Placemark><Placemark><name>34 - 150250 - 165 - Universidades (Sentido Raquel Prado)/n560 - Alferes Poli (Sentido  Praça Rui Barbosa)/n561 - Guilhermina (Sentido Praça Rui Barbosa)/n661 - Lindóia (Sentido Praça  Rui Barbosa)/n662 - Dom Ático (Sentido Praça  Rui Barbosa)/n663 - Vila Cubas (Sentido Praça Rui Barbosa)/n666 - Novo Mundo (Sentido Praça Rui Barbosa)/n689 - Mad. S. Pedro / Rio Negro (Sentido Praça  Rui Barbosa)</name><description>ID: 297123&lt;br/&gt;Tipo: INTERMEDIÁRIO&lt;br/&gt;Distância: 9,710 km</description><Point><coordinates>-49.266826,-25.450413,0</coordinates></Point></Placemark><Placemark><name>35 - 150251 - 165 - Universidades (Sentido Raquel Prado)/n560 - Alferes Poli (Sentido  Praça Rui Barbosa)/n561 - Guilhermina (Sentido Praça Rui Barbosa)/n661 - Lindóia (Sentido Praça  Rui Barbosa)/n662 - Dom Ático (Sentido Praça  Rui Barbosa)/n663 - Vila Cubas (Sentido Praça Rui Barbosa)/n665 - Vila Rex (Sentido Praça  Rui Barbosa)/n666 - Novo Mundo (Sentido Praça Rui Barbosa)/n689 - Mad. S. Pedro / Rio Negro (Sentido Praça  Rui Barbosa)</name><description>ID: 297124&lt;br/&gt;Tipo: INTERMEDIÁRIO&lt;br/&gt;Distância: 10,040 km</description><Point><coordinates>-49.267990,-25.447976,0</coordinates></Point></Placemark><Placemark><name>36 - 110025 - 160 - Jd. Mercês / Guanabara (Sentido Jd. Mercês)/n165 - Universidades (Sentido Raquel Prado)/n560 - Alferes Poli (Sentido  Praça Rui Barbosa)/n561 - Guilhermina (Sentido Praça Rui Barbosa)/n661 - Lindóia (Sentido Praça  Rui Barbosa)/n662 - Dom Ático (Sentido Praça  Rui Barbosa)/n663 - Vila Cubas (Sentido Praça  Rui Barbosa)/n665 - Vila Rex (Sentido Praça  Rui Barbosa)/n666 - Novo Mundo (Sentido Praça  Rui Barbosa)/n689 - Mad. S. Pedro / Rio Negro (Sentido Praça  Rui Barbosa)/n863 - Água Verde</name><description>ID: 297125&lt;br/&gt;Tipo: INTERMEDIÁRIO&lt;br/&gt;Distância: 10,322 km</description><Point><coordinates>-49.269014,-25.445839,0</coordinates></Point></Placemark><Placemark><name>37 - 110024 - 160 - Jd. Mercês / Guanabara (Sentido Jd. Mercês)/n165 - Universidades (sentido Raquel Prado)/n560 - Alferes Poli (Sentido  Praça Rui Barbosa)/n561 - Guilhermina (Sentido Praça Rui Barbosa)/n661 - Lindóia (Sentido Praça Rui Barbosa)/n662 - Dom Ático (Sentido Praça Rui Barbosa)/n663 - Vila Cubas (Sentido Praça Rui Barbosa)/n666 - Novo Mundo (Sentido Praça Rui Barbosa)/n670 - São Jorge (Sentido Praça Rui Barbosa)/n671 - Portão (Sentido Praça Rui Barbosa)/n673 - Formosa (Sentido Praça Rui Barbosa)/n6</name><description>ID: 297126&lt;br/&gt;Tipo: INTERMEDIÁRIO&lt;br/&gt;Distância: 10,567 km</description><Point><coordinates>-49.270140,-25.443478,0</coordinates></Point></Placemark><Placemark><name>38 - 110026 - 160 - Jd. Mercês / Guanabara (Sentido Jd. Mercês)/n165 - Universidades (Sentido Raquel Prado)/n560 - Alferes Poli (Sentido  Praça Rui Barbosa)/n561 - Guilhermina (Sentido Praça  Rui Barbosa)/n661 - Lindóia (Sentido Praça  Rui Barbosa)/n662 - Dom Ático (Sentido Praça  Rui Barbosa)/n663 - Vila Cubas (Sentido Praça Rui Barbosa)/n665 - Vila Rex ( Sentido Praça  Rui Barbosa)/n666 - Novo Mundo (Sentido Praça  Rui Barbosa)/n670 - São Jorge (Sentido Praça  Rui Barbosa)/n671 - Portão (Sentido Praça  Rui B</name><description>ID: 297127&lt;br/&gt;Tipo: INTERMEDIÁRIO&lt;br/&gt;Distância: 10,885 km</description><Point><coordinates>-49.271456,-25.440705,0</coordinates></Point></Placemark><Placemark><name>39 - 102001 - Praça Rui Barbosa - 666- Novo Mundo</name><description>ID: 297128&lt;br/&gt;Tipo: OBRIGATÓRIO&lt;br/&gt;Distância: 11,594 km</description><Point><coordinates>-49.274486,-25.435887,0</coordinates></Point></Placemark></Document></kml>