<?xml version='1.0' encoding='utf-8'?>
<gpx version="1.1" creator="Conversor" xmlns="http://www.topografix.com/GPX/1/1" xmlns:xsi="http://www.w3.org/2001/XMLSchema-instance" xsi:schemaLocation="http://www.topografix.com/GPX/1/1 http://www.topografix.com/GPX/1/1/gpx.xsd"><metadata><name>666-novo_mundo-convencional-ida</name></metadata><trk><name>666-novo_mundo-convencional-ida</name><trkseg><trkpt lat="-25.491274" lon="-49.285822" /><trkpt lat="-25.491881" lon="-49.285564" /><trkpt lat="-25.492392" lon="-49.285317" /><trkpt lat="-25.492035" lon="-49.285019" /><trkpt lat="-25.491641" lon="-49.284683" /><trkpt lat="-25.491250" lon="-49.284379" /><trkpt lat="-25.490999" lon="-49.284208" /><trkpt lat="-25.490909" lon="-49.284138" /><trkpt lat="-25.490889" lon="-49.284108" /><trkpt lat="-25.490872" lon="-49.284062" /><trkpt lat="-25.490882" lon="-49.284004" /><trkpt lat="-25.490966" lon="-49.283874" /><trkpt lat="-25.491167" lon="-49.283562" /><trkpt lat="-25.491697" lon="-49.282780" /><trkpt lat="-25.492599" lon="-49.281453" /><trkpt lat="-25.492732" lon="-49.281264" /><trkpt lat="-25.492862" lon="-49.281071" /><trkpt lat="-25.493048" lon="-49.280797" /><trkpt lat="-25.493193" lon="-49.280579" /><trkpt lat="-25.493312" lon="-49.280407" /><trkpt lat="-25.493542" lon="-49.280588" /><trkpt lat="-25.493750" lon="-49.280752" /><trkpt lat="-25.493955" lon="-49.280909" /><trkpt lat="-25.494058" lon="-49.280999" /><trkpt lat="-25.494226" lon="-49.281148" /><trkpt lat="-25.494388" lon="-49.281211" /><trkpt lat="-25.494399" lon="-49.281486" /><trkpt lat="-25.494427" lon="-49.281875" /><trkpt lat="-25.494464" lon="-49.282284" /><trkpt lat="-25.494496" lon="-49.282611" /><trkpt lat="-25.494512" lon="-49.282780" /><trkpt lat="-25.494549" lon="-49.283121" /><trkpt lat="-25.494562" lon="-49.283248" /><trkpt lat="-25.494579" lon="-49.283486" /><trkpt lat="-25.494593" lon="-49.283635" /><trkpt lat="-25.494604" lon="-49.283822" /><trkpt lat="-25.494625" lon="-49.284208" /><trkpt lat="-25.494633" lon="-49.284535" /><trkpt lat="-25.494644" lon="-49.284829" /><trkpt lat="-25.494643" lon="-49.284948" /><trkpt lat="-25.494643" lon="-49.285332" /><trkpt lat="-25.494628" lon="-49.285707" /><trkpt lat="-25.494629" lon="-49.285864" /><trkpt lat="-25.494631" lon="-49.285926" /><trkpt lat="-25.494644" lon="-49.286017" /><trkpt lat="-25.494654" lon="-49.286064" /><trkpt lat="-25.494670" lon="-49.286149" /><trkpt lat="-25.494692" lon="-49.286251" /><trkpt lat="-25.494709" lon="-49.286298" /><trkpt lat="-25.494739" lon="-49.286348" /><trkpt lat="-25.494765" lon="-49.286399" /><trkpt lat="-25.494846" lon="-49.286563" /><trkpt lat="-25.494906" lon="-49.286692" /><trkpt lat="-25.494943" lon="-49.286779" /><trkpt lat="-25.494962" lon="-49.286848" /><trkpt lat="-25.494982" lon="-49.286921" /><trkpt lat="-25.495011" lon="-49.287055" /><trkpt lat="-25.495008" lon="-49.287159" /><trkpt lat="-25.495000" lon="-49.287245" /><trkpt lat="-25.494986" lon="-49.287322" /><trkpt lat="-25.494939" lon="-49.287435" /><trkpt lat="-25.494897" lon="-49.287511" /><trkpt lat="-25.494816" lon="-49.287639" /><trkpt lat="-25.494693" lon="-49.287798" /><trkpt lat="-25.494578" lon="-49.287925" /><trkpt lat="-25.494425" lon="-49.288086" /><trkpt lat="-25.494263" lon="-49.288258" /><trkpt lat="-25.494155" lon="-49.288374" /><trkpt lat="-25.493822" lon="-49.288693" /><trkpt lat="-25.493629" lon="-49.288880" /><trkpt lat="-25.493404" lon="-49.289097" /><trkpt lat="-25.493052" lon="-49.289311" /><trkpt lat="-25.492722" lon="-49.289511" /><trkpt lat="-25.492407" lon="-49.289671" /><trkpt lat="-25.492069" lon="-49.289221" /><trkpt lat="-25.491889" lon="-49.288982" /><trkpt lat="-25.491762" lon="-49.288813" /><trkpt lat="-25.491623" lon="-49.288623" /><trkpt lat="-25.491470" lon="-49.288434" /><trkpt lat="-25.491231" lon="-49.288146" /><trkpt lat="-25.491013" lon="-49.287864" /><trkpt lat="-25.490808" lon="-49.287601" /><trkpt lat="-25.490603" lon="-49.287341" /><trkpt lat="-25.490418" lon="-49.287101" /><trkpt lat="-25.490239" lon="-49.286872" /><trkpt lat="-25.490047" lon="-49.286625" /><trkpt lat="-25.489984" lon="-49.286544" /><trkpt lat="-25.489837" lon="-49.286667" /><trkpt lat="-25.489586" lon="-49.286881" /><trkpt lat="-25.489422" lon="-49.287022" /><trkpt lat="-25.489154" lon="-49.287249" /><trkpt lat="-25.488884" lon="-49.287479" /><trkpt lat="-25.488535" lon="-49.287774" /><trkpt lat="-25.488396" lon="-49.287885" /><trkpt lat="-25.488231" lon="-49.288014" /><trkpt lat="-25.487940" lon="-49.288242" /><trkpt lat="-25.487787" lon="-49.288371" /><trkpt lat="-25.487602" lon="-49.288525" /><trkpt lat="-25.487381" lon="-49.288710" /><trkpt lat="-25.487188" lon="-49.288871" /><trkpt lat="-25.486965" lon="-49.289036" /><trkpt lat="-25.486777" lon="-49.289171" /><trkpt lat="-25.486752" lon="-49.289186" /><trkpt lat="-25.486727" lon="-49.289194" /><trkpt lat="-25.486689" lon="-49.289192" /><trkpt lat="-25.486615" lon="-49.289166" /><trkpt lat="-25.486540" lon="-49.289133" /><trkpt lat="-25.486309" lon="-49.289107" /><trkpt lat="-25.486083" lon="-49.289084" /><trkpt lat="-25.485945" lon="-49.289087" /><trkpt lat="-25.485669" lon="-49.289094" /><trkpt lat="-25.485256" lon="-49.289104" /><trkpt lat="-25.484856" lon="-49.289120" /><trkpt lat="-25.484431" lon="-49.289112" /><trkpt lat="-25.484007" lon="-49.289095" /><trkpt lat="-25.483924" lon="-49.289093" /><trkpt lat="-25.483671" lon="-49.289100" /><trkpt lat="-25.483637" lon="-49.289089" /><trkpt lat="-25.483507" lon="-49.289035" /><trkpt lat="-25.483293" lon="-49.288991" /><trkpt lat="-25.483212" lon="-49.288956" /><trkpt lat="-25.483116" lon="-49.288899" /><trkpt lat="-25.482993" lon="-49.288747" /><trkpt lat="-25.482810" lon="-49.288509" /><trkpt lat="-25.482648" lon="-49.288310" /><trkpt lat="-25.482602" lon="-49.288257" /><trkpt lat="-25.482514" lon="-49.288177" /><trkpt lat="-25.482410" lon="-49.288123" /><trkpt lat="-25.482345" lon="-49.288096" /><trkpt lat="-25.482233" lon="-49.288076" /><trkpt lat="-25.482059" lon="-49.288075" /><trkpt lat="-25.482012" lon="-49.288080" /><trkpt lat="-25.481884" lon="-49.288094" /><trkpt lat="-25.481690" lon="-49.288119" /><trkpt lat="-25.481442" lon="-49.288149" /><trkpt lat="-25.481390" lon="-49.287862" /><trkpt lat="-25.481314" lon="-49.287447" /><trkpt lat="-25.481250" lon="-49.287117" /><trkpt lat="-25.481185" lon="-49.286864" /><trkpt lat="-25.481155" lon="-49.286747" /><trkpt lat="-25.481074" lon="-49.286687" /><trkpt lat="-25.481010" lon="-49.286611" /><trkpt lat="-25.480961" lon="-49.286529" /><trkpt lat="-25.480920" lon="-49.286451" /><trkpt lat="-25.480894" lon="-49.286379" /><trkpt lat="-25.480872" lon="-49.286322" /><trkpt lat="-25.480693" lon="-49.286334" /><trkpt lat="-25.480274" lon="-49.286365" /><trkpt lat="-25.480024" lon="-49.286263" /><trkpt lat="-25.479843" lon="-49.286187" /><trkpt lat="-25.479643" lon="-49.286077" /><trkpt lat="-25.479456" lon="-49.285976" /><trkpt lat="-25.479232" lon="-49.285851" /><trkpt lat="-25.479076" lon="-49.285766" /><trkpt lat="-25.478752" lon="-49.285626" /><trkpt lat="-25.478465" lon="-49.285501" /><trkpt lat="-25.478252" lon="-49.285409" /><trkpt lat="-25.478433" lon="-49.284560" /><trkpt lat="-25.478531" lon="-49.284096" /><trkpt lat="-25.478667" lon="-49.283473" /><trkpt lat="-25.478709" lon="-49.283295" /><trkpt lat="-25.479326" lon="-49.283130" /><trkpt lat="-25.479801" lon="-49.282981" /><trkpt lat="-25.480897" lon="-49.282654" /><trkpt lat="-25.480590" lon="-49.281345" /><trkpt lat="-25.479758" lon="-49.281596" /><trkpt lat="-25.479046" lon="-49.281805" /><trkpt lat="-25.478880" lon="-49.281865" /><trkpt lat="-25.478710" lon="-49.282761" /><trkpt lat="-25.478651" lon="-49.283046" /><trkpt lat="-25.478616" lon="-49.283212" /><trkpt lat="-25.478583" lon="-49.283379" /><trkpt lat="-25.478492" lon="-49.283819" /><trkpt lat="-25.478402" lon="-49.284243" /><trkpt lat="-25.478332" lon="-49.284589" /><trkpt lat="-25.478244" lon="-49.285003" /><trkpt lat="-25.478167" lon="-49.285311" /><trkpt lat="-25.478148" lon="-49.285378" /><trkpt lat="-25.478137" lon="-49.285419" /><trkpt lat="-25.478114" lon="-49.285464" /><trkpt lat="-25.478081" lon="-49.285507" /><trkpt lat="-25.478058" lon="-49.285538" /><trkpt lat="-25.478031" lon="-49.285562" /><trkpt lat="-25.477984" lon="-49.285591" /><trkpt lat="-25.477918" lon="-49.285619" /><trkpt lat="-25.477783" lon="-49.285670" /><trkpt lat="-25.477564" lon="-49.285825" /><trkpt lat="-25.477633" lon="-49.286118" /><trkpt lat="-25.477700" lon="-49.286387" /><trkpt lat="-25.477616" lon="-49.286463" /><trkpt lat="-25.477530" lon="-49.286544" /><trkpt lat="-25.477430" lon="-49.286627" /><trkpt lat="-25.477179" lon="-49.286761" /><trkpt lat="-25.476945" lon="-49.286884" /><trkpt lat="-25.476830" lon="-49.286947" /><trkpt lat="-25.476702" lon="-49.287014" /><trkpt lat="-25.476597" lon="-49.287091" /><trkpt lat="-25.476529" lon="-49.287156" /><trkpt lat="-25.476485" lon="-49.287213" /><trkpt lat="-25.476426" lon="-49.287282" /><trkpt lat="-25.476351" lon="-49.287376" /><trkpt lat="-25.476298" lon="-49.287430" /><trkpt lat="-25.476253" lon="-49.287467" /><trkpt lat="-25.476050" lon="-49.287572" /><trkpt lat="-25.475856" lon="-49.287674" /><trkpt lat="-25.475713" lon="-49.287746" /><trkpt lat="-25.475578" lon="-49.287376" /><trkpt lat="-25.475090" lon="-49.286061" /><trkpt lat="-25.474944" lon="-49.285680" /><trkpt lat="-25.474774" lon="-49.285222" /><trkpt lat="-25.474688" lon="-49.284995" /><trkpt lat="-25.474512" lon="-49.284521" /><trkpt lat="-25.474342" lon="-49.284062" /><trkpt lat="-25.474183" lon="-49.283643" /><trkpt lat="-25.474031" lon="-49.283254" /><trkpt lat="-25.473928" lon="-49.282995" /><trkpt lat="-25.473825" lon="-49.282732" /><trkpt lat="-25.473665" lon="-49.282327" /><trkpt lat="-25.473455" lon="-49.281765" /><trkpt lat="-25.473242" lon="-49.281193" /><trkpt lat="-25.473161" lon="-49.280982" /><trkpt lat="-25.473043" lon="-49.280680" /><trkpt lat="-25.472871" lon="-49.280236" /><trkpt lat="-25.472638" lon="-49.279638" /><trkpt lat="-25.472388" lon="-49.278954" /><trkpt lat="-25.472244" lon="-49.278551" /><trkpt lat="-25.472156" lon="-49.278316" /><trkpt lat="-25.472059" lon="-49.278064" /><trkpt lat="-25.471927" lon="-49.277733" /><trkpt lat="-25.471775" lon="-49.277347" /><trkpt lat="-25.471635" lon="-49.276989" /><trkpt lat="-25.471493" lon="-49.276631" /><trkpt lat="-25.471362" lon="-49.276302" /><trkpt lat="-25.471234" lon="-49.275968" /><trkpt lat="-25.471113" lon="-49.275651" /><trkpt lat="-25.470992" lon="-49.275341" /><trkpt lat="-25.470737" lon="-49.274674" /><trkpt lat="-25.470597" lon="-49.274312" /><trkpt lat="-25.470374" lon="-49.273721" /><trkpt lat="-25.470269" lon="-49.273453" /><trkpt lat="-25.470108" lon="-49.273037" /><trkpt lat="-25.470007" lon="-49.272775" /><trkpt lat="-25.469904" lon="-49.272501" /><trkpt lat="-25.469820" lon="-49.272278" /><trkpt lat="-25.469621" lon="-49.271750" /><trkpt lat="-25.469636" lon="-49.271726" /><trkpt lat="-25.469645" lon="-49.271698" /><trkpt lat="-25.469642" lon="-49.271676" /><trkpt lat="-25.469631" lon="-49.271655" /><trkpt lat="-25.469613" lon="-49.271642" /><trkpt lat="-25.469597" lon="-49.271635" /><trkpt lat="-25.469578" lon="-49.271641" /><trkpt lat="-25.469558" lon="-49.271651" /><trkpt lat="-25.469550" lon="-49.271667" /><trkpt lat="-25.469541" lon="-49.271685" /><trkpt lat="-25.469543" lon="-49.271711" /><trkpt lat="-25.469532" lon="-49.271715" /><trkpt lat="-25.469256" lon="-49.271842" /><trkpt lat="-25.468914" lon="-49.271998" /><trkpt lat="-25.468708" lon="-49.272092" /><trkpt lat="-25.468600" lon="-49.272139" /><trkpt lat="-25.468381" lon="-49.272244" /><trkpt lat="-25.468153" lon="-49.272354" /><trkpt lat="-25.467897" lon="-49.272466" /><trkpt lat="-25.467658" lon="-49.272573" /><trkpt lat="-25.467298" lon="-49.272735" /><trkpt lat="-25.467124" lon="-49.272809" /><trkpt lat="-25.466688" lon="-49.273013" /><trkpt lat="-25.466386" lon="-49.273154" /><trkpt lat="-25.466162" lon="-49.273258" /><trkpt lat="-25.465967" lon="-49.273349" /><trkpt lat="-25.465757" lon="-49.273442" /><trkpt lat="-25.465490" lon="-49.273563" /><trkpt lat="-25.465207" lon="-49.273688" /><trkpt lat="-25.464675" lon="-49.273940" /><trkpt lat="-25.464456" lon="-49.274041" /><trkpt lat="-25.464212" lon="-49.274156" /><trkpt lat="-25.463933" lon="-49.274284" /><trkpt lat="-25.463600" lon="-49.274437" /><trkpt lat="-25.463243" lon="-49.274603" /><trkpt lat="-25.462774" lon="-49.274820" /><trkpt lat="-25.462296" lon="-49.275041" /><trkpt lat="-25.462056" lon="-49.274773" /><trkpt lat="-25.461855" lon="-49.274546" /><trkpt lat="-25.461637" lon="-49.274323" /><trkpt lat="-25.461460" lon="-49.274122" /><trkpt lat="-25.461283" lon="-49.273923" /><trkpt lat="-25.461151" lon="-49.273775" /><trkpt lat="-25.460882" lon="-49.273479" /><trkpt lat="-25.460494" lon="-49.273051" /><trkpt lat="-25.460308" lon="-49.272836" /><trkpt lat="-25.459787" lon="-49.272237" /><trkpt lat="-25.459420" lon="-49.271814" /><trkpt lat="-25.459314" lon="-49.271692" /><trkpt lat="-25.459140" lon="-49.271513" /><trkpt lat="-25.458866" lon="-49.271232" /><trkpt lat="-25.458681" lon="-49.271039" /><trkpt lat="-25.458426" lon="-49.270759" /><trkpt lat="-25.458282" lon="-49.270594" /><trkpt lat="-25.458048" lon="-49.270338" /><trkpt lat="-25.457680" lon="-49.269935" /><trkpt lat="-25.457490" lon="-49.269725" /><trkpt lat="-25.457303" lon="-49.269516" /><trkpt lat="-25.457124" lon="-49.269314" /><trkpt lat="-25.457046" lon="-49.269227" /><trkpt lat="-25.456854" lon="-49.269019" /><trkpt lat="-25.456693" lon="-49.268845" /><trkpt lat="-25.456377" lon="-49.268492" /><trkpt lat="-25.456099" lon="-49.268181" /><trkpt lat="-25.455845" lon="-49.267889" /><trkpt lat="-25.455542" lon="-49.267552" /><trkpt lat="-25.455325" lon="-49.267297" /><trkpt lat="-25.455125" lon="-49.267068" /><trkpt lat="-25.454745" lon="-49.266664" /><trkpt lat="-25.454584" lon="-49.266486" /><trkpt lat="-25.454503" lon="-49.266400" /><trkpt lat="-25.454433" lon="-49.266315" /><trkpt lat="-25.454218" lon="-49.266062" /><trkpt lat="-25.454048" lon="-49.265884" /><trkpt lat="-25.453828" lon="-49.265651" /><trkpt lat="-25.453743" lon="-49.265537" /><trkpt lat="-25.453618" lon="-49.265372" /><trkpt lat="-25.453546" lon="-49.265410" /><trkpt lat="-25.453479" lon="-49.265454" /><trkpt lat="-25.453438" lon="-49.265474" /><trkpt lat="-25.453348" lon="-49.265514" /><trkpt lat="-25.453125" lon="-49.265621" /><trkpt lat="-25.452907" lon="-49.265724" /><trkpt lat="-25.452590" lon="-49.265875" /><trkpt lat="-25.452252" lon="-49.266033" /><trkpt lat="-25.452002" lon="-49.266153" /><trkpt lat="-25.451734" lon="-49.266281" /><trkpt lat="-25.451434" lon="-49.266424" /><trkpt lat="-25.451122" lon="-49.266572" /><trkpt lat="-25.450887" lon="-49.266691" /><trkpt lat="-25.450663" lon="-49.266802" /><trkpt lat="-25.449810" lon="-49.267228" /><trkpt lat="-25.449413" lon="-49.267427" /><trkpt lat="-25.449027" lon="-49.267599" /><trkpt lat="-25.448590" lon="-49.267796" /><trkpt lat="-25.448251" lon="-49.267948" /><trkpt lat="-25.447919" lon="-49.268102" /><trkpt lat="-25.447560" lon="-49.268267" /><trkpt lat="-25.447253" lon="-49.268409" /><trkpt lat="-25.447001" lon="-49.268525" /><trkpt lat="-25.446891" lon="-49.268575" /><trkpt lat="-25.446649" lon="-49.268693" /><trkpt lat="-25.446320" lon="-49.268853" /><trkpt lat="-25.445561" lon="-49.269227" /><trkpt lat="-25.445053" lon="-49.269467" /><trkpt lat="-25.444389" lon="-49.269784" /><trkpt lat="-25.444194" lon="-49.269878" /><trkpt lat="-25.444082" lon="-49.269921" /><trkpt lat="-25.443984" lon="-49.269966" /><trkpt lat="-25.443768" lon="-49.270067" /><trkpt lat="-25.443503" lon="-49.270190" /><trkpt lat="-25.443248" lon="-49.270314" /><trkpt lat="-25.442732" lon="-49.270564" /><trkpt lat="-25.442604" lon="-49.270622" /><trkpt lat="-25.442458" lon="-49.270699" /><trkpt lat="-25.442283" lon="-49.270773" /><trkpt lat="-25.442107" lon="-49.270862" /><trkpt lat="-25.441750" lon="-49.271039" /><trkpt lat="-25.441495" lon="-49.271163" /><trkpt lat="-25.441228" lon="-49.271299" /><trkpt lat="-25.441092" lon="-49.271355" /><trkpt lat="-25.440827" lon="-49.271487" /><trkpt lat="-25.440457" lon="-49.271662" /><trkpt lat="-25.440103" lon="-49.271830" /><trkpt lat="-25.439761" lon="-49.271991" /><trkpt lat="-25.439613" lon="-49.272052" /><trkpt lat="-25.439533" lon="-49.272067" /><trkpt lat="-25.439417" lon="-49.272119" /><trkpt lat="-25.439332" lon="-49.272161" /><trkpt lat="-25.439164" lon="-49.272251" /><trkpt lat="-25.439004" lon="-49.272333" /><trkpt lat="-25.438708" lon="-49.272465" /><trkpt lat="-25.438569" lon="-49.272528" /><trkpt lat="-25.438400" lon="-49.272604" /><trkpt lat="-25.438281" lon="-49.272656" /><trkpt lat="-25.438020" lon="-49.272780" /><trkpt lat="-25.437763" lon="-49.272903" /><trkpt lat="-25.437301" lon="-49.273122" /><trkpt lat="-25.436907" lon="-49.273299" /><trkpt lat="-25.436686" lon="-49.273400" /><trkpt lat="-25.436576" lon="-49.273460" /><trkpt lat="-25.436561" lon="-49.273407" /><trkpt lat="-25.436554" lon="-49.273383" /><trkpt lat="-25.436543" lon="-49.273361" /><trkpt lat="-25.436533" lon="-49.273355" /><trkpt lat="-25.436520" lon="-49.273347" /><trkpt lat="-25.436492" lon="-49.273341" /><trkpt lat="-25.436456" lon="-49.273345" /><trkpt lat="-25.436417" lon="-49.273364" /><trkpt lat="-25.436395" lon="-49.273389" /><trkpt lat="-25.436379" lon="-49.273415" /><trkpt lat="-25.436374" lon="-49.273491" /><trkpt lat="-25.436352" lon="-49.273589" /><trkpt lat="-25.436206" lon="-49.274198" /><trkpt lat="-25.436161" lon="-49.274400" /><trkpt lat="-25.436140" lon="-49.274427" /><trkpt lat="-25.436120" lon="-49.274455" /><trkpt lat="-25.436111" lon="-49.274477" /><trkpt lat="-25.436104" lon="-49.274503" /><trkpt lat="-25.436103" lon="-49.274534" /><trkpt lat="-25.436112" lon="-49.274575" /><trkpt lat="-25.436128" lon="-49.274605" /><trkpt lat="-25.436159" lon="-49.274642" /><trkpt lat="-25.436132" lon="-49.274680" /><trkpt lat="-25.436062" lon="-49.274726" /><trkpt lat="-25.435955" lon="-49.274779" /><trkpt lat="-25.435894" lon="-49.274647" /><trkpt lat="-25.435826" lon="-49.274536" /></trkseg></trk><wpt lat="-25.491331" lon="-49.285910"><name>1 - 150651 - 666 - Novo Mundo</name><desc>ID: 297090; Tipo: OBRIGATÓRIO; Distância: 0,000 km</desc></wpt><wpt lat="-25.491186" lon="-49.284231"><name>2 - 150650 - 666 - Novo Mundo (sentido bairro)</name><desc>ID: 297091; Tipo: INTERMEDIÁRIO; Distância: 0,290 km</desc></wpt><wpt lat="-25.492510" lon="-49.281751"><name>3 - 150942 - Rua das Perdizes, 16 - Novo Mundo.</name><desc>ID: 297092; Tipo: INTERMEDIÁRIO; Distância: 0,664 km</desc></wpt><wpt lat="-25.494404" lon="-49.282067"><name>4 - 150106 - 020 - Interbairros II (Horário - Sentido Terminal  Capão Raso)/n629 - Alto Boqueirão (Sentido Terminal Capão Raso)/n657 -  Xaxim / C. Raso (Sentido Terminal Capão Raso)/n666 - Novo Mundo (sentido Praça  Rui Barbosa)</name><desc>ID: 297093; Tipo: INTERMEDIÁRIO; Distância: 1,002 km</desc></wpt><wpt lat="-25.494590" lon="-49.285269"><name>5 - 150107 - 020 - Interbairros II (Horário - Sentido Terminal  Capão Raso)/n629 - Alto Boqueirão (Sentido Terminal Capão Raso)/n657 - Xaxim / C. Raso (Sentido Terminal Capão Raso)/n666 - Novo Mundo (sentido Praça Rui Barbosa)</name><desc>ID: 297094; Tipo: INTERMEDIÁRIO; Distância: 1,343 km</desc></wpt><wpt lat="-25.492787" lon="-49.289407"><name>6 - 150652 - 665 - Vila Rex (sentido Praça Rui Barbosa)/n666 - Novo Mundo (sentido Praça Rui Barbosa)</name><desc>ID: 297095; Tipo: INTERMEDIÁRIO; Distância: 1,872 km</desc></wpt><wpt lat="-25.491797" lon="-49.288763"><name>7 - 150169 - Rua Clara Polsin, 140 - Novo Mundo</name><desc>ID: 297096; Tipo: INTERMEDIÁRIO; Distância: 2,021 km</desc></wpt><wpt lat="-25.489756" lon="-49.286665"><name>8 - 150648 - 666 - Novo Mundo (sentido Praça  Rui Barbosa)</name><desc>ID: 297097; Tipo: INTERMEDIÁRIO; Distância: 2,337 km</desc></wpt><wpt lat="-25.487999" lon="-49.288092"><name>9 - 150646 - 666 - Novo Mundo (sentido Praça  Rui Barbosa)</name><desc>ID: 297098; Tipo: INTERMEDIÁRIO; Distância: 2,597 km</desc></wpt><wpt lat="-25.486982" lon="-49.289060"><name>10 - 150643 - 666 - Novo Mundo (sentido bairro)</name><desc>ID: 297099; Tipo: INTERMEDIÁRIO; Distância: 2,728 km</desc></wpt><wpt lat="-25.484988" lon="-49.289025"><name>11 - 150116 - 616- Portão / Sta Bernadete - L. Verde (Sentido Terminal Portão)/n663 - Vila Cubas (sentido Praça Rui Barbosa)/n666 - Novo Mundo (sentido Praça Rui Barbosa)</name><desc>ID: 297100; Tipo: INTERMEDIÁRIO; Distância: 2,961 km</desc></wpt><wpt lat="-25.482721" lon="-49.288306"><name>12 - 150114 - 616- Portão / Sta Bernadete - L. Verde (Sentido Terminal Portão)/n663 - Vila Cubas (sentido Praça Rui Barbosa)/n666 - Novo Mundo (sentido Praça Rui Barbosa)</name><desc>ID: 297101; Tipo: INTERMEDIÁRIO; Distância: 3,232 km</desc></wpt><wpt lat="-25.481385" lon="-49.287610"><name>13 - 150109 - 663 - Vila Cubas (sentido Praça Rui Barbosa)/n666 - Novo Mundo (sentido Praça Rui Barbosa)</name><desc>ID: 297102; Tipo: INTERMEDIÁRIO; Distância: 3,439 km</desc></wpt><wpt lat="-25.479245" lon="-49.285788"><name>14 - 150069 - 663 - Vila Cubas (sentido Praça Rui Barbosa)/n666 - Novo Mundo (sentido Praça Rui Barbosa)</name><desc>ID: 297103; Tipo: INTERMEDIÁRIO; Distância: 3,750 km</desc></wpt><wpt lat="-25.480688" lon="-49.282749"><name>15 - 150824 - 662 - Dom Ático (sentido D. Ático)</name><desc>ID: 297104; Tipo: INTERMEDIÁRIO; Distância: 4,332 km</desc></wpt><wpt lat="-25.479333" lon="-49.281692"><name>16 - 150642 - 662- Dom Atico (Sentido Praça Rui Barbosa)/n689 - MAD. São Pedro / R. Negro (Sentido Prç. Rui Barbosa)</name><desc>ID: 297105; Tipo: INTERMEDIÁRIO; Distância: 4,643 km</desc></wpt><wpt lat="-25.478215" lon="-49.284975"><name>17 - 150638 - 662 - Dom Ático (sentido Praça Rui Barbosa)/n663 - Vila Cubas (sentido Praça Rui Barbosa)/n666 - Novo Mundo (sentido Praça Rui Barbosa)</name><desc>ID: 297106; Tipo: INTERMEDIÁRIO; Distância: 4,981 km</desc></wpt><wpt lat="-25.477121" lon="-49.286730"><name>18 - 150068 - 663 - Vila Cubas (sentido Praça Rui Barbosa)                                  /n666 - Novo Mundo (sentido Praça Rui Barbosa)/n689 - Mad. S. Pedro / Rio Negro (Sentido Praça Rui Barbosa)</name><desc>ID: 297107; Tipo: INTERMEDIÁRIO; Distância: 5,221 km</desc></wpt><wpt lat="-25.475417" lon="-49.286660"><name>19 - 150067 - 616- Portão / Sta Bernadete - L. Verde (Sentido E.T. Fanny)/n666 - Novo Mundo (sentido Praça Rui Barbosa)</name><desc>ID: 297108; Tipo: INTERMEDIÁRIO; Distância: 5,589 km</desc></wpt><wpt lat="-25.474625" lon="-49.284593"><name>20 - 150066 - 616- Portão / Sta Bernadete - L. Verde (Sentido E.T. Fanny)/n666 - Novo Mundo (sentido Praça Rui Barbosa)</name><desc>ID: 297109; Tipo: INTERMEDIÁRIO; Distância: 5,754 km</desc></wpt><wpt lat="-25.473284" lon="-49.281100"><name>21 - 150766 - 616- Portão / Sta Bernadete - L. Verde (Sentido E.T. Fanny)/n666 - Novo Mundo (sentido Praça Rui Barbosa)</name><desc>ID: 297110; Tipo: INTERMEDIÁRIO; Distância: 6,113 km</desc></wpt><wpt lat="-25.471953" lon="-49.277636"><name>22 - 150668 - Rua Alagoas, 2436 - Guaíra.</name><desc>ID: 297111; Tipo: INTERMEDIÁRIO; Distância: 6,487 km</desc></wpt><wpt lat="-25.471246" lon="-49.275812"><name>23 - 150666 - 616- Portão / Sta Bernadete - L. Verde (Sentido E.T. Fanny)/n661 - Lindóia (sentido Praça Rui Barbosa)/n662 - Dom Ático (sentido Praça Rui Barbosa)/n666 - Novo Mundo (sentido Praça Rui Barbosa)</name><desc>ID: 297112; Tipo: INTERMEDIÁRIO; Distância: 6,679 km</desc></wpt><wpt lat="-25.470257" lon="-49.273215"><name>24 - 150665 - 661 - Lindóia (sentido Praça Rui Barbosa)/n662 - Dom Ático (sentido Praça Rui Barbosa)/n666 - Novo Mundo (sentido Praça Rui Barbosa)</name><desc>ID: 297113; Tipo: INTERMEDIÁRIO; Distância: 6,950 km</desc></wpt><wpt lat="-25.469162" lon="-49.271773"><name>25 - 150663 - 661 - Lindóia (sentido Praça Rui Barbosa)/n662 - Dom Ático (sentido Praça Rui Barbosa)/n666 - Novo Mundo (sentido Praça Rui Barbosa)</name><desc>ID: 297114; Tipo: INTERMEDIÁRIO; Distância: 7,187 km</desc></wpt><wpt lat="-25.466908" lon="-49.272859"><name>26 - 150660 - 616- Portão / Sta Bernadete - L. Verde (Sentido Terminal Portão)/n661 - Lindóia (sentido Praça Rui Barbosa)/n662 - Dom Ático (sentido Praça Rui Barbosa)/n666 - Novo Mundo (sentido Praça Rui Barbosa)</name><desc>ID: 297115; Tipo: INTERMEDIÁRIO; Distância: 7,438 km</desc></wpt><wpt lat="-25.464662" lon="-49.273842"><name>27 - 150658 - 616- Portão / Sta Bernadete - L. Verde (Sentido Terminal Portão)/n661 - Lindóia (sentido Praça Rui Barbosa)/n662 - Dom Ático (sentido Praça Rui Barbosa)/n666 - Novo Mundo (sentido Praça Rui Barbosa)</name><desc>ID: 297116; Tipo: INTERMEDIÁRIO; Distância: 7,730 km</desc></wpt><wpt lat="-25.462717" lon="-49.274717"><name>28 - 150900 - 661 - Lindóia/n662 - Dom Ático/n666 - Novo Mundo</name><desc>ID: 297117; Tipo: INTERMEDIÁRIO; Distância: 7,957 km</desc></wpt><wpt lat="-25.461916" lon="-49.274485"><name>29 - 150009 - 050 - Interbairros V (Sentido Puc/Oficinas )/n216 - Cabral / Portão (Sentido Terminal Cabral)/n614 - Fazendinha / Puc (Sentido  Puc)/n661 - Lindóia (sentido Praça Rui Barbosa)/n662 - Dom Ático (sentido Praça Rui Barbosa)/n663 - Vila Cubas (sentido Praça Rui Barbosa)/n665 - Vila Rex (sentido Praça Rui Barbosa)/n666 - Novo Mundo (sentido Praça Rui Barbosa)/n689 - Mad. S. Pedro / Rio Negro (Sentido Praça Rui Barbosa)</name><desc>ID: 297118; Tipo: INTERMEDIÁRIO; Distância: 8,082 km</desc></wpt><wpt lat="-25.459500" lon="-49.271815"><name>30 - 150248 - 050 - Interbairros V (Sentido Puc/Oficinas )/n216 - Cabral / Portão (Sentido Terminal Cabral)/n614 - Fazendinha / Puc (Sentido  Puc)/n661 - Lindóia (sentido Praça Rui Barbosa)/n662 - Dom Ático (sentido Praça Rui Barbosa)/n663 - Vila Cubas (sentido Praça Rui Barbosa)/n665 - Vila Rex (sentido Praça Rui Barbosa)/n666 - Novo Mundo (sentido Praça Rui Barbosa)/n689 - Mad. S. Pedro / Rio Negro (Sentido Praça Rui Barbosa)</name><desc>ID: 297119; Tipo: INTERMEDIÁRIO; Distância: 8,462 km</desc></wpt><wpt lat="-25.457440" lon="-49.269540"><name>31 - 150006 - 050 - Interbairros V (Sentido Puc/Oficinas )/n216 - Cabral / Portão (Sentido Terminal Cabral)/n614 - Fazendinha / Puc (Sentido  Puc)/n661 - Lindóia (sentido Praça Rui Barbosa)/n662 - Dom Ático (sentido Praça Rui Barbosa)/n663 - Vila Cubas (sentido Praça Rui Barbosa)/n665 - Vila Rex (sentido Praça Rui Barbosa)/n666 - Novo Mundo (sentido Praça Rui Barbosa)/n689 - Mad. S. Pedro / Rio Negro (Sentido Praça Rui Barbosa)</name><desc>ID: 297120; Tipo: INTERMEDIÁRIO; Distância: 8,786 km</desc></wpt><wpt lat="-25.455030" lon="-49.266860"><name>32 - 150004 - 050 - Interbairros V (Sentido Puc/Oficinas )/n216 - Cabral / Portão (Sentido Terminal Cabral)/n614- Fazendinha / Puc (Sentido  Puc)/n661 - Lindóia (sentido Praça Rui Barbosa)/n662 - Dom Ático (sentido Praça Rui Barbosa)/n663 - Vila Cubas (sentido Praça Rui Barbosa)/n665 - Vila Rex (sentido Praça Rui Barbosa)/n666 - Novo Mundo (sentido Praça Rui Barbosa)/n689 - Mad. S. Pedro / Rio Negro (Sentido Praça Rui Barbosa)</name><desc>ID: 297121; Tipo: INTERMEDIÁRIO; Distância: 9,125 km</desc></wpt><wpt lat="-25.452850" lon="-49.265678"><name>33 - 150249 - 560 - Alferes Poli (Sentido  Praça Rui Barbosa)/n561 - Guilhermina (sentido Praça Rui Barbosa)/n661 - Lindóia (sentido Praça  Rui Barbosa)/n662 - Dom Ático (sentido Praça  Rui Barbosa)/n663 - Vila Cubas (sentido Praça  Rui Barbosa)/n665 - Vila Rex (sentido Praça  Rui Barbosa)/n666 - Novo Mundo (sentido Praça  Rui Barbosa)/n689 - Mad. S. Pedro / Rio Negro (Sentido Praça  Rui Barbosa)</name><desc>ID: 297122; Tipo: INTERMEDIÁRIO; Distância: 9,442 km</desc></wpt><wpt lat="-25.450413" lon="-49.266826"><name>34 - 150250 - 165 - Universidades (Sentido Raquel Prado)/n560 - Alferes Poli (Sentido  Praça Rui Barbosa)/n561 - Guilhermina (Sentido Praça Rui Barbosa)/n661 - Lindóia (Sentido Praça  Rui Barbosa)/n662 - Dom Ático (Sentido Praça  Rui Barbosa)/n663 - Vila Cubas (Sentido Praça Rui Barbosa)/n666 - Novo Mundo (Sentido Praça Rui Barbosa)/n689 - Mad. S. Pedro / Rio Negro (Sentido Praça  Rui Barbosa)</name><desc>ID: 297123; Tipo: INTERMEDIÁRIO; Distância: 9,710 km</desc></wpt><wpt lat="-25.447976" lon="-49.267990"><name>35 - 150251 - 165 - Universidades (Sentido Raquel Prado)/n560 - Alferes Poli (Sentido  Praça Rui Barbosa)/n561 - Guilhermina (Sentido Praça Rui Barbosa)/n661 - Lindóia (Sentido Praça  Rui Barbosa)/n662 - Dom Ático (Sentido Praça  Rui Barbosa)/n663 - Vila Cubas (Sentido Praça Rui Barbosa)/n665 - Vila Rex (Sentido Praça  Rui Barbosa)/n666 - Novo Mundo (Sentido Praça Rui Barbosa)/n689 - Mad. S. Pedro / Rio Negro (Sentido Praça  Rui Barbosa)</name><desc>ID: 297124; Tipo: INTERMEDIÁRIO; Distância: 10,040 km</desc></wpt><wpt lat="-25.445839" lon="-49.269014"><name>36 - 110025 - 160 - Jd. Mercês / Guanabara (Sentido Jd. Mercês)/n165 - Universidades (Sentido Raquel Prado)/n560 - Alferes Poli (Sentido  Praça Rui Barbosa)/n561 - Guilhermina (Sentido Praça Rui Barbosa)/n661 - Lindóia (Sentido Praça  Rui Barbosa)/n662 - Dom Ático (Sentido Praça  Rui Barbosa)/n663 - Vila Cubas (Sentido Praça  Rui Barbosa)/n665 - Vila Rex (Sentido Praça  Rui Barbosa)/n666 - Novo Mundo (Sentido Praça  Rui Barbosa)/n689 - Mad. S. Pedro / Rio Negro (Sentido Praça  Rui Barbosa)/n863 - Água Verde</name><desc>ID: 297125; Tipo: INTERMEDIÁRIO; Distância: 10,322 km</desc></wpt><wpt lat="-25.443478" lon="-49.270140"><name>37 - 110024 - 160 - Jd. Mercês / Guanabara (Sentido Jd. Mercês)/n165 - Universidades (sentido Raquel Prado)/n560 - Alferes Poli (Sentido  Praça Rui Barbosa)/n561 - Guilhermina (Sentido Praça Rui Barbosa)/n661 - Lindóia (Sentido Praça Rui Barbosa)/n662 - Dom Ático (Sentido Praça Rui Barbosa)/n663 - Vila Cubas (Sentido Praça Rui Barbosa)/n666 - Novo Mundo (Sentido Praça Rui Barbosa)/n670 - São Jorge (Sentido Praça Rui Barbosa)/n671 - Portão (Sentido Praça Rui Barbosa)/n673 - Formosa (Sentido Praça Rui Barbosa)/n6</name><desc>ID: 297126; Tipo: INTERMEDIÁRIO; Distância: 10,567 km</desc></wpt><wpt lat="-25.440705" lon="-49.271456"><name>38 - 110026 - 160 - Jd. Mercês / Guanabara (Sentido Jd. Mercês)/n165 - Universidades (Sentido Raquel Prado)/n560 - Alferes Poli (Sentido  Praça Rui Barbosa)/n561 - Guilhermina (Sentido Praça  Rui Barbosa)/n661 - Lindóia (Sentido Praça  Rui Barbosa)/n662 - Dom Ático (Sentido Praça  Rui Barbosa)/n663 - Vila Cubas (Sentido Praça Rui Barbosa)/n665 - Vila Rex ( Sentido Praça  Rui Barbosa)/n666 - Novo Mundo (Sentido Praça  Rui Barbosa)/n670 - São Jorge (Sentido Praça  Rui Barbosa)/n671 - Portão (Sentido Praça  Rui B</name><desc>ID: 297127; Tipo: INTERMEDIÁRIO; Distância: 10,885 km</desc></wpt><wpt lat="-25.435887" lon="-49.274486"><name>39 - 102001 - Praça Rui Barbosa - 666- Novo Mundo</name><desc>ID: 297128; Tipo: OBRIGATÓRIO; Distância: 11,594 km</desc></wpt></gpx>