<?xml version='1.0' encoding='utf-8'?>
<gpx version="1.1" creator="Conversor" xmlns="http://www.topografix.com/GPX/1/1" xmlns:xsi="http://www.w3.org/2001/XMLSchema-instance" xsi:schemaLocation="http://www.topografix.com/GPX/1/1 http://www.topografix.com/GPX/1/1/gpx.xsd"><metadata><name>666-novo_mundo-convencional-volta</name></metadata><trk><name>666-novo_mundo-convencional-volta</name><trkseg><trkpt lat="-25.435827" lon="-49.274537" /><trkpt lat="-25.435642" lon="-49.274251" /><trkpt lat="-25.435492" lon="-49.274011" /><trkpt lat="-25.435424" lon="-49.273896" /><trkpt lat="-25.435366" lon="-49.273802" /><trkpt lat="-25.435244" lon="-49.273485" /><trkpt lat="-25.435030" lon="-49.272971" /><trkpt lat="-25.434795" lon="-49.272374" /><trkpt lat="-25.434706" lon="-49.272147" /><trkpt lat="-25.434643" lon="-49.271980" /><trkpt lat="-25.434970" lon="-49.271843" /><trkpt lat="-25.435217" lon="-49.271737" /><trkpt lat="-25.435767" lon="-49.271460" /><trkpt lat="-25.435885" lon="-49.271396" /><trkpt lat="-25.436068" lon="-49.271314" /><trkpt lat="-25.436464" lon="-49.271138" /><trkpt lat="-25.436695" lon="-49.271034" /><trkpt lat="-25.437138" lon="-49.270825" /><trkpt lat="-25.437502" lon="-49.270652" /><trkpt lat="-25.437608" lon="-49.270594" /><trkpt lat="-25.437733" lon="-49.270921" /><trkpt lat="-25.437970" lon="-49.271551" /><trkpt lat="-25.438086" lon="-49.271832" /><trkpt lat="-25.438225" lon="-49.272179" /><trkpt lat="-25.438328" lon="-49.272430" /><trkpt lat="-25.438413" lon="-49.272636" /><trkpt lat="-25.438552" lon="-49.272997" /><trkpt lat="-25.438634" lon="-49.273213" /><trkpt lat="-25.438802" lon="-49.273638" /><trkpt lat="-25.438910" lon="-49.273563" /><trkpt lat="-25.439068" lon="-49.273484" /><trkpt lat="-25.439336" lon="-49.273347" /><trkpt lat="-25.439598" lon="-49.273216" /><trkpt lat="-25.439821" lon="-49.273106" /><trkpt lat="-25.439982" lon="-49.273024" /><trkpt lat="-25.440137" lon="-49.272947" /><trkpt lat="-25.440319" lon="-49.272859" /><trkpt lat="-25.440513" lon="-49.272764" /><trkpt lat="-25.440662" lon="-49.272690" /><trkpt lat="-25.440812" lon="-49.272616" /><trkpt lat="-25.441470" lon="-49.272292" /><trkpt lat="-25.441578" lon="-49.272236" /><trkpt lat="-25.441972" lon="-49.272050" /><trkpt lat="-25.442513" lon="-49.271794" /><trkpt lat="-25.442740" lon="-49.271685" /><trkpt lat="-25.442984" lon="-49.271556" /><trkpt lat="-25.443096" lon="-49.271503" /><trkpt lat="-25.443296" lon="-49.271407" /><trkpt lat="-25.443492" lon="-49.271311" /><trkpt lat="-25.443802" lon="-49.271164" /><trkpt lat="-25.444071" lon="-49.271029" /><trkpt lat="-25.444354" lon="-49.270893" /><trkpt lat="-25.444540" lon="-49.270802" /><trkpt lat="-25.445014" lon="-49.270581" /><trkpt lat="-25.445367" lon="-49.270414" /><trkpt lat="-25.445708" lon="-49.270254" /><trkpt lat="-25.445941" lon="-49.270146" /><trkpt lat="-25.446215" lon="-49.270006" /><trkpt lat="-25.446455" lon="-49.269884" /><trkpt lat="-25.446868" lon="-49.269675" /><trkpt lat="-25.447242" lon="-49.269484" /><trkpt lat="-25.447522" lon="-49.269346" /><trkpt lat="-25.447848" lon="-49.269189" /><trkpt lat="-25.448086" lon="-49.269071" /><trkpt lat="-25.448568" lon="-49.268836" /><trkpt lat="-25.448902" lon="-49.268655" /><trkpt lat="-25.449190" lon="-49.268501" /><trkpt lat="-25.449409" lon="-49.268384" /><trkpt lat="-25.449720" lon="-49.268217" /><trkpt lat="-25.449960" lon="-49.268105" /><trkpt lat="-25.450183" lon="-49.268000" /><trkpt lat="-25.450539" lon="-49.267837" /><trkpt lat="-25.450997" lon="-49.267623" /><trkpt lat="-25.451456" lon="-49.267408" /><trkpt lat="-25.451737" lon="-49.267268" /><trkpt lat="-25.452138" lon="-49.267067" /><trkpt lat="-25.452391" lon="-49.266943" /><trkpt lat="-25.452584" lon="-49.266843" /><trkpt lat="-25.452924" lon="-49.266682" /><trkpt lat="-25.453239" lon="-49.266530" /><trkpt lat="-25.453474" lon="-49.266417" /><trkpt lat="-25.453683" lon="-49.266315" /><trkpt lat="-25.454106" lon="-49.266112" /><trkpt lat="-25.454210" lon="-49.266237" /><trkpt lat="-25.454388" lon="-49.266448" /><trkpt lat="-25.454772" lon="-49.266880" /><trkpt lat="-25.454991" lon="-49.267126" /><trkpt lat="-25.455162" lon="-49.267317" /><trkpt lat="-25.455431" lon="-49.267613" /><trkpt lat="-25.455739" lon="-49.267955" /><trkpt lat="-25.456060" lon="-49.268313" /><trkpt lat="-25.456289" lon="-49.268569" /><trkpt lat="-25.456552" lon="-49.268859" /><trkpt lat="-25.456765" lon="-49.269095" /><trkpt lat="-25.456979" lon="-49.269326" /><trkpt lat="-25.457231" lon="-49.269608" /><trkpt lat="-25.457521" lon="-49.269932" /><trkpt lat="-25.457658" lon="-49.270083" /><trkpt lat="-25.457790" lon="-49.270230" /><trkpt lat="-25.457934" lon="-49.270386" /><trkpt lat="-25.458074" lon="-49.270544" /><trkpt lat="-25.458329" lon="-49.270824" /><trkpt lat="-25.458520" lon="-49.271038" /><trkpt lat="-25.458699" lon="-49.271233" /><trkpt lat="-25.458776" lon="-49.271321" /><trkpt lat="-25.458860" lon="-49.271414" /><trkpt lat="-25.459369" lon="-49.271981" /><trkpt lat="-25.459638" lon="-49.272278" /><trkpt lat="-25.459951" lon="-49.272621" /><trkpt lat="-25.460211" lon="-49.272907" /><trkpt lat="-25.460449" lon="-49.273172" /><trkpt lat="-25.460579" lon="-49.273318" /><trkpt lat="-25.460730" lon="-49.273487" /><trkpt lat="-25.460939" lon="-49.273718" /><trkpt lat="-25.461140" lon="-49.273936" /><trkpt lat="-25.461443" lon="-49.274266" /><trkpt lat="-25.461565" lon="-49.274403" /><trkpt lat="-25.461881" lon="-49.274756" /><trkpt lat="-25.462145" lon="-49.275050" /><trkpt lat="-25.462297" lon="-49.275041" /><trkpt lat="-25.462654" lon="-49.274875" /><trkpt lat="-25.463155" lon="-49.274644" /><trkpt lat="-25.463249" lon="-49.274598" /><trkpt lat="-25.463592" lon="-49.274443" /><trkpt lat="-25.464219" lon="-49.274153" /><trkpt lat="-25.464814" lon="-49.273873" /><trkpt lat="-25.465205" lon="-49.273689" /><trkpt lat="-25.465460" lon="-49.273575" /><trkpt lat="-25.465771" lon="-49.273438" /><trkpt lat="-25.466023" lon="-49.273320" /><trkpt lat="-25.466192" lon="-49.273243" /><trkpt lat="-25.466471" lon="-49.273115" /><trkpt lat="-25.466958" lon="-49.272887" /><trkpt lat="-25.467131" lon="-49.272808" /><trkpt lat="-25.467305" lon="-49.272731" /><trkpt lat="-25.467754" lon="-49.272532" /><trkpt lat="-25.468108" lon="-49.272373" /><trkpt lat="-25.468450" lon="-49.272210" /><trkpt lat="-25.468616" lon="-49.272131" /><trkpt lat="-25.468717" lon="-49.272084" /><trkpt lat="-25.468922" lon="-49.271991" /><trkpt lat="-25.469119" lon="-49.271904" /><trkpt lat="-25.469350" lon="-49.271798" /><trkpt lat="-25.469538" lon="-49.271714" /><trkpt lat="-25.469548" lon="-49.271728" /><trkpt lat="-25.469560" lon="-49.271740" /><trkpt lat="-25.469573" lon="-49.271748" /><trkpt lat="-25.469593" lon="-49.271755" /><trkpt lat="-25.469621" lon="-49.271748" /><trkpt lat="-25.469625" lon="-49.271758" /><trkpt lat="-25.469697" lon="-49.271949" /><trkpt lat="-25.469787" lon="-49.272189" /><trkpt lat="-25.469916" lon="-49.272530" /><trkpt lat="-25.470107" lon="-49.273037" /><trkpt lat="-25.470396" lon="-49.273784" /><trkpt lat="-25.470606" lon="-49.274335" /><trkpt lat="-25.470810" lon="-49.274864" /><trkpt lat="-25.471113" lon="-49.275656" /><trkpt lat="-25.471262" lon="-49.276038" /><trkpt lat="-25.471479" lon="-49.276606" /><trkpt lat="-25.471618" lon="-49.276967" /><trkpt lat="-25.471833" lon="-49.277531" /><trkpt lat="-25.471954" lon="-49.277844" /><trkpt lat="-25.472135" lon="-49.278319" /><trkpt lat="-25.472281" lon="-49.278704" /><trkpt lat="-25.472517" lon="-49.279322" /><trkpt lat="-25.472642" lon="-49.279648" /><trkpt lat="-25.472796" lon="-49.280044" /><trkpt lat="-25.472961" lon="-49.280468" /><trkpt lat="-25.473164" lon="-49.280991" /><trkpt lat="-25.473278" lon="-49.281293" /><trkpt lat="-25.473463" lon="-49.281783" /><trkpt lat="-25.473667" lon="-49.282330" /><trkpt lat="-25.473797" lon="-49.282666" /><trkpt lat="-25.473918" lon="-49.282972" /><trkpt lat="-25.474041" lon="-49.283280" /><trkpt lat="-25.474183" lon="-49.283642" /><trkpt lat="-25.474278" lon="-49.283895" /><trkpt lat="-25.474383" lon="-49.284175" /><trkpt lat="-25.474537" lon="-49.284586" /><trkpt lat="-25.474693" lon="-49.285007" /><trkpt lat="-25.474801" lon="-49.285297" /><trkpt lat="-25.474964" lon="-49.285732" /><trkpt lat="-25.475085" lon="-49.286058" /><trkpt lat="-25.475521" lon="-49.287228" /><trkpt lat="-25.475713" lon="-49.287746" /><trkpt lat="-25.476252" lon="-49.287467" /><trkpt lat="-25.476308" lon="-49.287420" /><trkpt lat="-25.476356" lon="-49.287368" /><trkpt lat="-25.476480" lon="-49.287216" /><trkpt lat="-25.476553" lon="-49.287129" /><trkpt lat="-25.476596" lon="-49.287094" /><trkpt lat="-25.476670" lon="-49.287038" /><trkpt lat="-25.476707" lon="-49.287010" /><trkpt lat="-25.476911" lon="-49.286904" /><trkpt lat="-25.477179" lon="-49.286761" /><trkpt lat="-25.477423" lon="-49.286632" /><trkpt lat="-25.477558" lon="-49.286620" /><trkpt lat="-25.477689" lon="-49.286616" /><trkpt lat="-25.477753" lon="-49.286623" /><trkpt lat="-25.477786" lon="-49.286753" /><trkpt lat="-25.477805" lon="-49.286840" /><trkpt lat="-25.477804" lon="-49.286894" /><trkpt lat="-25.477914" lon="-49.286894" /><trkpt lat="-25.478063" lon="-49.286874" /><trkpt lat="-25.478092" lon="-49.286798" /><trkpt lat="-25.478108" lon="-49.286716" /><trkpt lat="-25.478106" lon="-49.286668" /><trkpt lat="-25.478086" lon="-49.286558" /><trkpt lat="-25.478061" lon="-49.286424" /><trkpt lat="-25.478048" lon="-49.286274" /><trkpt lat="-25.478024" lon="-49.286172" /><trkpt lat="-25.477999" lon="-49.286076" /><trkpt lat="-25.478070" lon="-49.285925" /><trkpt lat="-25.478140" lon="-49.285761" /><trkpt lat="-25.478192" lon="-49.285628" /><trkpt lat="-25.478252" lon="-49.285410" /><trkpt lat="-25.478561" lon="-49.285544" /><trkpt lat="-25.478883" lon="-49.285682" /><trkpt lat="-25.479083" lon="-49.285768" /><trkpt lat="-25.479459" lon="-49.285977" /><trkpt lat="-25.479846" lon="-49.286188" /><trkpt lat="-25.480106" lon="-49.286297" /><trkpt lat="-25.480277" lon="-49.286364" /><trkpt lat="-25.480496" lon="-49.286348" /><trkpt lat="-25.480701" lon="-49.286334" /><trkpt lat="-25.480872" lon="-49.286324" /><trkpt lat="-25.480901" lon="-49.286396" /><trkpt lat="-25.480928" lon="-49.286466" /><trkpt lat="-25.480957" lon="-49.286518" /><trkpt lat="-25.481017" lon="-49.286621" /><trkpt lat="-25.481075" lon="-49.286688" /><trkpt lat="-25.481157" lon="-49.286747" /><trkpt lat="-25.481235" lon="-49.287052" /><trkpt lat="-25.481301" lon="-49.287372" /><trkpt lat="-25.481359" lon="-49.287694" /><trkpt lat="-25.481441" lon="-49.288150" /><trkpt lat="-25.481594" lon="-49.288131" /><trkpt lat="-25.481769" lon="-49.288108" /><trkpt lat="-25.482024" lon="-49.288078" /><trkpt lat="-25.482062" lon="-49.288075" /><trkpt lat="-25.482232" lon="-49.288077" /><trkpt lat="-25.482317" lon="-49.288089" /><trkpt lat="-25.482383" lon="-49.288110" /><trkpt lat="-25.482515" lon="-49.288178" /><trkpt lat="-25.482585" lon="-49.288241" /><trkpt lat="-25.482645" lon="-49.288304" /><trkpt lat="-25.482726" lon="-49.288409" /><trkpt lat="-25.482845" lon="-49.288554" /><trkpt lat="-25.482947" lon="-49.288685" /><trkpt lat="-25.483019" lon="-49.288781" /><trkpt lat="-25.483093" lon="-49.288875" /><trkpt lat="-25.483115" lon="-49.288900" /><trkpt lat="-25.483214" lon="-49.288958" /><trkpt lat="-25.483298" lon="-49.288995" /><trkpt lat="-25.483413" lon="-49.289017" /><trkpt lat="-25.483515" lon="-49.289038" /><trkpt lat="-25.483668" lon="-49.289101" /><trkpt lat="-25.483931" lon="-49.289092" /><trkpt lat="-25.484193" lon="-49.289104" /><trkpt lat="-25.484447" lon="-49.289112" /><trkpt lat="-25.484665" lon="-49.289117" /><trkpt lat="-25.484860" lon="-49.289121" /><trkpt lat="-25.485263" lon="-49.289105" /><trkpt lat="-25.485639" lon="-49.289094" /><trkpt lat="-25.485843" lon="-49.289090" /><trkpt lat="-25.486083" lon="-49.289083" /><trkpt lat="-25.486314" lon="-49.289109" /><trkpt lat="-25.486541" lon="-49.289134" /><trkpt lat="-25.486614" lon="-49.289167" /><trkpt lat="-25.486690" lon="-49.289192" /><trkpt lat="-25.486714" lon="-49.289194" /><trkpt lat="-25.486744" lon="-49.289188" /><trkpt lat="-25.486804" lon="-49.289151" /><trkpt lat="-25.486858" lon="-49.289112" /><trkpt lat="-25.486990" lon="-49.289016" /><trkpt lat="-25.487196" lon="-49.288866" /><trkpt lat="-25.487473" lon="-49.288635" /><trkpt lat="-25.487766" lon="-49.288387" /><trkpt lat="-25.487943" lon="-49.288239" /><trkpt lat="-25.488226" lon="-49.288018" /><trkpt lat="-25.488448" lon="-49.287842" /><trkpt lat="-25.488550" lon="-49.287761" /><trkpt lat="-25.488724" lon="-49.287612" /><trkpt lat="-25.489030" lon="-49.287354" /><trkpt lat="-25.489309" lon="-49.287117" /><trkpt lat="-25.489603" lon="-49.286866" /><trkpt lat="-25.489787" lon="-49.286712" /><trkpt lat="-25.489983" lon="-49.286543" /><trkpt lat="-25.490259" lon="-49.286316" /><trkpt lat="-25.490327" lon="-49.286269" /><trkpt lat="-25.490404" lon="-49.286223" /><trkpt lat="-25.490450" lon="-49.286196" /><trkpt lat="-25.490492" lon="-49.286176" /><trkpt lat="-25.490592" lon="-49.286126" /><trkpt lat="-25.490878" lon="-49.285985" /><trkpt lat="-25.491092" lon="-49.285895" /><trkpt lat="-25.491317" lon="-49.285801" /></trkseg></trk><wpt lat="-25.435887" lon="-49.274486"><name>1 - 102001 - Praça Rui Barbosa - 666- Novo Mundo</name><desc>ID: 297128; Tipo: OBRIGATÓRIO; Distância: 0,000 km</desc></wpt><wpt lat="-25.439756" lon="-49.273240"><name>2 - 110022 - 661 - Lindóia (Sentido Lindóia)/n662 - Dom Ático (Sentido Dom Ático)/n663 - Vila Cubas (Sentido Vila Cubas)/n665 - Vila Rex (Sentido V. Rex)/n666 - Novo Mundo (Sentido Novo Mundo)/n670 - São Jorge (Sentido S. Jorge)/n671 - Portão (Sentido Portão)/n673 - Formosa (Sentido Formosa)/n674 - Nossa Sra. da Luz (Sentido Nossa Sra. da Luz)/n689 - Mad. São Pedro / Rio Negro (Sentido São Pedro)/n701 - Fazendinha (SentidoTerminal Fazendinha)/n703 - Caiuá (Sentido Terminal Caiuá)/n706 - Caiua/Faz/Centro (Sentid</name><desc>ID: 297129; Tipo: INTERMEDIÁRIO; Distância: 1,090 km</desc></wpt><wpt lat="-25.444237" lon="-49.271078"><name>3 - 110023 - 378 - Inter-Hospitais/n661 - Lindóia (sentido Lindóia)/n662 - Dom Ático (sentido D. Ático)/n663 - Vila Cubas (sentido V. Cubas)/n665 - Vila Rex (sentido V. Rex)/n666 - Novo Mundo (sentido N. Mundo)/n689 - Mad. S. Pedro / Rio Negro (Sentido S. Pedro)/n863 - Água Verde</name><desc>ID: 297130; Tipo: INTERMEDIÁRIO; Distância: 1,599 km</desc></wpt><wpt lat="-25.448215" lon="-49.269060"><name>4 - 150180 - 661 - Lindóia (Sentido Lindóia)/n662 - Dom Ático (Sentido D. Ático)/n663 - Vila Cubas (Sentido V. Cubas)/n665 - Vila Rex (Sentido V. Rex)/n666 - Novo Mundo (Sentido N. Mundo)/n689 - Mad. S. Pedro / Rio Negro (Sentido S. Pedro)</name><desc>ID: 297131; Tipo: INTERMEDIÁRIO; Distância: 2,081 km</desc></wpt><wpt lat="-25.451248" lon="-49.267590"><name>5 - 150181 - 661 - Lindóia (Sentido Lindóia)/n662 - Dom Ático (Sentido D. Ático)/n663 - Vila Cubas (Sentido V. Cubas)/n665 - Vila Rex (Sentido V. Rex)/n666 - Novo Mundo (Sentido N. Mundo)/n689 - Mad. S. Pedro / Rio Negro (Sentido Bairro)</name><desc>ID: 297132; Tipo: INTERMEDIÁRIO; Distância: 2,431 km</desc></wpt><wpt lat="-25.453896" lon="-49.266295"><name>6 - 150182 - 216 - Cabral / Portão (Sentido Terminal Portão)/n614 - Fazendinha / Puc/n661 - Lindóia (sentido Lindóia)/n662 - Dom Ático (sentido D. Ático)/n663 - Vila Cubas (sentido V. Cubas)/n665 - Vila Rex (sentido V. Rex)/n666 - Novo Mundo (sentido N. Mundo)/n689 - Mad. S. Pedro / Rio Negro (Sentido Bairro)</name><desc>ID: 297133; Tipo: INTERMEDIÁRIO; Distância: 2,753 km</desc></wpt><wpt lat="-25.455180" lon="-49.267390"><name>7 - 150005 - 050 - Interbairros V (Sentido Terminal Fazendinha )/n216 - Cabral / Portão (Sentido Terminal Portão)/n614- Fazendinha / Puc (Sentido Terminal Fazendinha)/n661 - Lindóia (sentido Lindóia)/n662 - Dom Ático (sentido D. Ático)/n663 - Vila Cubas (sentido V. Cubas)/n665 - Vila Rex (sentido V. Rex)/n666 - Novo Mundo (sentido N. Mundo)/n689 - Mad. S. Pedro / Rio Negro (Sentido bairro)</name><desc>ID: 297134; Tipo: INTERMEDIÁRIO; Distância: 2,970 km</desc></wpt><wpt lat="-25.457920" lon="-49.270440"><name>8 - 150007 - 050 - Interbairros V (Sentido Terminal Fazendinha )/n216 - Cabral / Portão (Sentido Terminal Portão)/n614- Fazendinha / Puc (Sentido Terminal Fazendinha)/n661 - Lindóia (sentido Lindóia)/n662 - Dom Ático (sentido D. Ático)/n663 - Vila Cubas (sentido V. Cubas)/n665 - Vila Rex (sentido V. Rex)/n666 - Novo Mundo (sentido N. Mundo)/n689 - Mad. S. Pedro / Rio Negro (Sentido bairro)</name><desc>ID: 297135; Tipo: INTERMEDIÁRIO; Distância: 3,400 km</desc></wpt><wpt lat="-25.460568" lon="-49.273366"><name>9 - 150008 - 050 - Interbairros V (Sentido Terminal Fazendinha )/n216 - Cabral / Portão (Sentido Terminal Portão)/n614- Fazendinha / Puc (Sentido Terminal Fazendinha)/n661 - Lindóia (sentido Lindóia)/n662 - Dom Ático (sentido D. Ático)/n663 - Vila Cubas (sentido V. Cubas)/n665 - Vila Rex (sentido V. Rex)/n666 - Novo Mundo (sentido N. Mundo)/n689 - Mad. S. Pedro / Rio Negro (Sentido bairro)</name><desc>ID: 297136; Tipo: INTERMEDIÁRIO; Distância: 3,810 km</desc></wpt><wpt lat="-25.463050" lon="-49.274737"><name>10 - 150656 - 661 - Lindóia (sentido Lindóia)/n662 - Dom Ático (sentido D. Ático)/n666 - Novo Mundo (sentido N. Mundo)</name><desc>ID: 297137; Tipo: INTERMEDIÁRIO; Distância: 4,171 km</desc></wpt><wpt lat="-25.464962" lon="-49.273880"><name>11 - 150659 - 616- Portão / Sta Bernadete - L. Verde (Sentido E.T. Fanny)/n661 - Lindóia (sentido Lindóia)/n662 - Dom Ático (sentido D. Ático)/n666 - Novo Mundo (sentido N. Mundo)</name><desc>ID: 297138; Tipo: INTERMEDIÁRIO; Distância: 4,369 km</desc></wpt><wpt lat="-25.466962" lon="-49.272961"><name>12 - 150661 - 616- Portão / Sta Bernadete - L. Verde (Sentido E.T. Fanny)/n661 - Lindóia (sentido Lindóia)/n662 - Dom Ático (sentido D. Ático)/n666 - Novo Mundo (sentido N. Mundo)</name><desc>ID: 297139; Tipo: INTERMEDIÁRIO; Distância: 4,624 km</desc></wpt><wpt lat="-25.469383" lon="-49.271813"><name>13 - 150662 - 661 - Lindóia (sentido Lindóia)/n662 - Dom Ático (sentido D. Ático)/n666 - Novo Mundo (sentido N. Mundo)</name><desc>ID: 297140; Tipo: INTERMEDIÁRIO; Distância: 4,906 km</desc></wpt><wpt lat="-25.470183" lon="-49.273341"><name>14 - 150664 - 661 - Lindóia (sentido Lindóia)/n662 - Dom Ático (sentido D. Ático)/n666 - Novo Mundo (sentido N. Mundo)</name><desc>ID: 297141; Tipo: INTERMEDIÁRIO; Distância: 5,075 km</desc></wpt><wpt lat="-25.470985" lon="-49.275456"><name>15 - 150816 - 616- Portão / Sta Bernadete - L. Verde (Sentido Terminal Portão)/n661 - Lindóia (sentido Lindóia)/n662 - Dom Ático (sentido D. Ático)/n666 - Novo Mundo (sentido N. Mundo)</name><desc>ID: 297142; Tipo: INTERMEDIÁRIO; Distância: 5,359 km</desc></wpt><wpt lat="-25.471839" lon="-49.277623"><name>16 - 150667 - 616- Portão / Sta Bernadete - L. Verde (Sentido Terminal Portão)/n661 - Lindóia (sentido Lindóia)/n662 - Dom Ático (sentido D. Ático)/n666 - Novo Mundo (sentido N. Mundo)</name><desc>ID: 297143; Tipo: INTERMEDIÁRIO; Distância: 5,561 km</desc></wpt><wpt lat="-25.473413" lon="-49.281780"><name>17 - 150034 - 616 - Portão / Sta Bernadete - L. Verde (Sentido Terminal Portão)/n666 - Novo Mundo (sentido N. Mundo)</name><desc>ID: 297144; Tipo: INTERMEDIÁRIO; Distância: 6,020 km</desc></wpt><wpt lat="-25.474567" lon="-49.284758"><name>18 - 150767 - 616- Portão / Sta Bernadete - L. Verde (Sentido Terminal Portão)/n666 - Novo Mundo (sentido N. Mundo)</name><desc>ID: 297145; Tipo: INTERMEDIÁRIO; Distância: 6,321 km</desc></wpt><wpt lat="-25.475354" lon="-49.286861"><name>19 - 150768 - 616- Portão / Sta Bernadete - L. Verde (Sentido Portão)/n666 - Novo Mundo (sentido N. Mundo)</name><desc>ID: 297146; Tipo: INTERMEDIÁRIO; Distância: 6,606 km</desc></wpt><wpt lat="-25.477344" lon="-49.286743"><name>20 - 150769 - 616- Portão / Sta Bernadete - L. Verde (Sentido E.T. Sta Bernadete)/n663 - Vila Cubas (sentido V. Cubas)/n666 - Novo Mundo (sentido N. Mundo)/n689 - Mad. S. Pedro / Rio Negro (Sentido Bairro)</name><desc>ID: 297147; Tipo: INTERMEDIÁRIO; Distância: 6,879 km</desc></wpt><wpt lat="-25.479221" lon="-49.285906"><name>21 - 150770 - 616- Portão / Sta Bernadete - L. Verde (Sentido E.T. Sta Bernadete)/n663 - Vila Cubas (sentido V. Cubas)/n666 - Novo Mundo (sentido N. Mundo)</name><desc>ID: 297148; Tipo: INTERMEDIÁRIO; Distância: 7,216 km</desc></wpt><wpt lat="-25.481324" lon="-49.287937"><name>22 - 150110 - 616- Portão / Sta Bernadete - L. Verde (Sentido E.T. Sta Bernadete)/n663 - Vila Cubas (sentido V. Cubas)/n666 - Novo Mundo (sentido N. Mundo)</name><desc>ID: 297149; Tipo: INTERMEDIÁRIO; Distância: 7,570 km</desc></wpt><wpt lat="-25.482753" lon="-49.288572"><name>23 - 150115 - 616- Portão / Sta Bernadete - L. Verde (Sentido E.T. Sta Bernadete)/n663 - Vila Cubas (sentido V. Cubas)/n666 - Novo Mundo (sentido N. Mundo)</name><desc>ID: 297150; Tipo: INTERMEDIÁRIO; Distância: 7,785 km</desc></wpt><wpt lat="-25.485097" lon="-49.289134"><name>24 - 150772 - 616- Portão / Sta Bernadete - L. Verde (Sentido E.T. Sta Bernadete)/n663 - Vila Cubas (sentido V. Cubas) /n666 - Novo Mundo (sentido N. Mundo)</name><desc>ID: 297151; Tipo: INTERMEDIÁRIO; Distância: 8,067 km</desc></wpt><wpt lat="-25.486982" lon="-49.289060"><name>25 - 150643 - 666 - Novo Mundo (sentido bairro)</name><desc>ID: 297099; Tipo: INTERMEDIÁRIO; Distância: 8,258 km</desc></wpt><wpt lat="-25.488129" lon="-49.288113"><name>26 - 150645 - 666 - Novo Mundo (sentido bairro)</name><desc>ID: 297152; Tipo: INTERMEDIÁRIO; Distância: 8,426 km</desc></wpt><wpt lat="-25.489787" lon="-49.286775"><name>27 - 150647 - 666 - Novo Mundo (sentido bairro)</name><desc>ID: 297153; Tipo: INTERMEDIÁRIO; Distância: 8,640 km</desc></wpt><wpt lat="-25.491331" lon="-49.285910"><name>28 - 150651 - 666 - Novo Mundo</name><desc>ID: 297090; Tipo: OBRIGATÓRIO; Distância: 8,829 km</desc></wpt></gpx>