<?xml version='1.0' encoding='utf-8'?>
<kml xmlns="http://www.opengis.net/kml/2.2"><Document><name>684-rio_bonito-alimentador-ida</name><Style id="trajeto"><LineStyle><color>ff0000ff</color><width>5</width></LineStyle></Style><Placemark><name>Trajeto</name><styleUrl>#trajeto</styleUrl><LineString><tessellate>1</tessellate><coordinates>-49.340238,-25.585140,0
-49.340280,-25.585291,0
-49.340353,-25.585578,0
-49.340571,-25.586435,0
-49.340624,-25.586640,0
-49.340657,-25.586772,0
-49.340700,-25.586940,0
-49.340732,-25.587068,0
-49.340785,-25.587316,0
-49.340835,-25.587488,0
-49.340941,-25.587861,0
-49.341096,-25.588466,0
-49.341148,-25.588660,0
-49.341215,-25.588907,0
-49.341277,-25.589125,0
-49.341322,-25.589318,0
-49.341381,-25.589570,0
-49.341435,-25.589766,0
-49.341506,-25.590035,0
-49.341566,-25.590189,0
-49.341635,-25.590361,0
-49.341691,-25.590496,0
-49.341775,-25.590817,0
-49.341851,-25.591103,0
-49.341908,-25.591326,0
-49.341943,-25.591512,0
-49.341992,-25.591791,0
-49.342057,-25.591990,0
-49.342102,-25.592135,0
-49.342135,-25.592244,0
-49.342164,-25.592404,0
-49.341874,-25.592503,0
-49.341614,-25.592591,0
-49.341147,-25.592763,0
-49.340873,-25.592862,0
-49.340659,-25.592939,0
-49.340363,-25.593032,0
-49.340138,-25.593102,0
-49.339954,-25.593054,0
-49.339717,-25.593048,0
-49.339461,-25.593044,0
-49.338858,-25.593155,0
-49.338226,-25.593270,0
-49.337653,-25.593376,0
-49.337404,-25.593422,0
-49.337089,-25.593487,0
-49.336856,-25.593536,0
-49.336691,-25.593572,0
-49.336536,-25.593606,0
-49.336014,-25.593721,0
-49.335433,-25.593849,0
-49.334964,-25.593937,0
-49.334584,-25.593745,0
-49.334209,-25.593556,0
-49.332916,-25.592903,0
-49.332604,-25.592726,0
-49.332298,-25.592580,0
-49.332143,-25.592505,0
-49.331985,-25.592384,0
-49.331906,-25.592420,0
-49.331814,-25.592439,0
-49.331731,-25.592435,0
-49.331665,-25.592402,0
-49.331601,-25.592336,0
-49.331572,-25.592283,0
-49.331543,-25.592193,0
-49.331532,-25.592099,0
-49.331582,-25.592027,0
-49.331672,-25.591952,0
-49.331780,-25.591907,0
-49.331877,-25.591895,0
-49.331858,-25.591678,0
-49.331890,-25.591364,0
-49.331608,-25.590203,0
-49.331441,-25.589778,0
-49.331346,-25.589315,0
-49.331375,-25.589057,0
-49.333349,-25.588668,0
-49.334360,-25.588437,0
-49.335416,-25.588222,0
-49.335381,-25.588083,0
-49.335229,-25.587483,0
-49.335184,-25.587304,0
-49.335103,-25.586991,0
-49.335035,-25.586729,0
-49.334944,-25.586369,0
-49.334881,-25.586123,0
-49.334835,-25.585936,0
-49.334812,-25.585848,0
-49.334779,-25.585768,0
-49.335304,-25.585648,0
-49.335814,-25.585523,0
-49.336124,-25.585469,0
-49.336298,-25.585434,0
-49.337330,-25.585230,0
-49.337540,-25.585193,0
-49.337872,-25.585125,0
-49.337714,-25.584486,0
-49.337582,-25.583962,0
-49.337491,-25.583593,0
-49.337313,-25.582876,0
-49.337244,-25.582599,0
-49.337195,-25.582399,0
-49.337256,-25.582258,0
-49.337250,-25.582167,0
-49.337225,-25.582091,0
-49.337206,-25.582047,0
-49.337164,-25.581986,0
-49.337051,-25.581858,0
-49.336652,-25.581498,0
-49.336576,-25.581425,0
-49.336457,-25.581302,0
-49.336148,-25.580983,0
-49.336074,-25.580898,0
-49.335909,-25.580742,0
-49.335618,-25.580463,0
-49.335374,-25.580232,0
-49.335249,-25.580114,0
-49.335099,-25.580022,0
-49.334815,-25.579792,0
-49.334639,-25.579631,0
-49.334485,-25.579495,0
-49.334258,-25.579295,0
-49.334138,-25.579189,0
-49.333973,-25.579037,0
-49.333794,-25.578888,0
-49.333642,-25.578748,0
-49.333497,-25.578587,0
-49.333348,-25.578421,0
-49.333220,-25.578296,0
-49.333032,-25.578111,0
-49.332907,-25.577991,0
-49.332778,-25.577853,0
-49.332661,-25.577734,0
-49.332599,-25.577674,0
-49.332500,-25.577591,0
-49.332304,-25.577393,0
-49.332116,-25.577204,0
-49.331998,-25.577080,0
-49.331807,-25.576921,0
-49.331712,-25.576839,0
-49.331670,-25.576789,0
-49.331854,-25.576665,0
-49.331881,-25.576639,0
-49.331976,-25.576579,0
-49.331551,-25.576234,0
-49.331196,-25.575945,0
-49.331003,-25.575789,0
-49.330766,-25.575611,0
-49.330702,-25.575558,0
-49.330634,-25.575518,0
-49.330584,-25.575504,0
-49.330486,-25.575506,0
-49.330440,-25.575519,0
-49.330351,-25.575565,0
-49.330248,-25.575637,0
-49.330067,-25.575465,0
-49.329894,-25.575311,0
-49.329709,-25.575144,0
-49.329626,-25.575087,0
-49.329428,-25.574934,0
-49.329134,-25.574692,0
-49.328574,-25.574213,0
-49.328391,-25.574059,0
-49.328244,-25.573949,0
-49.327894,-25.573660,0
-49.327596,-25.573412,0
-49.327060,-25.572982,0
-49.326751,-25.572722,0
-49.326527,-25.572536,0
-49.326259,-25.572317,0
-49.325662,-25.571826,0
-49.325533,-25.571719,0
-49.325429,-25.571606,0
-49.325363,-25.571488,0
-49.325283,-25.571323,0
-49.325225,-25.571176,0
-49.325167,-25.570966,0
-49.325110,-25.570775,0
-49.325067,-25.570663,0
-49.325036,-25.570618,0
-49.324953,-25.570537,0
-49.324878,-25.570462,0
-49.324811,-25.570415,0
-49.324768,-25.570384,0
-49.324670,-25.570325,0
-49.324527,-25.570249,0
-49.324346,-25.570183,0
-49.324070,-25.570071,0
-49.323878,-25.569958,0
-49.323544,-25.569813,0
-49.323450,-25.569772,0
-49.323335,-25.569743,0
-49.323141,-25.569722,0
-49.322558,-25.569565,0
-49.322208,-25.569421,0
-49.321936,-25.569311,0
-49.321790,-25.569251,0
-49.321470,-25.569100,0
-49.320837,-25.568802,0
-49.320475,-25.568632,0
-49.320377,-25.568582,0
-49.319804,-25.568588,0
-49.319521,-25.568604,0
-49.319348,-25.568591,0
-49.319151,-25.568562,0
-49.319017,-25.568539,0
-49.318857,-25.568501,0
-49.318835,-25.568492,0
-49.318791,-25.568454,0
-49.318760,-25.568410,0
-49.318674,-25.568211,0
-49.318623,-25.568091,0
-49.318569,-25.567974,0
-49.318527,-25.567874,0
-49.318440,-25.567725,0
-49.318385,-25.567632,0
-49.318282,-25.567498,0
-49.318175,-25.567354,0
-49.318083,-25.567234,0
-49.317978,-25.567118,0
-49.317773,-25.566955,0
-49.317682,-25.566887,0
-49.317586,-25.566836,0
-49.317481,-25.566796,0
-49.317363,-25.566777,0
-49.317268,-25.566765,0
-49.317128,-25.566763,0
-49.316830,-25.566782,0
-49.316607,-25.566811,0
-49.316409,-25.566842,0
-49.316292,-25.566870,0
-49.316171,-25.566917,0
-49.315919,-25.567038,0
-49.315817,-25.567097,0
-49.315540,-25.567281,0
-49.315415,-25.567355,0
-49.315344,-25.567381,0
-49.315281,-25.567394,0
-49.314821,-25.567423,0
-49.314761,-25.567223,0
-49.314705,-25.566987,0
-49.314645,-25.566694,0
-49.314630,-25.566618,0
-49.314597,-25.566314,0
-49.314600,-25.566219,0
-49.314608,-25.566118,0
-49.314645,-25.565937,0
-49.314714,-25.565840,0
-49.314788,-25.565742,0
-49.314938,-25.565538,0
-49.315025,-25.565422,0
-49.315065,-25.565353,0
-49.315088,-25.565307,0
-49.315118,-25.565213,0
-49.314151,-25.565286,0
-49.313004,-25.565363,0
-49.311421,-25.565456,0
-49.311019,-25.565489,0
-49.310456,-25.565530,0
-49.310071,-25.565564,0
-49.309573,-25.565576,0
-49.309229,-25.565565,0
-49.309084,-25.565536,0
-49.308909,-25.565448,0
-49.308804,-25.565368,0
-49.308696,-25.565242,0
-49.308651,-25.565157,0
-49.308607,-25.565020,0
-49.308570,-25.564571,0
-49.308552,-25.564179,0
-49.308548,-25.564064,0
-49.308537,-25.563952,0
-49.308528,-25.563859,0
-49.308500,-25.563596,0
-49.308474,-25.563351,0
-49.308494,-25.563213,0
-49.308324,-25.562588,0
-49.308215,-25.562184,0
-49.308149,-25.561961,0
-49.308036,-25.561602,0
-49.307971,-25.561393,0
-49.307899,-25.561181,0
-49.307813,-25.560947,0
-49.307716,-25.560733,0
-49.307655,-25.560615,0
-49.307580,-25.560462,0
-49.307507,-25.560316,0
-49.307421,-25.560158,0
-49.307341,-25.560016,0
-49.307238,-25.559833,0
-49.307128,-25.559636,0
-49.307015,-25.559434,0
-49.306908,-25.559242,0
-49.306760,-25.558981,0
-49.306722,-25.558919,0
-49.306620,-25.558804,0
-49.306526,-25.558689,0
-49.306461,-25.558522,0
-49.306404,-25.558377,0
-49.306328,-25.558123,0
-49.306298,-25.558009,0
-49.306237,-25.557737,0
-49.306212,-25.557619,0
-49.306178,-25.557441,0
-49.306108,-25.557113,0
-49.306054,-25.556892,0
-49.306001,-25.556693,0
-49.305933,-25.556457,0
-49.305861,-25.556179,0
-49.305820,-25.556023,0
-49.305780,-25.555868,0
-49.305741,-25.555700,0
-49.305693,-25.555513,0
-49.305622,-25.555229,0
-49.305570,-25.555017,0
-49.305538,-25.554880,0
-49.305499,-25.554701,0
-49.305467,-25.554573,0
-49.305436,-25.554430,0
-49.305388,-25.554217,0
-49.305333,-25.553982,0
-49.305292,-25.553818,0
-49.305256,-25.553673,0
-49.305210,-25.553480,0
-49.305149,-25.553229,0
-49.305079,-25.552936,0
-49.305015,-25.552675,0
-49.304955,-25.552425,0
-49.304865,-25.552119,0
-49.304830,-25.551942,0
-49.304765,-25.551610,0
-49.304708,-25.551337,0
-49.304546,-25.550667,0
-49.304521,-25.550566,0
-49.304423,-25.550144,0
-49.304299,-25.549637,0
-49.304177,-25.549088,0
-49.304117,-25.548830,0
-49.304038,-25.548460,0
-49.303983,-25.548253,0
-49.303916,-25.548038,0
-49.303900,-25.547980,0
-49.303836,-25.547697,0
-49.303809,-25.547574,0
-49.303721,-25.547106,0
-49.303697,-25.546952,0
-49.303671,-25.546784,0
-49.303646,-25.546558,0
-49.303650,-25.546470,0
-49.303680,-25.546372,0
-49.303603,-25.546045,0
-49.303565,-25.545835,0
-49.303446,-25.545352,0
-49.303371,-25.545115,0
-49.303340,-25.545008,0
-49.303250,-25.544605,0
-49.303204,-25.544414,0
-49.303145,-25.544158,0
-49.303114,-25.544021,0
-49.303080,-25.543873,0
-49.303023,-25.543593,0
-49.302995,-25.543458,0
-49.302836,-25.542737,0
-49.302777,-25.542480,0
-49.302636,-25.541884,0
-49.302561,-25.541582,0
-49.302497,-25.541324,0
-49.302423,-25.541019,0
-49.302314,-25.540559,0
-49.302236,-25.540204,0
-49.302188,-25.540003,0
-49.302142,-25.539823,0
-49.301975,-25.539155,0
-49.301918,-25.538900,0
-49.301865,-25.538665,0
-49.301788,-25.538316,0
-49.301733,-25.538077,0
-49.301708,-25.537962,0
-49.301571,-25.537385,0
-49.301459,-25.536922,0
-49.301414,-25.536733,0
-49.301376,-25.536566,0
-49.301270,-25.536101,0
-49.301208,-25.535830,0
-49.301175,-25.535677,0
-49.301140,-25.535540,0
-49.301031,-25.535111,0
-49.300939,-25.534743,0
-49.300919,-25.534672,0
-49.300860,-25.534484,0
-49.300819,-25.534369,0
-49.300741,-25.534179,0
-49.300677,-25.534021,0
-49.300601,-25.533829,0
-49.300548,-25.533673,0
-49.300498,-25.533526,0
-49.300419,-25.533316,0
-49.300365,-25.533170,0
-49.300307,-25.533036,0
-49.300175,-25.532668,0
-49.300102,-25.532460,0
-49.299936,-25.532010,0
-49.299831,-25.531731,0
-49.299763,-25.531543,0
-49.299538,-25.530919,0
-49.299468,-25.530728,0
-49.299456,-25.530695,0
-49.299402,-25.530674,0
-49.299379,-25.530645,0
-49.299291,-25.530508,0
-49.299193,-25.530351,0
-49.299108,-25.530216,0
-49.299060,-25.530172,0
-49.298992,-25.529997,0
-49.298944,-25.529872,0
-49.298867,-25.529661,0
-49.298840,-25.529588,0
-49.298767,-25.529397,0
-49.298449,-25.528544,0
-49.298325,-25.528219,0
-49.298207,-25.527964,0
-49.298130,-25.527841,0
-49.298069,-25.527736,0
-49.297999,-25.527625,0
-49.297892,-25.527453,0
-49.297777,-25.527268,0
-49.297670,-25.527092,0
-49.297585,-25.526981,0
-49.297524,-25.526875,0
-49.297460,-25.526763,0
-49.297391,-25.526644,0
-49.297319,-25.526517,0
-49.297207,-25.526338,0
-49.297092,-25.526155,0
-49.296962,-25.525945,0
-49.296796,-25.525672,0
-49.296697,-25.525512,0
-49.296547,-25.525266,0
-49.296354,-25.524950,0
-49.296237,-25.524758,0
-49.296161,-25.524632,0
-49.296084,-25.524508,0
-49.296011,-25.524389,0
-49.295942,-25.524275,0
-49.295830,-25.524095,0
-49.295770,-25.523996,0
-49.295702,-25.523894,0
-49.295626,-25.523760,0
-49.295534,-25.523599,0
-49.295451,-25.523455,0
-49.295366,-25.523373,0
-49.295306,-25.523275,0
-49.295232,-25.523118,0
-49.295162,-25.522989,0
-49.295086,-25.522869,0
-49.294914,-25.522599,0
-49.294791,-25.522405,0
-49.294682,-25.522230,0
-49.294563,-25.522037,0
-49.294426,-25.521820,0
-49.294328,-25.521662,0
-49.294177,-25.521420,0
-49.294114,-25.521320,0
-49.293950,-25.521111,0
-49.293908,-25.521040,0
-49.293544,-25.521164,0
-49.293277,-25.521254,0
-49.292941,-25.521366,0
-49.292496,-25.521513,0
-49.292275,-25.521589,0
-49.292038,-25.521666,0
-49.292178,-25.521946,0
-49.292324,-25.522200,0
-49.292493,-25.522467,0
-49.292654,-25.522726,0
-49.292821,-25.523002,0
-49.292996,-25.523287,0
-49.293122,-25.523481,0
-49.293172,-25.523560,0
-49.293233,-25.523642,0
-49.293353,-25.523811,0
-49.293568,-25.523653,0
-49.293827,-25.523461,0
-49.294076,-25.523275,0
-49.294270,-25.523130,0
-49.294357,-25.523056,0
-49.294509,-25.522909,0
-49.294640,-25.522780,0
-49.294782,-25.522633,0
-49.294914,-25.522498,0
-49.294994,-25.522394,0
-49.295052,-25.522318,0
-49.295150,-25.522218,0
-49.295267,-25.522053,0
-49.295315,-25.521983,0
-49.295342,-25.521944,0
-49.295372,-25.521877,0
-49.295410,-25.521793,0
-49.295430,-25.521748,0
-49.295438,-25.521651,0
-49.295452,-25.521504,0
-49.295452,-25.521415,0
-49.295452,-25.521217,0
-49.295459,-25.520920,0
-49.295464,-25.520724,0
-49.295469,-25.520534,0
-49.295476,-25.520329,0
-49.295488,-25.519954,0
-49.295505,-25.519462,0
-49.295522,-25.518963,0
-49.295535,-25.518579,0
-49.295547,-25.518308,0
-49.295561,-25.517986,0
-49.295572,-25.517721,0
-49.295576,-25.517478,0
-49.295577,-25.517271,0
-49.295567,-25.517123,0
-49.295556,-25.516969,0
-49.295547,-25.516841,0
-49.295550,-25.516665,0
-49.295552,-25.516499,0
-49.295554,-25.516325,0
-49.295560,-25.516142,0
-49.295563,-25.515977,0
-49.295560,-25.515739,0
-49.295550,-25.515592,0
-49.295538,-25.515503,0
-49.295508,-25.515373,0
-49.295476,-25.515280,0
-49.295440,-25.515208,0
-49.295422,-25.515169,0
-49.295382,-25.515088,0
-49.295332,-25.515087,0
-49.295280,-25.515127,0
-49.295242,-25.515136,0
-49.295190,-25.515139,0
-49.295011,-25.515134,0
-49.294650,-25.515128,0
-49.294383,-25.515122,0
-49.294137,-25.515120,0
-49.294009,-25.515117,0
-49.293862,-25.515117,0
-49.293890,-25.515009,0
-49.293933,-25.514877,0
-49.294039,-25.514593,0
-49.294138,-25.514324,0
-49.294170,-25.514236,0
-49.294230,-25.514049,0
-49.294265,-25.513881,0
-49.294312,-25.513601,0
-49.294314,-25.513359,0
-49.294324,-25.512817,0
-49.294327,-25.512547,0
-49.294324,-25.512128,0
-49.294322,-25.511741,0
-49.294478,-25.511748,0
-49.294796,-25.511746,0
-49.294984,-25.511744,0
-49.295294,-25.511749,0
-49.295270,-25.512431,0
-49.295245,-25.513096,0</coordinates></LineString></Placemark><Placemark><name>1 - 170532 - 679 - MAD. Tatuquara (Sentido Tatuquara)/n684-Rio Bonito (Ponto Final).</name><description>ID: 273943&lt;br/&gt;Tipo: OBRIGATÓRIO&lt;br/&gt;Distância: 0,000 km</description><Point><coordinates>-49.340285,-25.585126,0</coordinates></Point></Placemark><Placemark><name>2 - 170533 - 679 - Mad. Tatuquara (Sentido Tatuquara)/n684 - Rio Bonito (Sentido Terminal  Pinheirinho)</name><description>ID: 273944&lt;br/&gt;Tipo: INTERMEDIÁRIO&lt;br/&gt;Distância: 0,375 km</description><Point><coordinates>-49.341190,-25.588450,0</coordinates></Point></Placemark><Placemark><name>3 - 170534 - 679 - MAD. Tatuquara (Sentido Tatuquara)/n684 - Rio Bonito (Sentido Terminal  Pinheirinho)</name><description>ID: 273945&lt;br/&gt;Tipo: INTERMEDIÁRIO&lt;br/&gt;Distância: 0,788 km</description><Point><coordinates>-49.342120,-25.592110,0</coordinates></Point></Placemark><Placemark><name>4 - 170535 - 684 - Rio Bonito (Sentido Terminal  Pinheirinho)</name><description>ID: 273946&lt;br/&gt;Tipo: INTERMEDIÁRIO&lt;br/&gt;Distância: 1,074 km</description><Point><coordinates>-49.339670,-25.593090,0</coordinates></Point></Placemark><Placemark><name>5 - 170536 - 684 - Rio Bonito (Sentido Terminal  Pinheirinho)</name><description>ID: 273947&lt;br/&gt;Tipo: INTERMEDIÁRIO&lt;br/&gt;Distância: 1,379 km</description><Point><coordinates>-49.336631,-25.593616,0</coordinates></Point></Placemark><Placemark><name>6 - 170537 - 684 - Rio Bonito (Sentido Terminal  Pinheirinho)</name><description>ID: 273948&lt;br/&gt;Tipo: INTERMEDIÁRIO&lt;br/&gt;Distância: 1,640 km</description><Point><coordinates>-49.333880,-25.593450,0</coordinates></Point></Placemark><Placemark><name>7 - 170538 - 684 - Rio Bonito (Sentido Terminal  Pinheirinho)</name><description>ID: 273949&lt;br/&gt;Tipo: INTERMEDIÁRIO&lt;br/&gt;Distância: 1,875 km</description><Point><coordinates>-49.332110,-25.592580,0</coordinates></Point></Placemark><Placemark><name>8 - 170539 - 684 - Rio Bonito (Sentido Terminal  Pinheirinho)</name><description>ID: 273950&lt;br/&gt;Tipo: INTERMEDIÁRIO&lt;br/&gt;Distância: 2,194 km</description><Point><coordinates>-49.331596,-25.590584,0</coordinates></Point></Placemark><Placemark><name>9 - 170540 - 684 - Rio Bonito (Sentido Terminal  Pinheirinho)</name><description>ID: 273951&lt;br/&gt;Tipo: INTERMEDIÁRIO&lt;br/&gt;Distância: 2,324 km</description><Point><coordinates>-49.332242,-25.588849,0</coordinates></Point></Placemark><Placemark><name>10 - 170541 - 684 - Rio Bonito (Sentido Terminal  Pinheirinho)</name><description>ID: 273952&lt;br/&gt;Tipo: INTERMEDIÁRIO&lt;br/&gt;Distância: 2,630 km</description><Point><coordinates>-49.334271,-25.588421,0</coordinates></Point></Placemark><Placemark><name>11 - 170542 - 684 - Rio Bonito (Sentido Terminal  Pinheirinho)</name><description>ID: 273953&lt;br/&gt;Tipo: INTERMEDIÁRIO&lt;br/&gt;Distância: 2,995 km</description><Point><coordinates>-49.334810,-25.586030,0</coordinates></Point></Placemark><Placemark><name>12 - 170543 - 684 - Rio Bonito (Sentido Terminal  Pinheirinho)</name><description>ID: 273954&lt;br/&gt;Tipo: INTERMEDIÁRIO&lt;br/&gt;Distância: 3,274 km</description><Point><coordinates>-49.337210,-25.585230,0</coordinates></Point></Placemark><Placemark><name>13 - 170529 - 684 - Rio Bonito (Sentido Terminal  Pinheirinho)/n685 - Rio Bonito / CIC</name><description>ID: 273955&lt;br/&gt;Tipo: INTERMEDIÁRIO&lt;br/&gt;Distância: 3,583 km</description><Point><coordinates>-49.337222,-25.582806,0</coordinates></Point></Placemark><Placemark><name>14 - 170527 - 685 - Rio Bonito / CIC (Sentido Terminal  CIC)/n684 - Rio Bonito (Sentido Terminal Pinheirinho)</name><description>ID: 273956&lt;br/&gt;Tipo: INTERMEDIÁRIO&lt;br/&gt;Distância: 3,962 km</description><Point><coordinates>-49.335190,-25.580145,0</coordinates></Point></Placemark><Placemark><name>15 - 170525 - 684 - Rio Bonito (Sentido Terminal Pinheirinho)/n685 - Rio Bonito / CIC (Sentido Terminal  CIC)</name><description>ID: 273957&lt;br/&gt;Tipo: INTERMEDIÁRIO&lt;br/&gt;Distância: 4,243 km</description><Point><coordinates>-49.333218,-25.578259,0</coordinates></Point></Placemark><Placemark><name>16 - 171068 - Terminal Tatuquara - /n684 - Rio Bonito (Sentido Terminal Pinheirinho)</name><description>ID: 273958&lt;br/&gt;Tipo: INTERMEDIÁRIO&lt;br/&gt;Distância: 4,633 km</description><Point><coordinates>-49.330904,-25.575796,0</coordinates></Point></Placemark><Placemark><name>17 - 170520 - 617 - Jardim Ludovica (Sentido Terminal Pinheirinho)/n684 - Rio Bonito (Sentido terminal Pinheirinho)</name><description>ID: 273959&lt;br/&gt;Tipo: INTERMEDIÁRIO&lt;br/&gt;Distância: 5,150 km</description><Point><coordinates>-49.327252,-25.573142,0</coordinates></Point></Placemark><Placemark><name>18 - 170519 - 617 - Jardim Ludovica (Sentido Terminal Pinheirinho)/n684 - Rio Bonito (Sentido Terminal Pinheirinho)</name><description>ID: 273960&lt;br/&gt;Tipo: INTERMEDIÁRIO&lt;br/&gt;Distância: 5,468 km</description><Point><coordinates>-49.325104,-25.570775,0</coordinates></Point></Placemark><Placemark><name>19 - 170518 - 617 - Jardim Ludovica (Sentido Terminal Pinheirinho)/n684 - Rio Bonito (Sentido Terminal Pinheirinho)</name><description>ID: 273961&lt;br/&gt;Tipo: INTERMEDIÁRIO&lt;br/&gt;Distância: 5,678 km</description><Point><coordinates>-49.323362,-25.569804,0</coordinates></Point></Placemark><Placemark><name>20 - 170516 - 617 - Jardim Ludovica (Sentido Terminal Pinheirinho)/n655 - Jd. da Ordem (sentido Terminal Pinheirinho)/n684 - Rio Bonito (Sentido Terminal Pinheirinho)</name><description>ID: 273962&lt;br/&gt;Tipo: INTERMEDIÁRIO&lt;br/&gt;Distância: 6,101 km</description><Point><coordinates>-49.319413,-25.568645,0</coordinates></Point></Placemark><Placemark><name>21 - 170711 - 617 - Jardim Ludovica (Sentido Terminal Pinheirinho)/n655 - Jd. da Ordem (sentido Terminal Pinheirinho)/n684 - Rio Bonito (Sentido Terminal Pinheirinho)</name><description>ID: 273963&lt;br/&gt;Tipo: INTERMEDIÁRIO&lt;br/&gt;Distância: 6,447 km</description><Point><coordinates>-49.316865,-25.566809,0</coordinates></Point></Placemark><Placemark><name>22 - 170514 - 617 - Jardim Ludovica</name><description>ID: 273964&lt;br/&gt;Tipo: INTERMEDIÁRIO&lt;br/&gt;Distância: 6,469 km</description><Point><coordinates>-49.321620,-25.569052,0</coordinates></Point></Placemark><Placemark><name>23 - 170512 - 617 - Jardim Ludovica (Sentido Terminal Pinheirinho)/n646 - Pompéia / Janaina (Sentido Terminal Pinheirinho)/n655 - Jd. da Ordem (sentido Terminal Pinheirinho)/n659 - Caximba/Olaria (sentido Terminal Pinheirinho)/n679 - Madrugueiro Tatuquara (sentido circular)/n690 - V. Juliana (sentido Terminal Pinheirinho)/n680 - Rurbana (Sentido Terminal Pinheirinho)/n684 - Rio Bonito(Sentido Terminal Pinheirinho)/n772 - Tupy / Juliana(Sentido Terminal Pinheirinho)/nX47 - Especial Pinheirinho</name><description>ID: 273965&lt;br/&gt;Tipo: INTERMEDIÁRIO&lt;br/&gt;Distância: 6,710 km</description><Point><coordinates>-49.314660,-25.566940,0</coordinates></Point></Placemark><Placemark><name>24 - 171047 - 659 - Caximba / Olaria/n680 - Rurbana/n684 - Rio Bonito (Sentido Terminal Pinheirinho)/n772 - Tupy / Juliana (Sentido Terminal Pinheirinho)</name><description>ID: 273966&lt;br/&gt;Tipo: INTERMEDIÁRIO&lt;br/&gt;Distância: 7,012 km</description><Point><coordinates>-49.314130,-25.565340,0</coordinates></Point></Placemark><Placemark><name>25 - PRV[16049-1]</name><description>ID: 273967&lt;br/&gt;Tipo: INTERMEDIÁRIO&lt;br/&gt;Distância: 9,023 km</description><Point><coordinates>-49.304955,-25.552425,0</coordinates></Point></Placemark><Placemark><name>26 - 170490 - 600 - Tequaly / Quartel General (Sentido Terminal Pinheirinho)/n617 - Jardim Ludovica (Sentido Terminal Pinheirinho)/n646 - Pompeia / Janaina (Sentido Terminal Pinheirinho)/n650 - Sta. Rita / Pinheirinho/n655 - Jd. da Ordem (sentido Terminal Pinheirinho)/n659 - Caximba/Olaria (sentido Terminal Pinheirinho)/n679 - Madrugueiro Tatuquara (sentido circular)/n680 - Rurbana (Sentido Terminal Pinheirinho)/n681 - Dalagassa (Sentido Terminal Pinheirinho)/n684 - Rio Bonito (Sentido Terminal Pinheirinho)/n6</name><description>ID: 273968&lt;br/&gt;Tipo: INTERMEDIÁRIO&lt;br/&gt;Distância: 9,220 km</description><Point><coordinates>-49.304471,-25.550677,0</coordinates></Point></Placemark><Placemark><name>27 - 160072 - 060 - Interbairros VI (Sentido Terminal Pinheirinho)/n545 - Trabalhador/n600 - Tequaly / Quartel General (Sentido Terminal Pinheirinho)/n614 Fazendinha / Puc/n617 - JD. Ludovica/n630- Vitoria Regia (sentido Terminal Pinheirinho)/n639 - Futurama/n646 - Pompeia / Janaina (Sentido Terminal Pinheirinho)/n650 - Sta Rita / Pinheirinho/n655 - Jardim da Ordem (Sentido Terminal Pinheirinho)/n659 - Caximba/Olaria (sentido Terminal Pinheirinho)/n679 - Madrugueiro Tatuquara (Sentido Circular)/n680 - Rurbana (S</name><description>ID: 273969&lt;br/&gt;Tipo: INTERMEDIÁRIO&lt;br/&gt;Distância: 10,431 km</description><Point><coordinates>-49.301985,-25.539911,0</coordinates></Point></Placemark><Placemark><name>28 - 160073 - 540 - Boqueirão/Kraft - (Sentido Terminal Boqueirão)/n545 - Trabalhador (Sentido Terminal Boqueirão)/n600 - Tequaly / Quartel General (Sentido Terminal Pinheirinho)/n617 - JD. Ludovica/n630 - Vitória Régia (Sentido Terminal Pinheirinho)/n646 - Pompéia / Janaina (Sentido Terminal Pinheirinho)/n650 - Sta. Rita / Pinheirinho (Sentido Terminal  Pinheirinho)/n655 - Jd. da Ordem (sentido Terminal Pinheirinho)/n659 - Caximba/Olaria (Sentido Terminal Pinheirinho)/n679 - Madrugueiro Tatuquara (sentido ci</name><description>ID: 273970&lt;br/&gt;Tipo: INTERMEDIÁRIO&lt;br/&gt;Distância: 10,796 km</description><Point><coordinates>-49.301261,-25.536584,0</coordinates></Point></Placemark><Placemark><name>29 - 160075 - 060 - Interbairros VI (Sentido Terminal Pinheirinho)/n540 - Boqueirão/Kraft - (Sentido Terminal Boqueirão)/n545 - Trabalhador (Sentido Terminal Boqueirão)/n600 - Tequaly / Quartel General (Sentido Terminal Pinheirinho)/n614 - Fazendinha / Puc/n617 - JD. Ludovica/n630 - Vitória Régia (Sentido Terminal Pinheirinho)/n639 - Futurama/n646 - Pompeia / Janaina (Sentido Terminal Pinheirinho)/n650 - Sta. Rita / Pinheirinho (Sentido Terminal  Pinheirinho)/n655 - Jd. da Ordem (Sentido Terminal Pinheirinho)/n</name><description>ID: 273971&lt;br/&gt;Tipo: INTERMEDIÁRIO&lt;br/&gt;Distância: 11,063 km</description><Point><coordinates>-49.300630,-25.534129,0</coordinates></Point></Placemark><Placemark><name>30 - 160076 - 060 - Interbairros VI (Sentido Terminal Pinheirinho)/n600 - Tequaly / Quartel General (Sentido Terminal Pinheirinho)/n614 - Fazendinha / Puc/n617 - JD. Ludovica/n630 - Vitória Régia (Sentido Terminal Pinheirinho)/n639 - Futurama/n644 - Pinheirinho / CIC (Sentido Terminal Pinheirinho)/n646 - Pompéia / Janaina (Sentido Terminal Pinheirinho)/n650 - Sta. Rita / Pinheirinho (Sentido Terminal Pinheirinho)/n655 - Jd. da Ordem (Sentido Terminal Pinheirinho)/n659 - Caximba/Olaria (sentido Terminal Pinheir</name><description>ID: 273972&lt;br/&gt;Tipo: INTERMEDIÁRIO&lt;br/&gt;Distância: 11,719 km</description><Point><coordinates>-49.298525,-25.528878,0</coordinates></Point></Placemark><Placemark><name>31 - 160077 - 060-Interbairros VI (Sentido Pinheirinho)/n614 - Fazendinha / Puc/n617 - Jardim Ludovica (Sentido Terminal Pinheirinho)/n639 - Futurama/n646 - Pompéia / Janaina (Sentido Terminal Pinheirinho)/n650 - Sta. Rita / Pinheirinho/n655 - Jd. da Ordem (Sentido Terminal Pinheirinho)/n659 - Caximba/Olaria (sentido Terminal Pinheirinho)/n679 - Madrugueiro Tatuquara (Sentido circular)/n680 - Rurbana (Sentido Terminal Pinheirinho)/n681 - Dalagassa (Sentido Terminal Pinheirinho)/n684 - Rio Bonito (Sentido Termin</name><description>ID: 273973&lt;br/&gt;Tipo: INTERMEDIÁRIO&lt;br/&gt;Distância: 12,071 km</description><Point><coordinates>-49.296756,-25.525703,0</coordinates></Point></Placemark><Placemark><name>32 - 150334 - 060-Interbairros VI (Sentido Terminal Pinheirinho)/n614 - Fazendinha / Puc/n617 - JD. Ludovica (Sentido Terminal Pinheirinho)/n639 - Futurama/n 655 - JD. Da Ordem (Sentido Terminal Pinheirinho)/n 659 - Caximba / Olaria/n 679 - Mad. Tatuquara (Sentido Circular)/n 681 - Dalagassa (Sentido Terminal Pinheirinho)/n 684 - Rio Bonito (Sentido Terminal Pinheirinho)/n 690 - V. Juliana (Sentido Terminal Pinheirinho)/n 772 - Tupy / Juliana (Sentido Terminal Pinheirinho)</name><description>ID: 273974&lt;br/&gt;Tipo: INTERMEDIÁRIO&lt;br/&gt;Distância: 12,522 km</description><Point><coordinates>-49.294471,-25.521965,0</coordinates></Point></Placemark><Placemark><name>33 - 150270 - 060 - Interbairros VI (Sentido Terminal Pinheirinho)/n 614 - Fazendinha / PUC/n 617 - JD. Ludovica/n 639 - Futurama (Sentido Terminal Pinheirinho)/n 646 - Pompeia/Janaina (Sentido Terminal Pinheirinho)/n 650 - Sta. Rita / Pinheirinho/n 655 - JD. Da Ordem (Sentido Terminal Pinheirinho)/n 659 - Caximba / Olaria (Sentido Terminal Pinheirinho)/n 679 - Mad. Tatuquara (Sentido Circular)/n 680 - Rurbana/n 681 - Dalagassa (Sentido Terminal Pinheirinho)/n 684 - Rio Bonito (Sentido Terminal Pinheirinho)/n 69</name><description>ID: 273975&lt;br/&gt;Tipo: INTERMEDIÁRIO&lt;br/&gt;Distância: 12,796 km</description><Point><coordinates>-49.292573,-25.521545,0</coordinates></Point></Placemark><Placemark><name>34 - 150271 - 060 - Interbairros VI (Sentido Terminal Pinheirinho)/n614 - Fazendinha / Puc/n617 - JD. Ludovica/n631 - Piratini / BR 476 (Sentido Terminal Pinheirinho)/n639 - Futurama/n646 - Pompéia / Janaina (Sentido Terminal Pinheirinho)/n650 - Sta. Rita / Pinheirinho/n655 - JD. Da Ordem/n659 - Caximba/Olaria (sentido Terminal Pinheirinho)/n679 - Madrugueiro Tatuquara (Sentido circular)/n680 - Rurbana (Sentido Terminal Pinheirinho)/n681 - Dalagassa (Sentido Terminal Pinheirinho)/n684 - Rio Bonito (Sentido Termi</name><description>ID: 273976&lt;br/&gt;Tipo: INTERMEDIÁRIO&lt;br/&gt;Distância: 13,010 km</description><Point><coordinates>-49.292860,-25.522964,0</coordinates></Point></Placemark><Placemark><name>35 - 150751 - 528 - Boqueirão / Pinheirinho (Sentido Terminal Pinheirinho)/n600 - Tequaly / Quartel General (Sentido Terminal Pinheirinho)/n630 - Vitória Régia (Sentido Terminal Pinheirinho)/n633 - Maria Angélica (sentido Terminal Pinheirinho)/n635 - Londrina (sentido Terminal Pinheirinho)/n637- Sta Joana (Sentido Terminal Pinheirinho)/n638 - Pinheirinho (sentido Terminal Pinheirinho)/n639 - Futurama (sentido Terminal Pinheirinho)/n640 - Palmeira (sentido Terminal Pinheirinho)/n641 - Luiz Nichele (sentido Ter</name><description>ID: 273977&lt;br/&gt;Tipo: INTERMEDIÁRIO&lt;br/&gt;Distância: 13,530 km</description><Point><coordinates>-49.295383,-25.520731,0</coordinates></Point></Placemark><Placemark><name>36 - 150330 - 528 - Boqueirão / Pinheirinho/n600 - Tequaly / Quartel General (Sentido Terminal Pinheirinho)/n617 - JD. Ludovica/n630 - Vitória Régia (Sentido Terminal Pinheirinho)/n631 - Piratini / BR 476 (sentido Terminal Pinheirinho)/n633 - Maria Angélica (sentido Terminal Pinheirinho)/n635 - Londrina (sentido Terminal Pinheirinho)/n636 - Rio Negro/n637- Sta Joana (Sentido Terminal Pinheirinho)/n638 - Pinheirinho (sentido Terminal Pinheirinho)/n639 - Futurama (sentido Terminal Pinheirinho)/n640 - Palmeira (se</name><description>ID: 273978&lt;br/&gt;Tipo: INTERMEDIÁRIO&lt;br/&gt;Distância: 13,668 km</description><Point><coordinates>-49.295454,-25.519229,0</coordinates></Point></Placemark><Placemark><name>37 - 150332 - 528 - Boqueirão / Pinheirinho (Sentido Terminal Pinheierinho)/n600 - Tequaly / Quartel General (Sentido Terminal Pinheirinho)/n617 - JD. Ludovica/n630 - Vitória Régia (Sentido Terminal Pinheirinho)/n633 - Maria Angélica (sentido Terminal Pinheirinho)/n635 - Londrina/n636 - Rio Negro  (sentido Terminal Pinheirinho)/n637 - Sta. Joana  (sentido Terminal Pinheirinho)/n638 - Pinheirinho (Sentido Terminal Pinheirinho)/n639 - Futurama/n640 - Palmeira /n641 - Luiz Nichele/n642 - Ganchinho/n643 - Umbará/n646 </name><description>ID: 273979&lt;br/&gt;Tipo: INTERMEDIÁRIO&lt;br/&gt;Distância: 14,244 km</description><Point><coordinates>-49.294443,-25.515159,0</coordinates></Point></Placemark><Placemark><name>38 - 105924 - Terminal Pinheirinho /n684 -  Rio  Bonito.</name><description>ID: 273980&lt;br/&gt;Tipo: OBRIGATÓRIO&lt;br/&gt;Distância: 14,914 km</description><Point><coordinates>-49.295298,-25.513097,0</coordinates></Point></Placemark></Document></kml>