<?xml version='1.0' encoding='utf-8'?>
<gpx version="1.1" creator="Conversor" xmlns="http://www.topografix.com/GPX/1/1" xmlns:xsi="http://www.w3.org/2001/XMLSchema-instance" xsi:schemaLocation="http://www.topografix.com/GPX/1/1 http://www.topografix.com/GPX/1/1/gpx.xsd"><metadata><name>684-rio_bonito-alimentador-volta</name></metadata><trk><name>684-rio_bonito-alimentador-volta</name><trkseg><trkpt lat="-25.513098" lon="-49.295245" /><trkpt lat="-25.513516" lon="-49.295229" /><trkpt lat="-25.513516" lon="-49.295569" /><trkpt lat="-25.513559" lon="-49.295645" /><trkpt lat="-25.513596" lon="-49.295733" /><trkpt lat="-25.513624" lon="-49.295732" /><trkpt lat="-25.513664" lon="-49.295729" /><trkpt lat="-25.513744" lon="-49.295728" /><trkpt lat="-25.513946" lon="-49.295722" /><trkpt lat="-25.514151" lon="-49.295716" /><trkpt lat="-25.514311" lon="-49.295711" /><trkpt lat="-25.514567" lon="-49.295700" /><trkpt lat="-25.514807" lon="-49.295690" /><trkpt lat="-25.514980" lon="-49.295680" /><trkpt lat="-25.515148" lon="-49.295691" /><trkpt lat="-25.515310" lon="-49.295695" /><trkpt lat="-25.515451" lon="-49.295699" /><trkpt lat="-25.515603" lon="-49.295703" /><trkpt lat="-25.515721" lon="-49.295706" /><trkpt lat="-25.515881" lon="-49.295710" /><trkpt lat="-25.515982" lon="-49.295711" /><trkpt lat="-25.516185" lon="-49.295708" /><trkpt lat="-25.516399" lon="-49.295704" /><trkpt lat="-25.516632" lon="-49.295700" /><trkpt lat="-25.516836" lon="-49.295696" /><trkpt lat="-25.517002" lon="-49.295688" /><trkpt lat="-25.517133" lon="-49.295682" /><trkpt lat="-25.517319" lon="-49.295675" /><trkpt lat="-25.517520" lon="-49.295665" /><trkpt lat="-25.517706" lon="-49.295658" /><trkpt lat="-25.517942" lon="-49.295659" /><trkpt lat="-25.518161" lon="-49.295660" /><trkpt lat="-25.518380" lon="-49.295660" /><trkpt lat="-25.518581" lon="-49.295661" /><trkpt lat="-25.518836" lon="-49.295655" /><trkpt lat="-25.519040" lon="-49.295650" /><trkpt lat="-25.519391" lon="-49.295644" /><trkpt lat="-25.519738" lon="-49.295637" /><trkpt lat="-25.520060" lon="-49.295630" /><trkpt lat="-25.520325" lon="-49.295624" /><trkpt lat="-25.520530" lon="-49.295621" /><trkpt lat="-25.520945" lon="-49.295616" /><trkpt lat="-25.521175" lon="-49.295613" /><trkpt lat="-25.521589" lon="-49.295599" /><trkpt lat="-25.521877" lon="-49.295590" /><trkpt lat="-25.522076" lon="-49.295584" /><trkpt lat="-25.522231" lon="-49.295587" /><trkpt lat="-25.522339" lon="-49.295594" /><trkpt lat="-25.522458" lon="-49.295613" /><trkpt lat="-25.522589" lon="-49.295642" /><trkpt lat="-25.522725" lon="-49.295688" /><trkpt lat="-25.522840" lon="-49.295739" /><trkpt lat="-25.523103" lon="-49.295868" /><trkpt lat="-25.523232" lon="-49.295945" /><trkpt lat="-25.523484" lon="-49.296098" /><trkpt lat="-25.523656" lon="-49.296202" /><trkpt lat="-25.523833" lon="-49.296300" /><trkpt lat="-25.523976" lon="-49.296387" /><trkpt lat="-25.524060" lon="-49.296435" /><trkpt lat="-25.524410" lon="-49.296637" /><trkpt lat="-25.524562" lon="-49.296724" /><trkpt lat="-25.524699" lon="-49.296810" /><trkpt lat="-25.524953" lon="-49.296977" /><trkpt lat="-25.525198" lon="-49.297138" /><trkpt lat="-25.525571" lon="-49.297382" /><trkpt lat="-25.525952" lon="-49.297617" /><trkpt lat="-25.526319" lon="-49.297842" /><trkpt lat="-25.526609" lon="-49.298021" /><trkpt lat="-25.526763" lon="-49.298114" /><trkpt lat="-25.526955" lon="-49.298223" /><trkpt lat="-25.527117" lon="-49.298315" /><trkpt lat="-25.527479" lon="-49.298524" /><trkpt lat="-25.527794" lon="-49.298710" /><trkpt lat="-25.527953" lon="-49.298773" /><trkpt lat="-25.528165" lon="-49.298854" /><trkpt lat="-25.528721" lon="-49.299074" /><trkpt lat="-25.528979" lon="-49.299175" /><trkpt lat="-25.529176" lon="-49.299245" /><trkpt lat="-25.529378" lon="-49.299317" /><trkpt lat="-25.529751" lon="-49.299453" /><trkpt lat="-25.530014" lon="-49.299546" /><trkpt lat="-25.530301" lon="-49.299650" /><trkpt lat="-25.530517" lon="-49.299727" /><trkpt lat="-25.531013" lon="-49.299900" /><trkpt lat="-25.531239" lon="-49.299994" /><trkpt lat="-25.531452" lon="-49.300081" /><trkpt lat="-25.531644" lon="-49.300162" /><trkpt lat="-25.531840" lon="-49.300242" /><trkpt lat="-25.532034" lon="-49.300322" /><trkpt lat="-25.532245" lon="-49.300404" /><trkpt lat="-25.532652" lon="-49.300560" /><trkpt lat="-25.532846" lon="-49.300636" /><trkpt lat="-25.533046" lon="-49.300711" /><trkpt lat="-25.533265" lon="-49.300796" /><trkpt lat="-25.533545" lon="-49.300905" /><trkpt lat="-25.533717" lon="-49.300973" /><trkpt lat="-25.533935" lon="-49.301060" /><trkpt lat="-25.534159" lon="-49.301145" /><trkpt lat="-25.534327" lon="-49.301211" /><trkpt lat="-25.534481" lon="-49.301269" /><trkpt lat="-25.534627" lon="-49.301275" /><trkpt lat="-25.534683" lon="-49.301277" /><trkpt lat="-25.534755" lon="-49.301303" /><trkpt lat="-25.534834" lon="-49.301324" /><trkpt lat="-25.534912" lon="-49.301338" /><trkpt lat="-25.534962" lon="-49.301339" /><trkpt lat="-25.535101" lon="-49.301328" /><trkpt lat="-25.535226" lon="-49.301320" /><trkpt lat="-25.535359" lon="-49.301303" /><trkpt lat="-25.535633" lon="-49.301261" /><trkpt lat="-25.535831" lon="-49.301307" /><trkpt lat="-25.535975" lon="-49.301337" /><trkpt lat="-25.536146" lon="-49.301374" /><trkpt lat="-25.536370" lon="-49.301424" /><trkpt lat="-25.536656" lon="-49.301487" /><trkpt lat="-25.536783" lon="-49.301515" /><trkpt lat="-25.536906" lon="-49.301545" /><trkpt lat="-25.537112" lon="-49.301598" /><trkpt lat="-25.537294" lon="-49.301644" /><trkpt lat="-25.537676" lon="-49.301740" /><trkpt lat="-25.537911" lon="-49.301797" /><trkpt lat="-25.538183" lon="-49.301859" /><trkpt lat="-25.538385" lon="-49.301907" /><trkpt lat="-25.538583" lon="-49.301954" /><trkpt lat="-25.538816" lon="-49.302008" /><trkpt lat="-25.538875" lon="-49.302025" /><trkpt lat="-25.538988" lon="-49.302061" /><trkpt lat="-25.539250" lon="-49.302150" /><trkpt lat="-25.539503" lon="-49.302233" /><trkpt lat="-25.539747" lon="-49.302307" /><trkpt lat="-25.539854" lon="-49.302342" /><trkpt lat="-25.539939" lon="-49.302361" /><trkpt lat="-25.540145" lon="-49.302411" /><trkpt lat="-25.540371" lon="-49.302462" /><trkpt lat="-25.540588" lon="-49.302512" /><trkpt lat="-25.540947" lon="-49.302595" /><trkpt lat="-25.541118" lon="-49.302636" /><trkpt lat="-25.541389" lon="-49.302699" /><trkpt lat="-25.541646" lon="-49.302760" /><trkpt lat="-25.542124" lon="-49.302871" /><trkpt lat="-25.542531" lon="-49.302967" /><trkpt lat="-25.542934" lon="-49.303067" /><trkpt lat="-25.543160" lon="-49.303125" /><trkpt lat="-25.543315" lon="-49.303164" /><trkpt lat="-25.543686" lon="-49.303257" /><trkpt lat="-25.543860" lon="-49.303298" /><trkpt lat="-25.544034" lon="-49.303336" /><trkpt lat="-25.544216" lon="-49.303382" /><trkpt lat="-25.544290" lon="-49.303401" /><trkpt lat="-25.544375" lon="-49.303420" /><trkpt lat="-25.544561" lon="-49.303465" /><trkpt lat="-25.544733" lon="-49.303508" /><trkpt lat="-25.544907" lon="-49.303546" /><trkpt lat="-25.545097" lon="-49.303591" /><trkpt lat="-25.545276" lon="-49.303634" /><trkpt lat="-25.545501" lon="-49.303689" /><trkpt lat="-25.545680" lon="-49.303733" /><trkpt lat="-25.545891" lon="-49.303785" /><trkpt lat="-25.546077" lon="-49.303830" /><trkpt lat="-25.546292" lon="-49.303881" /><trkpt lat="-25.546529" lon="-49.303941" /><trkpt lat="-25.546798" lon="-49.304000" /><trkpt lat="-25.547013" lon="-49.304051" /><trkpt lat="-25.547181" lon="-49.304087" /><trkpt lat="-25.547338" lon="-49.304179" /><trkpt lat="-25.547490" lon="-49.304252" /><trkpt lat="-25.547647" lon="-49.304300" /><trkpt lat="-25.547808" lon="-49.304355" /><trkpt lat="-25.547928" lon="-49.304385" /><trkpt lat="-25.548194" lon="-49.304498" /><trkpt lat="-25.548302" lon="-49.304517" /><trkpt lat="-25.548556" lon="-49.304568" /><trkpt lat="-25.548773" lon="-49.304610" /><trkpt lat="-25.549042" lon="-49.304667" /><trkpt lat="-25.549335" lon="-49.304741" /><trkpt lat="-25.549592" lon="-49.304806" /><trkpt lat="-25.549780" lon="-49.304846" /><trkpt lat="-25.549938" lon="-49.304877" /><trkpt lat="-25.550074" lon="-49.304910" /><trkpt lat="-25.550256" lon="-49.304958" /><trkpt lat="-25.550335" lon="-49.304977" /><trkpt lat="-25.550406" lon="-49.304994" /><trkpt lat="-25.550616" lon="-49.305048" /><trkpt lat="-25.550817" lon="-49.305096" /><trkpt lat="-25.550966" lon="-49.305135" /><trkpt lat="-25.551139" lon="-49.305178" /><trkpt lat="-25.551330" lon="-49.305228" /><trkpt lat="-25.551580" lon="-49.305289" /><trkpt lat="-25.551876" lon="-49.305365" /><trkpt lat="-25.552027" lon="-49.305402" /><trkpt lat="-25.552347" lon="-49.305472" /><trkpt lat="-25.552477" lon="-49.305501" /><trkpt lat="-25.552715" lon="-49.305562" /><trkpt lat="-25.552920" lon="-49.305613" /><trkpt lat="-25.553003" lon="-49.305633" /><trkpt lat="-25.553385" lon="-49.305729" /><trkpt lat="-25.553506" lon="-49.305761" /><trkpt lat="-25.553679" lon="-49.305808" /><trkpt lat="-25.553910" lon="-49.305868" /><trkpt lat="-25.554172" lon="-49.305928" /><trkpt lat="-25.554384" lon="-49.305977" /><trkpt lat="-25.554494" lon="-49.306004" /><trkpt lat="-25.554733" lon="-49.306058" /><trkpt lat="-25.554835" lon="-49.306079" /><trkpt lat="-25.555020" lon="-49.306121" /><trkpt lat="-25.555109" lon="-49.306140" /><trkpt lat="-25.555184" lon="-49.306153" /><trkpt lat="-25.555280" lon="-49.306172" /><trkpt lat="-25.555421" lon="-49.306199" /><trkpt lat="-25.555520" lon="-49.306221" /><trkpt lat="-25.555676" lon="-49.306251" /><trkpt lat="-25.555872" lon="-49.306296" /><trkpt lat="-25.556009" lon="-49.306331" /><trkpt lat="-25.556131" lon="-49.306361" /><trkpt lat="-25.556245" lon="-49.306387" /><trkpt lat="-25.556399" lon="-49.306424" /><trkpt lat="-25.556605" lon="-49.306473" /><trkpt lat="-25.556790" lon="-49.306518" /><trkpt lat="-25.557135" lon="-49.306601" /><trkpt lat="-25.557363" lon="-49.306656" /><trkpt lat="-25.557570" lon="-49.306697" /><trkpt lat="-25.557764" lon="-49.306748" /><trkpt lat="-25.557882" lon="-49.306778" /><trkpt lat="-25.558032" lon="-49.306818" /><trkpt lat="-25.558245" lon="-49.306874" /><trkpt lat="-25.558376" lon="-49.306909" /><trkpt lat="-25.558529" lon="-49.306949" /><trkpt lat="-25.558634" lon="-49.306976" /><trkpt lat="-25.558768" lon="-49.307013" /><trkpt lat="-25.558993" lon="-49.307071" /><trkpt lat="-25.559116" lon="-49.307103" /><trkpt lat="-25.559265" lon="-49.307142" /><trkpt lat="-25.559453" lon="-49.307185" /><trkpt lat="-25.559530" lon="-49.307225" /><trkpt lat="-25.559689" lon="-49.307314" /><trkpt lat="-25.559814" lon="-49.307384" /><trkpt lat="-25.560011" lon="-49.307492" /><trkpt lat="-25.560098" lon="-49.307542" /><trkpt lat="-25.560236" lon="-49.307620" /><trkpt lat="-25.560409" lon="-49.307710" /><trkpt lat="-25.560563" lon="-49.307775" /><trkpt lat="-25.560705" lon="-49.307831" /><trkpt lat="-25.560841" lon="-49.307889" /><trkpt lat="-25.561096" lon="-49.307985" /><trkpt lat="-25.561235" lon="-49.308036" /><trkpt lat="-25.561404" lon="-49.308091" /><trkpt lat="-25.561631" lon="-49.308163" /><trkpt lat="-25.561818" lon="-49.308224" /><trkpt lat="-25.561988" lon="-49.308278" /><trkpt lat="-25.562097" lon="-49.308310" /><trkpt lat="-25.562353" lon="-49.308382" /><trkpt lat="-25.562562" lon="-49.308440" /><trkpt lat="-25.562772" lon="-49.308499" /><trkpt lat="-25.562944" lon="-49.308545" /><trkpt lat="-25.563127" lon="-49.308594" /><trkpt lat="-25.563306" lon="-49.308639" /><trkpt lat="-25.563396" lon="-49.308777" /><trkpt lat="-25.563435" lon="-49.308848" /><trkpt lat="-25.563465" lon="-49.308936" /><trkpt lat="-25.563497" lon="-49.309103" /><trkpt lat="-25.563489" lon="-49.309213" /><trkpt lat="-25.563455" lon="-49.309720" /><trkpt lat="-25.563414" lon="-49.310265" /><trkpt lat="-25.563413" lon="-49.310360" /><trkpt lat="-25.563382" lon="-49.310832" /><trkpt lat="-25.563335" lon="-49.311539" /><trkpt lat="-25.563287" lon="-49.312185" /><trkpt lat="-25.563242" lon="-49.312821" /><trkpt lat="-25.563150" lon="-49.313977" /><trkpt lat="-25.563104" lon="-49.314691" /><trkpt lat="-25.563060" lon="-49.315389" /><trkpt lat="-25.563159" lon="-49.315410" /><trkpt lat="-25.563273" lon="-49.315433" /><trkpt lat="-25.563399" lon="-49.315456" /><trkpt lat="-25.563527" lon="-49.315483" /><trkpt lat="-25.563628" lon="-49.315488" /><trkpt lat="-25.563724" lon="-49.315492" /><trkpt lat="-25.563862" lon="-49.315487" /><trkpt lat="-25.563959" lon="-49.315475" /><trkpt lat="-25.564072" lon="-49.315441" /><trkpt lat="-25.564173" lon="-49.315407" /><trkpt lat="-25.564307" lon="-49.315335" /><trkpt lat="-25.564377" lon="-49.315287" /><trkpt lat="-25.564467" lon="-49.315223" /><trkpt lat="-25.564559" lon="-49.315194" /><trkpt lat="-25.564654" lon="-49.315170" /><trkpt lat="-25.564722" lon="-49.315163" /><trkpt lat="-25.564892" lon="-49.315153" /><trkpt lat="-25.565051" lon="-49.315150" /><trkpt lat="-25.565216" lon="-49.315118" /><trkpt lat="-25.565303" lon="-49.315090" /><trkpt lat="-25.565369" lon="-49.315056" /><trkpt lat="-25.565423" lon="-49.315023" /><trkpt lat="-25.565506" lon="-49.314965" /><trkpt lat="-25.565603" lon="-49.314890" /><trkpt lat="-25.565790" lon="-49.314752" /><trkpt lat="-25.565933" lon="-49.314646" /><trkpt lat="-25.566116" lon="-49.314610" /><trkpt lat="-25.566175" lon="-49.314603" /><trkpt lat="-25.566230" lon="-49.314601" /><trkpt lat="-25.566308" lon="-49.314596" /><trkpt lat="-25.566459" lon="-49.314611" /><trkpt lat="-25.566616" lon="-49.314628" /><trkpt lat="-25.566790" lon="-49.314666" /><trkpt lat="-25.566976" lon="-49.314704" /><trkpt lat="-25.567129" lon="-49.314737" /><trkpt lat="-25.567230" lon="-49.314762" /><trkpt lat="-25.567334" lon="-49.314793" /><trkpt lat="-25.567425" lon="-49.314823" /><trkpt lat="-25.567400" lon="-49.315200" /><trkpt lat="-25.567394" lon="-49.315279" /><trkpt lat="-25.567381" lon="-49.315344" /><trkpt lat="-25.567355" lon="-49.315413" /><trkpt lat="-25.567299" lon="-49.315512" /><trkpt lat="-25.567160" lon="-49.315722" /><trkpt lat="-25.567091" lon="-49.315827" /><trkpt lat="-25.567033" lon="-49.315932" /><trkpt lat="-25.566978" lon="-49.316043" /><trkpt lat="-25.566911" lon="-49.316185" /><trkpt lat="-25.566868" lon="-49.316299" /><trkpt lat="-25.566841" lon="-49.316405" /><trkpt lat="-25.566806" lon="-49.316652" /><trkpt lat="-25.566783" lon="-49.316826" /><trkpt lat="-25.566772" lon="-49.316996" /><trkpt lat="-25.566763" lon="-49.317133" /><trkpt lat="-25.566765" lon="-49.317262" /><trkpt lat="-25.566773" lon="-49.317333" /><trkpt lat="-25.566797" lon="-49.317483" /><trkpt lat="-25.566839" lon="-49.317593" /><trkpt lat="-25.566888" lon="-49.317683" /><trkpt lat="-25.566978" lon="-49.317805" /><trkpt lat="-25.567058" lon="-49.317904" /><trkpt lat="-25.567114" lon="-49.317974" /><trkpt lat="-25.567191" lon="-49.318044" /><trkpt lat="-25.567244" lon="-49.318091" /><trkpt lat="-25.567342" lon="-49.318166" /><trkpt lat="-25.567540" lon="-49.318313" /><trkpt lat="-25.567637" lon="-49.318388" /><trkpt lat="-25.567766" lon="-49.318463" /><trkpt lat="-25.567876" lon="-49.318528" /><trkpt lat="-25.568036" lon="-49.318599" /><trkpt lat="-25.568123" lon="-49.318636" /><trkpt lat="-25.568268" lon="-49.318700" /><trkpt lat="-25.568408" lon="-49.318761" /><trkpt lat="-25.568450" lon="-49.318786" /><trkpt lat="-25.568482" lon="-49.318823" /><trkpt lat="-25.568501" lon="-49.318855" /><trkpt lat="-25.568538" lon="-49.319014" /><trkpt lat="-25.568563" lon="-49.319157" /><trkpt lat="-25.568593" lon="-49.319346" /><trkpt lat="-25.568604" lon="-49.319524" /><trkpt lat="-25.568588" lon="-49.319795" /><trkpt lat="-25.568584" lon="-49.320062" /><trkpt lat="-25.568583" lon="-49.320174" /><trkpt lat="-25.568583" lon="-49.320379" /><trkpt lat="-25.568631" lon="-49.320472" /><trkpt lat="-25.568679" lon="-49.320575" /><trkpt lat="-25.568776" lon="-49.320783" /><trkpt lat="-25.568906" lon="-49.321059" /><trkpt lat="-25.569075" lon="-49.321415" /><trkpt lat="-25.569250" lon="-49.321789" /><trkpt lat="-25.569323" lon="-49.321962" /><trkpt lat="-25.569414" lon="-49.322189" /><trkpt lat="-25.569564" lon="-49.322553" /><trkpt lat="-25.569630" lon="-49.322803" /><trkpt lat="-25.569722" lon="-49.323141" /><trkpt lat="-25.569743" lon="-49.323340" /><trkpt lat="-25.569774" lon="-49.323454" /><trkpt lat="-25.569888" lon="-49.323716" /><trkpt lat="-25.569964" lon="-49.323889" /><trkpt lat="-25.570070" lon="-49.324068" /><trkpt lat="-25.570185" lon="-49.324355" /><trkpt lat="-25.570252" lon="-49.324533" /><trkpt lat="-25.570326" lon="-49.324672" /><trkpt lat="-25.570384" lon="-49.324767" /><trkpt lat="-25.570421" lon="-49.324823" /><trkpt lat="-25.570461" lon="-49.324875" /><trkpt lat="-25.570533" lon="-49.324947" /><trkpt lat="-25.570640" lon="-49.325053" /><trkpt lat="-25.570683" lon="-49.325075" /><trkpt lat="-25.570775" lon="-49.325108" /><trkpt lat="-25.570844" lon="-49.325133" /><trkpt lat="-25.570911" lon="-49.325150" /><trkpt lat="-25.571099" lon="-49.325205" /><trkpt lat="-25.571175" lon="-49.325227" /><trkpt lat="-25.571292" lon="-49.325269" /><trkpt lat="-25.571373" lon="-49.325307" /><trkpt lat="-25.571504" lon="-49.325371" /><trkpt lat="-25.571614" lon="-49.325437" /><trkpt lat="-25.571723" lon="-49.325538" /><trkpt lat="-25.571824" lon="-49.325659" /><trkpt lat="-25.571919" lon="-49.325777" /><trkpt lat="-25.572025" lon="-49.325904" /><trkpt lat="-25.572158" lon="-49.326065" /><trkpt lat="-25.572371" lon="-49.326326" /><trkpt lat="-25.572525" lon="-49.326513" /><trkpt lat="-25.572725" lon="-49.326756" /><trkpt lat="-25.572983" lon="-49.327063" /><trkpt lat="-25.573149" lon="-49.327268" /><trkpt lat="-25.573338" lon="-49.327502" /><trkpt lat="-25.573521" lon="-49.327728" /><trkpt lat="-25.573647" lon="-49.327877" /><trkpt lat="-25.573747" lon="-49.328000" /><trkpt lat="-25.573866" lon="-49.328142" /><trkpt lat="-25.573978" lon="-49.328281" /><trkpt lat="-25.574068" lon="-49.328400" /><trkpt lat="-25.575017" lon="-49.329556" /><trkpt lat="-25.575479" lon="-49.330095" /><trkpt lat="-25.575781" lon="-49.330650" /><trkpt lat="-25.576527" lon="-49.331565" /><trkpt lat="-25.576723" lon="-49.331574" /><trkpt lat="-25.577078" lon="-49.331995" /><trkpt lat="-25.577219" lon="-49.332132" /><trkpt lat="-25.577409" lon="-49.332321" /><trkpt lat="-25.577613" lon="-49.332523" /><trkpt lat="-25.577680" lon="-49.332607" /><trkpt lat="-25.577811" lon="-49.332735" /><trkpt lat="-25.577857" lon="-49.332781" /><trkpt lat="-25.577958" lon="-49.332877" /><trkpt lat="-25.578009" lon="-49.332927" /><trkpt lat="-25.578061" lon="-49.332981" /><trkpt lat="-25.578212" lon="-49.333135" /><trkpt lat="-25.578328" lon="-49.333254" /><trkpt lat="-25.578428" lon="-49.333355" /><trkpt lat="-25.578590" lon="-49.333500" /><trkpt lat="-25.578759" lon="-49.333653" /><trkpt lat="-25.578900" lon="-49.333811" /><trkpt lat="-25.579041" lon="-49.333979" /><trkpt lat="-25.579192" lon="-49.334142" /><trkpt lat="-25.579393" lon="-49.334371" /><trkpt lat="-25.579507" lon="-49.334500" /><trkpt lat="-25.579640" lon="-49.334647" /><trkpt lat="-25.579795" lon="-49.334820" /><trkpt lat="-25.580023" lon="-49.335101" /><trkpt lat="-25.580116" lon="-49.335253" /><trkpt lat="-25.580241" lon="-49.335384" /><trkpt lat="-25.580465" lon="-49.335619" /><trkpt lat="-25.580606" lon="-49.335768" /><trkpt lat="-25.580751" lon="-49.335921" /><trkpt lat="-25.580901" lon="-49.336076" /><trkpt lat="-25.580962" lon="-49.336128" /><trkpt lat="-25.581115" lon="-49.336277" /><trkpt lat="-25.581324" lon="-49.336479" /><trkpt lat="-25.581430" lon="-49.336583" /><trkpt lat="-25.581502" lon="-49.336654" /><trkpt lat="-25.581624" lon="-49.336790" /><trkpt lat="-25.581731" lon="-49.336911" /><trkpt lat="-25.581855" lon="-49.337048" /><trkpt lat="-25.581984" lon="-49.337162" /><trkpt lat="-25.582051" lon="-49.337207" /><trkpt lat="-25.582111" lon="-49.337232" /><trkpt lat="-25.582168" lon="-49.337250" /><trkpt lat="-25.582253" lon="-49.337257" /><trkpt lat="-25.582319" lon="-49.337297" /><trkpt lat="-25.582407" lon="-49.337357" /><trkpt lat="-25.582612" lon="-49.337401" /><trkpt lat="-25.582901" lon="-49.337467" /><trkpt lat="-25.582987" lon="-49.337479" /><trkpt lat="-25.583246" lon="-49.337544" /><trkpt lat="-25.583839" lon="-49.337693" /><trkpt lat="-25.584133" lon="-49.337767" /><trkpt lat="-25.584383" lon="-49.337830" /><trkpt lat="-25.584795" lon="-49.337931" /><trkpt lat="-25.585099" lon="-49.338009" /><trkpt lat="-25.584980" lon="-49.338557" /><trkpt lat="-25.584918" lon="-49.338844" /><trkpt lat="-25.584855" lon="-49.339110" /><trkpt lat="-25.584750" lon="-49.339572" /><trkpt lat="-25.584689" lon="-49.339856" /><trkpt lat="-25.584639" lon="-49.340097" /><trkpt lat="-25.584812" lon="-49.340144" /><trkpt lat="-25.584969" lon="-49.340189" /><trkpt lat="-25.585139" lon="-49.340239" /></trkseg></trk><wpt lat="-25.513097" lon="-49.295298"><name>1 - 105924 - Terminal Pinheirinho /n684 -  Rio  Bonito.</name><desc>ID: 273980; Tipo: OBRIGATÓRIO; Distância: 0,000 km</desc></wpt><wpt lat="-25.518348" lon="-49.295667"><name>2 - 150331 - 528 - Boqueirão / Pinheirinho/n600 - Tequaly / Quartel General (Sentido Terminal Pinheirinho)/n617 - JD. Ludovica/n630 - Vitória Régia (Sentido Vitória Régia)/n631 - Piratini / BR 476 (sentido Piratini)/n633 - Maria Angélica (sentido Maria Angélica)/n635 - Londrina (sentido Londrina)/n637- Sta Joana (Sentido Terminal Sitio Cercado)/n638 - Pinheirinho (Sentido Rua Jussara)/n639 - Futurama (sentido Futurama)/n640 - Palmeira (sentido Palmeira)/n641 - Luiz Nichele (sentido Luiz Nichele)/n642 - Ganchinh</name><desc>ID: 273981; Tipo: INTERMEDIÁRIO; Distância: 0,615 km</desc></wpt><wpt lat="-25.521459" lon="-49.295616"><name>3 - 160301 - 600 - Tequaly / Quartel General/n617 - JD. Ludovica/n630 - Vitória / Régia (Sentido Vitória Régia)/n646 - Pompeia / Janaina (Sentido Janaina)/n650 - Sta. Rita / Pinheirinho (Sentido Santa Rita)/n655 - Jd. da Ordem (sentido Jd. da Ordem)/n659 - Caximba/Olaria (Sentido Caximba )/n680 - Rurbana (Sentido Rurbana)/n681 - Dalagassa (Sentido Dalagassa)/n684 - Rio Bonito  (Sentido Rio Bonito)/n690 - V. Juliana (sentido V. Juliana)/n772 - Tupy / Juliana (Sentido Tupy)/n794 - PQ. Lago Azul</name><desc>ID: 273982; Tipo: INTERMEDIÁRIO; Distância: 0,967 km</desc></wpt><wpt lat="-25.525878" lon="-49.297614"><name>4 - 160078 - 060-Interbairros VI (Sentido Terminal Campo Comprido)/n600 - Tequaly / Quartel General/n617 - JD. Ludovica/n630 - Vitória Régia (Sentido Vitória Régia)/n640 - Palmeira/n644- Pinheirinho / CIC (Sentido Terminal CIC)/n646 - Pompéia / Janaina (Sentido Pompéia)/n650 - Pinheirinho / Sta. Rita (Sentido Sta. Rita)/n655 - Jd. da Ordem (Sentido Jd. da Ordem)/n659 - Caximba/Olaria (sentido Caximba )/n680 - Rurbana (Sentido Rurbana)/n681 - Dalagassa (Sentido Dalagassa)/n684 - Rio Bonito (Sentido Rio Bonito)/n6</name><desc>ID: 273983; Tipo: INTERMEDIÁRIO; Distância: 1,492 km</desc></wpt><wpt lat="-25.529798" lon="-49.299592"><name>5 - 160438 - 060 - Interbairros VI (Sentido Terminal Caiuá)/n600 - Tequaly / Quartel General/n617 - JD. Ludovica/n630 - Vitória Régia (Sentido Vitória Régia)/n640 - Palmeira/n644- Pinheirinho / CIC (Sentido   Terminal CIC)/n646 - Pompeia / Janaiana (Sentido Pompéia)/n650 - Pinheirinho / Sta. Rita (Sentido Sta. Rita)/n655 - Jd. da Ordem (Sentido Jd. da Ordem)/n659 - Caximba/Olaria ( Sentido Caximba )/n680 - Rurbana (Sentido Rubarna)/n681 - Dalagassa/n684 - Rio Bonito (Sentido Rio Bonito)/n690 - V. Juliana (Sentid</name><desc>ID: 273984; Tipo: INTERMEDIÁRIO; Distância: 1,946 km</desc></wpt><wpt lat="-25.533789" lon="-49.301047"><name>6 - 170121 - 060 - Interbairros VI (Sentido Terminal Caiuá)/n540 - Boqueirão/Kraft (Sentido Kraft)/n545 - Trabalhador (Sentido Terminal Fazendinha)/n600 - Tequaly / Quartel General/n617 - JD. Ludovica/n630 - Vitória Régia (Sentido Vitória Régia)/n644- Pinheirinho / CIC (Sentido Terminal CIC)/n646 - Pompéia / Janaina (Sentido Pompéia)/n650 - Pinheirinho / Sta. Rita (Sentido Sta. Rita)/n655 - Jd. da Ordem (Sentido Jd. da Ordem)/n659 - Caximba/Olaria ( Sentido Caximba )/n680 - Rurbana (Sentido Rurbana)/n681 - Dala</name><desc>ID: 273985; Tipo: INTERMEDIÁRIO; Distância: 2,403 km</desc></wpt><wpt lat="-25.536449" lon="-49.301535"><name>7 - 160074 - 540 - Boqueirão/Kraft  - (Sentido Kraft)/n545 - Trabalhador/n600 - Tequaly / Quartel General/n617 - Jd. Ludovica/n630 - Vitória Régia (Sentido Vitória Régia)/n646 - Pompéia / Janaina (Sentido Pompéia)/n650 - Pinheirinho / Sta. Rita (Sentido Sta. Rita)/n655 - Jd. da Ordem (Sentido Jd. da Ordem)/n659 - Caximba/Olaria ( Sentido Caximba )/n680 - Rurbana (Sentido Rurbana)/n681 - Dalagassa (Sentido Dalagassa)/n684 - Rio Bonito (Sentido Rio Bonito)/n690 - V. Juliana (Sentido V. Juliana)/n772 - Tupy / Julia</name><desc>ID: 273986; Tipo: INTERMEDIÁRIO; Distância: 2,697 km</desc></wpt><wpt lat="-25.542569" lon="-49.303089"><name>8 - 170378 - 600 - Tequaly / Quartel General/n617 - JD. Ludovica/n646 - Pompéia / Janaina (Sentido Pompéia)/n650 -  Sta. Rita / Pinheirinho (Sentido Sta. Rita)/n655 - Jd. da Ordem (sentido Jd. da Ordem)/n659 - Caximba/Olaria ( Sentido Caximba )/n680 - Rurbana (Sentido Rurbana)/n681 - Dalagassa (Sentido Dalagassa)/n684 - Rio Bonito (Sentido Rio Bonito)/n690 - V. Juliana (sentido V. Juliana)/n772 - Tupy / Juliana (Sentido Tupy)</name><desc>ID: 273987; Tipo: INTERMEDIÁRIO; Distância: 3,386 km</desc></wpt><wpt lat="-25.551460" lon="-49.305374"><name>9 - 170379 - 600 - Tequaly / Quartel General/n617 - Jardim Ludovica (Sentido Jardim Ludovica)/n646 - Pompéia / Janaina (Sentido Pompéia)/n650 - Sta. Rita / Pinheirinho (Sentido Sta. Rita)/n655 - Jd. da Ordem (sentido Jd. da Ordem)/n659 - Caximba/Olaria ( Sentido Caximba )/n680 - Rurbana (Sentido Rurbana)/n681 - Dalagassa (Sentido Dalagassa)/n684 - Rio Bonito (Sentido Rio Bonito)/n690 - V. Juliana (sentido V. Juliana)/n772 - Tupy / Juliana (Sentido Tupy)</name><desc>ID: 273988; Tipo: INTERMEDIÁRIO; Distância: 4,396 km</desc></wpt><wpt lat="-25.553295" lon="-49.305843"><name>10 - 170380 - 600 - Kamyr / Quartel General/n617 - Jardim Ludovica (Sentido Jardim Ludovica)/n646 - Pompeia / Janaina (Sentido Pompéia)/n655 - Jd. da Ordem (sentido Jd. da Ordem)/n656 - Kamyr (Sentido Kamyr)/n659 - Caximba/Olaria ( Sentido Caximba )/n680 - Rurbana (Sentido Rubarna)/n681 - Dalagassa (Sentido Dalagassa)/n684 - Rio Bonito (Sentido Rio Bonito)/n690 - V. Juliana (sentido V. Juliana)/n772 - Tupy / Juliana (Sentido Tupy)</name><desc>ID: 273989; Tipo: INTERMEDIÁRIO; Distância: 4,598 km</desc></wpt><wpt lat="-25.558060" lon="-49.306914"><name>11 - 170908 - 617 - Jardim Ludovica (Sentido Jardim Ludovica)/n646 - Pompeia / Janaina (Sentido Pompéia)/n655 - Jd. da Ordem (Sentido Jd. da Ordem)/n659 - Caximba/Olaria ( Sentido Caximba )/n680 - Rurbana (Sentido Rubarna)/n681 - Dalagassa (Sentido Dalagassa)/n684 - Rio Bonito (Sentido Rio Bonito)/n690 - V. Juliana (sentido V. Juliana)/n772 - Tupy / Juliana (Sentido Tupy)</name><desc>ID: 273990; Tipo: INTERMEDIÁRIO; Distância: 5,112 km</desc></wpt><wpt lat="-25.563391" lon="-49.309633"><name>12 - 170500 - 617 - Jardim Ludovica (Sentido Jardim Ludovica) /n646 - Pompéia / Janaina (Sentido Pompéia)/n655 - Jd. da Ordem (sentido Jd. da Ordem)/n680 - Rurbana (Sentido Rurbana)/n681 - Dalagassa (Sentido Dalagassa)/n684 - Rio Bonito (Sentido Rio Bonito)</name><desc>ID: 273991; Tipo: INTERMEDIÁRIO; Distância: 5,824 km</desc></wpt><wpt lat="-25.563217" lon="-49.312479"><name>13 - 170732 - 617 - Jardim Ludovica (Sentido Jardim Ludovica) /n646 - Pompéia / Janaína (Sentido Pompéia)/n655 - Jd. da Ordem (sentido Jd. da Ordem)/n680 - Rurbana (Sentido Rurbana)/n681 - Dalagassa (Sentido Dalagassa)/n684 - Rio Bonito (Sentido Rio Bonito)</name><desc>ID: 273992; Tipo: INTERMEDIÁRIO; Distância: 6,070 km</desc></wpt><wpt lat="-25.563022" lon="-49.314798"><name>14 - 171049 - 646 - Pompéia / Janaína (Sentido Bairro)/n684 - Rio Bonito (Sentido Bairro)</name><desc>ID: 273993; Tipo: INTERMEDIÁRIO; Distância: 6,320 km</desc></wpt><wpt lat="-25.564127" lon="-49.315480"><name>15 - 170509 - 617 - Jardim Ludovica (Sentido Jardim Ludovica) /n646 - Pompéia / Janaina (Sentido Pompéia)/n655 - Jd. da Ordem (sentido Jd. da Ordem)/n680 - Rurbana (Sentido Rurbana)/n684 - Rio Bonito (Sentido Rio Bonito)</name><desc>ID: 273994; Tipo: INTERMEDIÁRIO; Distância: 6,500 km</desc></wpt><wpt lat="-25.566868" lon="-49.314791"><name>16 - 170511 - 617 - Jardim Ludovica (Sentido Jardim Ludovica) /n646 - Pompéia / Janaina (Sentido Pompéia)/n655 - Jd. da Ordem (sentido Jd. da Ordem)/n680 - Rurbana (Sentido Rurbana)/n684 - Rio Bonito (Sentido Rio Bonito)</name><desc>ID: 273995; Tipo: INTERMEDIÁRIO; Distância: 6,830 km</desc></wpt><wpt lat="-25.569319" lon="-49.321666"><name>17 - 170513 - 617 - Jardim Ludovica</name><desc>ID: 273996; Tipo: INTERMEDIÁRIO; Distância: 7,694 km</desc></wpt><wpt lat="-25.566688" lon="-49.317321"><name>18 - 170710 - 617 - Jardim Ludovica (Sentido Jardim Ludovica) /n655 - Jd. da Ordem (sentido Jd. da Ordem)/n684 - Rio Bonito (Sentido Rio Bonito)</name><desc>ID: 273997; Tipo: INTERMEDIÁRIO; Distância: 7,713 km</desc></wpt><wpt lat="-25.568548" lon="-49.320102"><name>19 - 170515 - 617 - Jardim Ludovica (Sentido Jardim Ludovica) /n655 - Jd. da Ordem (sentido Jd. da Ordem)/n684 - Rio Bonito (Sentido Rio Bonito)</name><desc>ID: 273998; Tipo: INTERMEDIÁRIO; Distância: 7,737 km</desc></wpt><wpt lat="-25.569741" lon="-49.323425"><name>20 - 170980 - 617 - Jardim Ludovica (Sentido Jardim Ludovica) /n684 - Rio Bonito (Sentido Rio Bonito)</name><desc>ID: 273999; Tipo: INTERMEDIÁRIO; Distância: 7,869 km</desc></wpt><wpt lat="-25.570792" lon="-49.325175"><name>21 - 170733 - 617 - Jardim Ludovica (Sentido Jardim Ludovica) /n684 - Rio Bonito (Sentido Rio Bonito)</name><desc>ID: 274000; Tipo: INTERMEDIÁRIO; Distância: 8,067 km</desc></wpt><wpt lat="-25.573204" lon="-49.327466"><name>22 - 170734 - 617 - Jardim Ludovica (Sentido Jardim Ludovica) /n684 - Rio Bonito (Sentido Rio Bonito)</name><desc>ID: 274001; Tipo: INTERMEDIÁRIO; Distância: 8,437 km</desc></wpt><wpt lat="-25.575881" lon="-49.330785"><name>23 - 171066 - Terminal Tatuquara - /n684 - Rio Bonito (Sentido Rio Bonito)</name><desc>ID: 274002; Tipo: INTERMEDIÁRIO; Distância: 8,850 km</desc></wpt><wpt lat="-25.578361" lon="-49.333446"><name>24 - 170524 - 679 - Madrugueiro Tatuquara (sentido circular)/n684 - Rio Bonito (Sentido Rio Bonito)/n685 - Rio Bonito / CIC (Sentido Rio Bonito)</name><desc>ID: 274003; Tipo: INTERMEDIÁRIO; Distância: 9,247 km</desc></wpt><wpt lat="-25.580048" lon="-49.335227"><name>25 - 170526 - 679 - Madrugueiro Tatuquara (sentido circular)/n685 - Rio Bonito / CIC (Sentido Rio Bonito)/n684 - Rio Bonito (Sentido Rio Bonito)</name><desc>ID: 274004; Tipo: INTERMEDIÁRIO; Distância: 9,511 km</desc></wpt><wpt lat="-25.582787" lon="-49.337485"><name>26 - 170528 - 679 - Madrugueiro Tatuquara (sentido circular)/n684 - Rio Bonito (Sentido Rio Bonito)/n685 - Rio Bonito / CIC</name><desc>ID: 274005; Tipo: INTERMEDIÁRIO; Distância: 9,890 km</desc></wpt><wpt lat="-25.584870" lon="-49.338033"><name>27 - 170531 - 679 - Madrugueiro Tatuquara (sentido circular)/n685 - Rio Bonito / CIC (Sentido Rio Bonito)/n684 - Rio Bonito (Sentido Rio Bonito)</name><desc>ID: 274006; Tipo: INTERMEDIÁRIO; Distância: 10,102 km</desc></wpt><wpt lat="-25.585126" lon="-49.340285"><name>28 - 170532 - 679 - MAD. Tatuquara (Sentido Tatuquara)/n684-Rio Bonito (Ponto Final).</name><desc>ID: 273943; Tipo: OBRIGATÓRIO; Distância: 10,404 km</desc></wpt></gpx>