<?xml version='1.0' encoding='utf-8'?>
<kml xmlns="http://www.opengis.net/kml/2.2"><Document><name>684-rio_bonito-alimentador-volta</name><Style id="trajeto"><LineStyle><color>ff0000ff</color><width>5</width></LineStyle></Style><Placemark><name>Trajeto</name><styleUrl>#trajeto</styleUrl><LineString><tessellate>1</tessellate><coordinates>-49.295245,-25.513098,0
-49.295229,-25.513516,0
-49.295569,-25.513516,0
-49.295645,-25.513559,0
-49.295733,-25.513596,0
-49.295732,-25.513624,0
-49.295729,-25.513664,0
-49.295728,-25.513744,0
-49.295722,-25.513946,0
-49.295716,-25.514151,0
-49.295711,-25.514311,0
-49.295700,-25.514567,0
-49.295690,-25.514807,0
-49.295680,-25.514980,0
-49.295691,-25.515148,0
-49.295695,-25.515310,0
-49.295699,-25.515451,0
-49.295703,-25.515603,0
-49.295706,-25.515721,0
-49.295710,-25.515881,0
-49.295711,-25.515982,0
-49.295708,-25.516185,0
-49.295704,-25.516399,0
-49.295700,-25.516632,0
-49.295696,-25.516836,0
-49.295688,-25.517002,0
-49.295682,-25.517133,0
-49.295675,-25.517319,0
-49.295665,-25.517520,0
-49.295658,-25.517706,0
-49.295659,-25.517942,0
-49.295660,-25.518161,0
-49.295660,-25.518380,0
-49.295661,-25.518581,0
-49.295655,-25.518836,0
-49.295650,-25.519040,0
-49.295644,-25.519391,0
-49.295637,-25.519738,0
-49.295630,-25.520060,0
-49.295624,-25.520325,0
-49.295621,-25.520530,0
-49.295616,-25.520945,0
-49.295613,-25.521175,0
-49.295599,-25.521589,0
-49.295590,-25.521877,0
-49.295584,-25.522076,0
-49.295587,-25.522231,0
-49.295594,-25.522339,0
-49.295613,-25.522458,0
-49.295642,-25.522589,0
-49.295688,-25.522725,0
-49.295739,-25.522840,0
-49.295868,-25.523103,0
-49.295945,-25.523232,0
-49.296098,-25.523484,0
-49.296202,-25.523656,0
-49.296300,-25.523833,0
-49.296387,-25.523976,0
-49.296435,-25.524060,0
-49.296637,-25.524410,0
-49.296724,-25.524562,0
-49.296810,-25.524699,0
-49.296977,-25.524953,0
-49.297138,-25.525198,0
-49.297382,-25.525571,0
-49.297617,-25.525952,0
-49.297842,-25.526319,0
-49.298021,-25.526609,0
-49.298114,-25.526763,0
-49.298223,-25.526955,0
-49.298315,-25.527117,0
-49.298524,-25.527479,0
-49.298710,-25.527794,0
-49.298773,-25.527953,0
-49.298854,-25.528165,0
-49.299074,-25.528721,0
-49.299175,-25.528979,0
-49.299245,-25.529176,0
-49.299317,-25.529378,0
-49.299453,-25.529751,0
-49.299546,-25.530014,0
-49.299650,-25.530301,0
-49.299727,-25.530517,0
-49.299900,-25.531013,0
-49.299994,-25.531239,0
-49.300081,-25.531452,0
-49.300162,-25.531644,0
-49.300242,-25.531840,0
-49.300322,-25.532034,0
-49.300404,-25.532245,0
-49.300560,-25.532652,0
-49.300636,-25.532846,0
-49.300711,-25.533046,0
-49.300796,-25.533265,0
-49.300905,-25.533545,0
-49.300973,-25.533717,0
-49.301060,-25.533935,0
-49.301145,-25.534159,0
-49.301211,-25.534327,0
-49.301269,-25.534481,0
-49.301275,-25.534627,0
-49.301277,-25.534683,0
-49.301303,-25.534755,0
-49.301324,-25.534834,0
-49.301338,-25.534912,0
-49.301339,-25.534962,0
-49.301328,-25.535101,0
-49.301320,-25.535226,0
-49.301303,-25.535359,0
-49.301261,-25.535633,0
-49.301307,-25.535831,0
-49.301337,-25.535975,0
-49.301374,-25.536146,0
-49.301424,-25.536370,0
-49.301487,-25.536656,0
-49.301515,-25.536783,0
-49.301545,-25.536906,0
-49.301598,-25.537112,0
-49.301644,-25.537294,0
-49.301740,-25.537676,0
-49.301797,-25.537911,0
-49.301859,-25.538183,0
-49.301907,-25.538385,0
-49.301954,-25.538583,0
-49.302008,-25.538816,0
-49.302025,-25.538875,0
-49.302061,-25.538988,0
-49.302150,-25.539250,0
-49.302233,-25.539503,0
-49.302307,-25.539747,0
-49.302342,-25.539854,0
-49.302361,-25.539939,0
-49.302411,-25.540145,0
-49.302462,-25.540371,0
-49.302512,-25.540588,0
-49.302595,-25.540947,0
-49.302636,-25.541118,0
-49.302699,-25.541389,0
-49.302760,-25.541646,0
-49.302871,-25.542124,0
-49.302967,-25.542531,0
-49.303067,-25.542934,0
-49.303125,-25.543160,0
-49.303164,-25.543315,0
-49.303257,-25.543686,0
-49.303298,-25.543860,0
-49.303336,-25.544034,0
-49.303382,-25.544216,0
-49.303401,-25.544290,0
-49.303420,-25.544375,0
-49.303465,-25.544561,0
-49.303508,-25.544733,0
-49.303546,-25.544907,0
-49.303591,-25.545097,0
-49.303634,-25.545276,0
-49.303689,-25.545501,0
-49.303733,-25.545680,0
-49.303785,-25.545891,0
-49.303830,-25.546077,0
-49.303881,-25.546292,0
-49.303941,-25.546529,0
-49.304000,-25.546798,0
-49.304051,-25.547013,0
-49.304087,-25.547181,0
-49.304179,-25.547338,0
-49.304252,-25.547490,0
-49.304300,-25.547647,0
-49.304355,-25.547808,0
-49.304385,-25.547928,0
-49.304498,-25.548194,0
-49.304517,-25.548302,0
-49.304568,-25.548556,0
-49.304610,-25.548773,0
-49.304667,-25.549042,0
-49.304741,-25.549335,0
-49.304806,-25.549592,0
-49.304846,-25.549780,0
-49.304877,-25.549938,0
-49.304910,-25.550074,0
-49.304958,-25.550256,0
-49.304977,-25.550335,0
-49.304994,-25.550406,0
-49.305048,-25.550616,0
-49.305096,-25.550817,0
-49.305135,-25.550966,0
-49.305178,-25.551139,0
-49.305228,-25.551330,0
-49.305289,-25.551580,0
-49.305365,-25.551876,0
-49.305402,-25.552027,0
-49.305472,-25.552347,0
-49.305501,-25.552477,0
-49.305562,-25.552715,0
-49.305613,-25.552920,0
-49.305633,-25.553003,0
-49.305729,-25.553385,0
-49.305761,-25.553506,0
-49.305808,-25.553679,0
-49.305868,-25.553910,0
-49.305928,-25.554172,0
-49.305977,-25.554384,0
-49.306004,-25.554494,0
-49.306058,-25.554733,0
-49.306079,-25.554835,0
-49.306121,-25.555020,0
-49.306140,-25.555109,0
-49.306153,-25.555184,0
-49.306172,-25.555280,0
-49.306199,-25.555421,0
-49.306221,-25.555520,0
-49.306251,-25.555676,0
-49.306296,-25.555872,0
-49.306331,-25.556009,0
-49.306361,-25.556131,0
-49.306387,-25.556245,0
-49.306424,-25.556399,0
-49.306473,-25.556605,0
-49.306518,-25.556790,0
-49.306601,-25.557135,0
-49.306656,-25.557363,0
-49.306697,-25.557570,0
-49.306748,-25.557764,0
-49.306778,-25.557882,0
-49.306818,-25.558032,0
-49.306874,-25.558245,0
-49.306909,-25.558376,0
-49.306949,-25.558529,0
-49.306976,-25.558634,0
-49.307013,-25.558768,0
-49.307071,-25.558993,0
-49.307103,-25.559116,0
-49.307142,-25.559265,0
-49.307185,-25.559453,0
-49.307225,-25.559530,0
-49.307314,-25.559689,0
-49.307384,-25.559814,0
-49.307492,-25.560011,0
-49.307542,-25.560098,0
-49.307620,-25.560236,0
-49.307710,-25.560409,0
-49.307775,-25.560563,0
-49.307831,-25.560705,0
-49.307889,-25.560841,0
-49.307985,-25.561096,0
-49.308036,-25.561235,0
-49.308091,-25.561404,0
-49.308163,-25.561631,0
-49.308224,-25.561818,0
-49.308278,-25.561988,0
-49.308310,-25.562097,0
-49.308382,-25.562353,0
-49.308440,-25.562562,0
-49.308499,-25.562772,0
-49.308545,-25.562944,0
-49.308594,-25.563127,0
-49.308639,-25.563306,0
-49.308777,-25.563396,0
-49.308848,-25.563435,0
-49.308936,-25.563465,0
-49.309103,-25.563497,0
-49.309213,-25.563489,0
-49.309720,-25.563455,0
-49.310265,-25.563414,0
-49.310360,-25.563413,0
-49.310832,-25.563382,0
-49.311539,-25.563335,0
-49.312185,-25.563287,0
-49.312821,-25.563242,0
-49.313977,-25.563150,0
-49.314691,-25.563104,0
-49.315389,-25.563060,0
-49.315410,-25.563159,0
-49.315433,-25.563273,0
-49.315456,-25.563399,0
-49.315483,-25.563527,0
-49.315488,-25.563628,0
-49.315492,-25.563724,0
-49.315487,-25.563862,0
-49.315475,-25.563959,0
-49.315441,-25.564072,0
-49.315407,-25.564173,0
-49.315335,-25.564307,0
-49.315287,-25.564377,0
-49.315223,-25.564467,0
-49.315194,-25.564559,0
-49.315170,-25.564654,0
-49.315163,-25.564722,0
-49.315153,-25.564892,0
-49.315150,-25.565051,0
-49.315118,-25.565216,0
-49.315090,-25.565303,0
-49.315056,-25.565369,0
-49.315023,-25.565423,0
-49.314965,-25.565506,0
-49.314890,-25.565603,0
-49.314752,-25.565790,0
-49.314646,-25.565933,0
-49.314610,-25.566116,0
-49.314603,-25.566175,0
-49.314601,-25.566230,0
-49.314596,-25.566308,0
-49.314611,-25.566459,0
-49.314628,-25.566616,0
-49.314666,-25.566790,0
-49.314704,-25.566976,0
-49.314737,-25.567129,0
-49.314762,-25.567230,0
-49.314793,-25.567334,0
-49.314823,-25.567425,0
-49.315200,-25.567400,0
-49.315279,-25.567394,0
-49.315344,-25.567381,0
-49.315413,-25.567355,0
-49.315512,-25.567299,0
-49.315722,-25.567160,0
-49.315827,-25.567091,0
-49.315932,-25.567033,0
-49.316043,-25.566978,0
-49.316185,-25.566911,0
-49.316299,-25.566868,0
-49.316405,-25.566841,0
-49.316652,-25.566806,0
-49.316826,-25.566783,0
-49.316996,-25.566772,0
-49.317133,-25.566763,0
-49.317262,-25.566765,0
-49.317333,-25.566773,0
-49.317483,-25.566797,0
-49.317593,-25.566839,0
-49.317683,-25.566888,0
-49.317805,-25.566978,0
-49.317904,-25.567058,0
-49.317974,-25.567114,0
-49.318044,-25.567191,0
-49.318091,-25.567244,0
-49.318166,-25.567342,0
-49.318313,-25.567540,0
-49.318388,-25.567637,0
-49.318463,-25.567766,0
-49.318528,-25.567876,0
-49.318599,-25.568036,0
-49.318636,-25.568123,0
-49.318700,-25.568268,0
-49.318761,-25.568408,0
-49.318786,-25.568450,0
-49.318823,-25.568482,0
-49.318855,-25.568501,0
-49.319014,-25.568538,0
-49.319157,-25.568563,0
-49.319346,-25.568593,0
-49.319524,-25.568604,0
-49.319795,-25.568588,0
-49.320062,-25.568584,0
-49.320174,-25.568583,0
-49.320379,-25.568583,0
-49.320472,-25.568631,0
-49.320575,-25.568679,0
-49.320783,-25.568776,0
-49.321059,-25.568906,0
-49.321415,-25.569075,0
-49.321789,-25.569250,0
-49.321962,-25.569323,0
-49.322189,-25.569414,0
-49.322553,-25.569564,0
-49.322803,-25.569630,0
-49.323141,-25.569722,0
-49.323340,-25.569743,0
-49.323454,-25.569774,0
-49.323716,-25.569888,0
-49.323889,-25.569964,0
-49.324068,-25.570070,0
-49.324355,-25.570185,0
-49.324533,-25.570252,0
-49.324672,-25.570326,0
-49.324767,-25.570384,0
-49.324823,-25.570421,0
-49.324875,-25.570461,0
-49.324947,-25.570533,0
-49.325053,-25.570640,0
-49.325075,-25.570683,0
-49.325108,-25.570775,0
-49.325133,-25.570844,0
-49.325150,-25.570911,0
-49.325205,-25.571099,0
-49.325227,-25.571175,0
-49.325269,-25.571292,0
-49.325307,-25.571373,0
-49.325371,-25.571504,0
-49.325437,-25.571614,0
-49.325538,-25.571723,0
-49.325659,-25.571824,0
-49.325777,-25.571919,0
-49.325904,-25.572025,0
-49.326065,-25.572158,0
-49.326326,-25.572371,0
-49.326513,-25.572525,0
-49.326756,-25.572725,0
-49.327063,-25.572983,0
-49.327268,-25.573149,0
-49.327502,-25.573338,0
-49.327728,-25.573521,0
-49.327877,-25.573647,0
-49.328000,-25.573747,0
-49.328142,-25.573866,0
-49.328281,-25.573978,0
-49.328400,-25.574068,0
-49.329556,-25.575017,0
-49.330095,-25.575479,0
-49.330650,-25.575781,0
-49.331565,-25.576527,0
-49.331574,-25.576723,0
-49.331995,-25.577078,0
-49.332132,-25.577219,0
-49.332321,-25.577409,0
-49.332523,-25.577613,0
-49.332607,-25.577680,0
-49.332735,-25.577811,0
-49.332781,-25.577857,0
-49.332877,-25.577958,0
-49.332927,-25.578009,0
-49.332981,-25.578061,0
-49.333135,-25.578212,0
-49.333254,-25.578328,0
-49.333355,-25.578428,0
-49.333500,-25.578590,0
-49.333653,-25.578759,0
-49.333811,-25.578900,0
-49.333979,-25.579041,0
-49.334142,-25.579192,0
-49.334371,-25.579393,0
-49.334500,-25.579507,0
-49.334647,-25.579640,0
-49.334820,-25.579795,0
-49.335101,-25.580023,0
-49.335253,-25.580116,0
-49.335384,-25.580241,0
-49.335619,-25.580465,0
-49.335768,-25.580606,0
-49.335921,-25.580751,0
-49.336076,-25.580901,0
-49.336128,-25.580962,0
-49.336277,-25.581115,0
-49.336479,-25.581324,0
-49.336583,-25.581430,0
-49.336654,-25.581502,0
-49.336790,-25.581624,0
-49.336911,-25.581731,0
-49.337048,-25.581855,0
-49.337162,-25.581984,0
-49.337207,-25.582051,0
-49.337232,-25.582111,0
-49.337250,-25.582168,0
-49.337257,-25.582253,0
-49.337297,-25.582319,0
-49.337357,-25.582407,0
-49.337401,-25.582612,0
-49.337467,-25.582901,0
-49.337479,-25.582987,0
-49.337544,-25.583246,0
-49.337693,-25.583839,0
-49.337767,-25.584133,0
-49.337830,-25.584383,0
-49.337931,-25.584795,0
-49.338009,-25.585099,0
-49.338557,-25.584980,0
-49.338844,-25.584918,0
-49.339110,-25.584855,0
-49.339572,-25.584750,0
-49.339856,-25.584689,0
-49.340097,-25.584639,0
-49.340144,-25.584812,0
-49.340189,-25.584969,0
-49.340239,-25.585139,0</coordinates></LineString></Placemark><Placemark><name>1 - 105924 - Terminal Pinheirinho /n684 -  Rio  Bonito.</name><description>ID: 273980&lt;br/&gt;Tipo: OBRIGATÓRIO&lt;br/&gt;Distância: 0,000 km</description><Point><coordinates>-49.295298,-25.513097,0</coordinates></Point></Placemark><Placemark><name>2 - 150331 - 528 - Boqueirão / Pinheirinho/n600 - Tequaly / Quartel General (Sentido Terminal Pinheirinho)/n617 - JD. Ludovica/n630 - Vitória Régia (Sentido Vitória Régia)/n631 - Piratini / BR 476 (sentido Piratini)/n633 - Maria Angélica (sentido Maria Angélica)/n635 - Londrina (sentido Londrina)/n637- Sta Joana (Sentido Terminal Sitio Cercado)/n638 - Pinheirinho (Sentido Rua Jussara)/n639 - Futurama (sentido Futurama)/n640 - Palmeira (sentido Palmeira)/n641 - Luiz Nichele (sentido Luiz Nichele)/n642 - Ganchinh</name><description>ID: 273981&lt;br/&gt;Tipo: INTERMEDIÁRIO&lt;br/&gt;Distância: 0,615 km</description><Point><coordinates>-49.295667,-25.518348,0</coordinates></Point></Placemark><Placemark><name>3 - 160301 - 600 - Tequaly / Quartel General/n617 - JD. Ludovica/n630 - Vitória / Régia (Sentido Vitória Régia)/n646 - Pompeia / Janaina (Sentido Janaina)/n650 - Sta. Rita / Pinheirinho (Sentido Santa Rita)/n655 - Jd. da Ordem (sentido Jd. da Ordem)/n659 - Caximba/Olaria (Sentido Caximba )/n680 - Rurbana (Sentido Rurbana)/n681 - Dalagassa (Sentido Dalagassa)/n684 - Rio Bonito  (Sentido Rio Bonito)/n690 - V. Juliana (sentido V. Juliana)/n772 - Tupy / Juliana (Sentido Tupy)/n794 - PQ. Lago Azul</name><description>ID: 273982&lt;br/&gt;Tipo: INTERMEDIÁRIO&lt;br/&gt;Distância: 0,967 km</description><Point><coordinates>-49.295616,-25.521459,0</coordinates></Point></Placemark><Placemark><name>4 - 160078 - 060-Interbairros VI (Sentido Terminal Campo Comprido)/n600 - Tequaly / Quartel General/n617 - JD. Ludovica/n630 - Vitória Régia (Sentido Vitória Régia)/n640 - Palmeira/n644- Pinheirinho / CIC (Sentido Terminal CIC)/n646 - Pompéia / Janaina (Sentido Pompéia)/n650 - Pinheirinho / Sta. Rita (Sentido Sta. Rita)/n655 - Jd. da Ordem (Sentido Jd. da Ordem)/n659 - Caximba/Olaria (sentido Caximba )/n680 - Rurbana (Sentido Rurbana)/n681 - Dalagassa (Sentido Dalagassa)/n684 - Rio Bonito (Sentido Rio Bonito)/n6</name><description>ID: 273983&lt;br/&gt;Tipo: INTERMEDIÁRIO&lt;br/&gt;Distância: 1,492 km</description><Point><coordinates>-49.297614,-25.525878,0</coordinates></Point></Placemark><Placemark><name>5 - 160438 - 060 - Interbairros VI (Sentido Terminal Caiuá)/n600 - Tequaly / Quartel General/n617 - JD. Ludovica/n630 - Vitória Régia (Sentido Vitória Régia)/n640 - Palmeira/n644- Pinheirinho / CIC (Sentido   Terminal CIC)/n646 - Pompeia / Janaiana (Sentido Pompéia)/n650 - Pinheirinho / Sta. Rita (Sentido Sta. Rita)/n655 - Jd. da Ordem (Sentido Jd. da Ordem)/n659 - Caximba/Olaria ( Sentido Caximba )/n680 - Rurbana (Sentido Rubarna)/n681 - Dalagassa/n684 - Rio Bonito (Sentido Rio Bonito)/n690 - V. Juliana (Sentid</name><description>ID: 273984&lt;br/&gt;Tipo: INTERMEDIÁRIO&lt;br/&gt;Distância: 1,946 km</description><Point><coordinates>-49.299592,-25.529798,0</coordinates></Point></Placemark><Placemark><name>6 - 170121 - 060 - Interbairros VI (Sentido Terminal Caiuá)/n540 - Boqueirão/Kraft (Sentido Kraft)/n545 - Trabalhador (Sentido Terminal Fazendinha)/n600 - Tequaly / Quartel General/n617 - JD. Ludovica/n630 - Vitória Régia (Sentido Vitória Régia)/n644- Pinheirinho / CIC (Sentido Terminal CIC)/n646 - Pompéia / Janaina (Sentido Pompéia)/n650 - Pinheirinho / Sta. Rita (Sentido Sta. Rita)/n655 - Jd. da Ordem (Sentido Jd. da Ordem)/n659 - Caximba/Olaria ( Sentido Caximba )/n680 - Rurbana (Sentido Rurbana)/n681 - Dala</name><description>ID: 273985&lt;br/&gt;Tipo: INTERMEDIÁRIO&lt;br/&gt;Distância: 2,403 km</description><Point><coordinates>-49.301047,-25.533789,0</coordinates></Point></Placemark><Placemark><name>7 - 160074 - 540 - Boqueirão/Kraft  - (Sentido Kraft)/n545 - Trabalhador/n600 - Tequaly / Quartel General/n617 - Jd. Ludovica/n630 - Vitória Régia (Sentido Vitória Régia)/n646 - Pompéia / Janaina (Sentido Pompéia)/n650 - Pinheirinho / Sta. Rita (Sentido Sta. Rita)/n655 - Jd. da Ordem (Sentido Jd. da Ordem)/n659 - Caximba/Olaria ( Sentido Caximba )/n680 - Rurbana (Sentido Rurbana)/n681 - Dalagassa (Sentido Dalagassa)/n684 - Rio Bonito (Sentido Rio Bonito)/n690 - V. Juliana (Sentido V. Juliana)/n772 - Tupy / Julia</name><description>ID: 273986&lt;br/&gt;Tipo: INTERMEDIÁRIO&lt;br/&gt;Distância: 2,697 km</description><Point><coordinates>-49.301535,-25.536449,0</coordinates></Point></Placemark><Placemark><name>8 - 170378 - 600 - Tequaly / Quartel General/n617 - JD. Ludovica/n646 - Pompéia / Janaina (Sentido Pompéia)/n650 -  Sta. Rita / Pinheirinho (Sentido Sta. Rita)/n655 - Jd. da Ordem (sentido Jd. da Ordem)/n659 - Caximba/Olaria ( Sentido Caximba )/n680 - Rurbana (Sentido Rurbana)/n681 - Dalagassa (Sentido Dalagassa)/n684 - Rio Bonito (Sentido Rio Bonito)/n690 - V. Juliana (sentido V. Juliana)/n772 - Tupy / Juliana (Sentido Tupy)</name><description>ID: 273987&lt;br/&gt;Tipo: INTERMEDIÁRIO&lt;br/&gt;Distância: 3,386 km</description><Point><coordinates>-49.303089,-25.542569,0</coordinates></Point></Placemark><Placemark><name>9 - 170379 - 600 - Tequaly / Quartel General/n617 - Jardim Ludovica (Sentido Jardim Ludovica)/n646 - Pompéia / Janaina (Sentido Pompéia)/n650 - Sta. Rita / Pinheirinho (Sentido Sta. Rita)/n655 - Jd. da Ordem (sentido Jd. da Ordem)/n659 - Caximba/Olaria ( Sentido Caximba )/n680 - Rurbana (Sentido Rurbana)/n681 - Dalagassa (Sentido Dalagassa)/n684 - Rio Bonito (Sentido Rio Bonito)/n690 - V. Juliana (sentido V. Juliana)/n772 - Tupy / Juliana (Sentido Tupy)</name><description>ID: 273988&lt;br/&gt;Tipo: INTERMEDIÁRIO&lt;br/&gt;Distância: 4,396 km</description><Point><coordinates>-49.305374,-25.551460,0</coordinates></Point></Placemark><Placemark><name>10 - 170380 - 600 - Kamyr / Quartel General/n617 - Jardim Ludovica (Sentido Jardim Ludovica)/n646 - Pompeia / Janaina (Sentido Pompéia)/n655 - Jd. da Ordem (sentido Jd. da Ordem)/n656 - Kamyr (Sentido Kamyr)/n659 - Caximba/Olaria ( Sentido Caximba )/n680 - Rurbana (Sentido Rubarna)/n681 - Dalagassa (Sentido Dalagassa)/n684 - Rio Bonito (Sentido Rio Bonito)/n690 - V. Juliana (sentido V. Juliana)/n772 - Tupy / Juliana (Sentido Tupy)</name><description>ID: 273989&lt;br/&gt;Tipo: INTERMEDIÁRIO&lt;br/&gt;Distância: 4,598 km</description><Point><coordinates>-49.305843,-25.553295,0</coordinates></Point></Placemark><Placemark><name>11 - 170908 - 617 - Jardim Ludovica (Sentido Jardim Ludovica)/n646 - Pompeia / Janaina (Sentido Pompéia)/n655 - Jd. da Ordem (Sentido Jd. da Ordem)/n659 - Caximba/Olaria ( Sentido Caximba )/n680 - Rurbana (Sentido Rubarna)/n681 - Dalagassa (Sentido Dalagassa)/n684 - Rio Bonito (Sentido Rio Bonito)/n690 - V. Juliana (sentido V. Juliana)/n772 - Tupy / Juliana (Sentido Tupy)</name><description>ID: 273990&lt;br/&gt;Tipo: INTERMEDIÁRIO&lt;br/&gt;Distância: 5,112 km</description><Point><coordinates>-49.306914,-25.558060,0</coordinates></Point></Placemark><Placemark><name>12 - 170500 - 617 - Jardim Ludovica (Sentido Jardim Ludovica) /n646 - Pompéia / Janaina (Sentido Pompéia)/n655 - Jd. da Ordem (sentido Jd. da Ordem)/n680 - Rurbana (Sentido Rurbana)/n681 - Dalagassa (Sentido Dalagassa)/n684 - Rio Bonito (Sentido Rio Bonito)</name><description>ID: 273991&lt;br/&gt;Tipo: INTERMEDIÁRIO&lt;br/&gt;Distância: 5,824 km</description><Point><coordinates>-49.309633,-25.563391,0</coordinates></Point></Placemark><Placemark><name>13 - 170732 - 617 - Jardim Ludovica (Sentido Jardim Ludovica) /n646 - Pompéia / Janaína (Sentido Pompéia)/n655 - Jd. da Ordem (sentido Jd. da Ordem)/n680 - Rurbana (Sentido Rurbana)/n681 - Dalagassa (Sentido Dalagassa)/n684 - Rio Bonito (Sentido Rio Bonito)</name><description>ID: 273992&lt;br/&gt;Tipo: INTERMEDIÁRIO&lt;br/&gt;Distância: 6,070 km</description><Point><coordinates>-49.312479,-25.563217,0</coordinates></Point></Placemark><Placemark><name>14 - 171049 - 646 - Pompéia / Janaína (Sentido Bairro)/n684 - Rio Bonito (Sentido Bairro)</name><description>ID: 273993&lt;br/&gt;Tipo: INTERMEDIÁRIO&lt;br/&gt;Distância: 6,320 km</description><Point><coordinates>-49.314798,-25.563022,0</coordinates></Point></Placemark><Placemark><name>15 - 170509 - 617 - Jardim Ludovica (Sentido Jardim Ludovica) /n646 - Pompéia / Janaina (Sentido Pompéia)/n655 - Jd. da Ordem (sentido Jd. da Ordem)/n680 - Rurbana (Sentido Rurbana)/n684 - Rio Bonito (Sentido Rio Bonito)</name><description>ID: 273994&lt;br/&gt;Tipo: INTERMEDIÁRIO&lt;br/&gt;Distância: 6,500 km</description><Point><coordinates>-49.315480,-25.564127,0</coordinates></Point></Placemark><Placemark><name>16 - 170511 - 617 - Jardim Ludovica (Sentido Jardim Ludovica) /n646 - Pompéia / Janaina (Sentido Pompéia)/n655 - Jd. da Ordem (sentido Jd. da Ordem)/n680 - Rurbana (Sentido Rurbana)/n684 - Rio Bonito (Sentido Rio Bonito)</name><description>ID: 273995&lt;br/&gt;Tipo: INTERMEDIÁRIO&lt;br/&gt;Distância: 6,830 km</description><Point><coordinates>-49.314791,-25.566868,0</coordinates></Point></Placemark><Placemark><name>17 - 170513 - 617 - Jardim Ludovica</name><description>ID: 273996&lt;br/&gt;Tipo: INTERMEDIÁRIO&lt;br/&gt;Distância: 7,694 km</description><Point><coordinates>-49.321666,-25.569319,0</coordinates></Point></Placemark><Placemark><name>18 - 170710 - 617 - Jardim Ludovica (Sentido Jardim Ludovica) /n655 - Jd. da Ordem (sentido Jd. da Ordem)/n684 - Rio Bonito (Sentido Rio Bonito)</name><description>ID: 273997&lt;br/&gt;Tipo: INTERMEDIÁRIO&lt;br/&gt;Distância: 7,713 km</description><Point><coordinates>-49.317321,-25.566688,0</coordinates></Point></Placemark><Placemark><name>19 - 170515 - 617 - Jardim Ludovica (Sentido Jardim Ludovica) /n655 - Jd. da Ordem (sentido Jd. da Ordem)/n684 - Rio Bonito (Sentido Rio Bonito)</name><description>ID: 273998&lt;br/&gt;Tipo: INTERMEDIÁRIO&lt;br/&gt;Distância: 7,737 km</description><Point><coordinates>-49.320102,-25.568548,0</coordinates></Point></Placemark><Placemark><name>20 - 170980 - 617 - Jardim Ludovica (Sentido Jardim Ludovica) /n684 - Rio Bonito (Sentido Rio Bonito)</name><description>ID: 273999&lt;br/&gt;Tipo: INTERMEDIÁRIO&lt;br/&gt;Distância: 7,869 km</description><Point><coordinates>-49.323425,-25.569741,0</coordinates></Point></Placemark><Placemark><name>21 - 170733 - 617 - Jardim Ludovica (Sentido Jardim Ludovica) /n684 - Rio Bonito (Sentido Rio Bonito)</name><description>ID: 274000&lt;br/&gt;Tipo: INTERMEDIÁRIO&lt;br/&gt;Distância: 8,067 km</description><Point><coordinates>-49.325175,-25.570792,0</coordinates></Point></Placemark><Placemark><name>22 - 170734 - 617 - Jardim Ludovica (Sentido Jardim Ludovica) /n684 - Rio Bonito (Sentido Rio Bonito)</name><description>ID: 274001&lt;br/&gt;Tipo: INTERMEDIÁRIO&lt;br/&gt;Distância: 8,437 km</description><Point><coordinates>-49.327466,-25.573204,0</coordinates></Point></Placemark><Placemark><name>23 - 171066 - Terminal Tatuquara - /n684 - Rio Bonito (Sentido Rio Bonito)</name><description>ID: 274002&lt;br/&gt;Tipo: INTERMEDIÁRIO&lt;br/&gt;Distância: 8,850 km</description><Point><coordinates>-49.330785,-25.575881,0</coordinates></Point></Placemark><Placemark><name>24 - 170524 - 679 - Madrugueiro Tatuquara (sentido circular)/n684 - Rio Bonito (Sentido Rio Bonito)/n685 - Rio Bonito / CIC (Sentido Rio Bonito)</name><description>ID: 274003&lt;br/&gt;Tipo: INTERMEDIÁRIO&lt;br/&gt;Distância: 9,247 km</description><Point><coordinates>-49.333446,-25.578361,0</coordinates></Point></Placemark><Placemark><name>25 - 170526 - 679 - Madrugueiro Tatuquara (sentido circular)/n685 - Rio Bonito / CIC (Sentido Rio Bonito)/n684 - Rio Bonito (Sentido Rio Bonito)</name><description>ID: 274004&lt;br/&gt;Tipo: INTERMEDIÁRIO&lt;br/&gt;Distância: 9,511 km</description><Point><coordinates>-49.335227,-25.580048,0</coordinates></Point></Placemark><Placemark><name>26 - 170528 - 679 - Madrugueiro Tatuquara (sentido circular)/n684 - Rio Bonito (Sentido Rio Bonito)/n685 - Rio Bonito / CIC</name><description>ID: 274005&lt;br/&gt;Tipo: INTERMEDIÁRIO&lt;br/&gt;Distância: 9,890 km</description><Point><coordinates>-49.337485,-25.582787,0</coordinates></Point></Placemark><Placemark><name>27 - 170531 - 679 - Madrugueiro Tatuquara (sentido circular)/n685 - Rio Bonito / CIC (Sentido Rio Bonito)/n684 - Rio Bonito (Sentido Rio Bonito)</name><description>ID: 274006&lt;br/&gt;Tipo: INTERMEDIÁRIO&lt;br/&gt;Distância: 10,102 km</description><Point><coordinates>-49.338033,-25.584870,0</coordinates></Point></Placemark><Placemark><name>28 - 170532 - 679 - MAD. Tatuquara (Sentido Tatuquara)/n684-Rio Bonito (Ponto Final).</name><description>ID: 273943&lt;br/&gt;Tipo: OBRIGATÓRIO&lt;br/&gt;Distância: 10,404 km</description><Point><coordinates>-49.340285,-25.585126,0</coordinates></Point></Placemark></Document></kml>