<?xml version='1.0' encoding='utf-8'?>
<gpx version="1.1" creator="Conversor" xmlns="http://www.topografix.com/GPX/1/1" xmlns:xsi="http://www.w3.org/2001/XMLSchema-instance" xsi:schemaLocation="http://www.topografix.com/GPX/1/1 http://www.topografix.com/GPX/1/1/gpx.xsd"><metadata><name>684-rio_bonito-alimentador-ida</name></metadata><trk><name>684-rio_bonito-alimentador-ida</name><trkseg><trkpt lat="-25.585140" lon="-49.340238" /><trkpt lat="-25.585291" lon="-49.340280" /><trkpt lat="-25.585578" lon="-49.340353" /><trkpt lat="-25.586435" lon="-49.340571" /><trkpt lat="-25.586640" lon="-49.340624" /><trkpt lat="-25.586772" lon="-49.340657" /><trkpt lat="-25.586940" lon="-49.340700" /><trkpt lat="-25.587068" lon="-49.340732" /><trkpt lat="-25.587316" lon="-49.340785" /><trkpt lat="-25.587488" lon="-49.340835" /><trkpt lat="-25.587861" lon="-49.340941" /><trkpt lat="-25.588466" lon="-49.341096" /><trkpt lat="-25.588660" lon="-49.341148" /><trkpt lat="-25.588907" lon="-49.341215" /><trkpt lat="-25.589125" lon="-49.341277" /><trkpt lat="-25.589318" lon="-49.341322" /><trkpt lat="-25.589570" lon="-49.341381" /><trkpt lat="-25.589766" lon="-49.341435" /><trkpt lat="-25.590035" lon="-49.341506" /><trkpt lat="-25.590189" lon="-49.341566" /><trkpt lat="-25.590361" lon="-49.341635" /><trkpt lat="-25.590496" lon="-49.341691" /><trkpt lat="-25.590817" lon="-49.341775" /><trkpt lat="-25.591103" lon="-49.341851" /><trkpt lat="-25.591326" lon="-49.341908" /><trkpt lat="-25.591512" lon="-49.341943" /><trkpt lat="-25.591791" lon="-49.341992" /><trkpt lat="-25.591990" lon="-49.342057" /><trkpt lat="-25.592135" lon="-49.342102" /><trkpt lat="-25.592244" lon="-49.342135" /><trkpt lat="-25.592404" lon="-49.342164" /><trkpt lat="-25.592503" lon="-49.341874" /><trkpt lat="-25.592591" lon="-49.341614" /><trkpt lat="-25.592763" lon="-49.341147" /><trkpt lat="-25.592862" lon="-49.340873" /><trkpt lat="-25.592939" lon="-49.340659" /><trkpt lat="-25.593032" lon="-49.340363" /><trkpt lat="-25.593102" lon="-49.340138" /><trkpt lat="-25.593054" lon="-49.339954" /><trkpt lat="-25.593048" lon="-49.339717" /><trkpt lat="-25.593044" lon="-49.339461" /><trkpt lat="-25.593155" lon="-49.338858" /><trkpt lat="-25.593270" lon="-49.338226" /><trkpt lat="-25.593376" lon="-49.337653" /><trkpt lat="-25.593422" lon="-49.337404" /><trkpt lat="-25.593487" lon="-49.337089" /><trkpt lat="-25.593536" lon="-49.336856" /><trkpt lat="-25.593572" lon="-49.336691" /><trkpt lat="-25.593606" lon="-49.336536" /><trkpt lat="-25.593721" lon="-49.336014" /><trkpt lat="-25.593849" lon="-49.335433" /><trkpt lat="-25.593937" lon="-49.334964" /><trkpt lat="-25.593745" lon="-49.334584" /><trkpt lat="-25.593556" lon="-49.334209" /><trkpt lat="-25.592903" lon="-49.332916" /><trkpt lat="-25.592726" lon="-49.332604" /><trkpt lat="-25.592580" lon="-49.332298" /><trkpt lat="-25.592505" lon="-49.332143" /><trkpt lat="-25.592384" lon="-49.331985" /><trkpt lat="-25.592420" lon="-49.331906" /><trkpt lat="-25.592439" lon="-49.331814" /><trkpt lat="-25.592435" lon="-49.331731" /><trkpt lat="-25.592402" lon="-49.331665" /><trkpt lat="-25.592336" lon="-49.331601" /><trkpt lat="-25.592283" lon="-49.331572" /><trkpt lat="-25.592193" lon="-49.331543" /><trkpt lat="-25.592099" lon="-49.331532" /><trkpt lat="-25.592027" lon="-49.331582" /><trkpt lat="-25.591952" lon="-49.331672" /><trkpt lat="-25.591907" lon="-49.331780" /><trkpt lat="-25.591895" lon="-49.331877" /><trkpt lat="-25.591678" lon="-49.331858" /><trkpt lat="-25.591364" lon="-49.331890" /><trkpt lat="-25.590203" lon="-49.331608" /><trkpt lat="-25.589778" lon="-49.331441" /><trkpt lat="-25.589315" lon="-49.331346" /><trkpt lat="-25.589057" lon="-49.331375" /><trkpt lat="-25.588668" lon="-49.333349" /><trkpt lat="-25.588437" lon="-49.334360" /><trkpt lat="-25.588222" lon="-49.335416" /><trkpt lat="-25.588083" lon="-49.335381" /><trkpt lat="-25.587483" lon="-49.335229" /><trkpt lat="-25.587304" lon="-49.335184" /><trkpt lat="-25.586991" lon="-49.335103" /><trkpt lat="-25.586729" lon="-49.335035" /><trkpt lat="-25.586369" lon="-49.334944" /><trkpt lat="-25.586123" lon="-49.334881" /><trkpt lat="-25.585936" lon="-49.334835" /><trkpt lat="-25.585848" lon="-49.334812" /><trkpt lat="-25.585768" lon="-49.334779" /><trkpt lat="-25.585648" lon="-49.335304" /><trkpt lat="-25.585523" lon="-49.335814" /><trkpt lat="-25.585469" lon="-49.336124" /><trkpt lat="-25.585434" lon="-49.336298" /><trkpt lat="-25.585230" lon="-49.337330" /><trkpt lat="-25.585193" lon="-49.337540" /><trkpt lat="-25.585125" lon="-49.337872" /><trkpt lat="-25.584486" lon="-49.337714" /><trkpt lat="-25.583962" lon="-49.337582" /><trkpt lat="-25.583593" lon="-49.337491" /><trkpt lat="-25.582876" lon="-49.337313" /><trkpt lat="-25.582599" lon="-49.337244" /><trkpt lat="-25.582399" lon="-49.337195" /><trkpt lat="-25.582258" lon="-49.337256" /><trkpt lat="-25.582167" lon="-49.337250" /><trkpt lat="-25.582091" lon="-49.337225" /><trkpt lat="-25.582047" lon="-49.337206" /><trkpt lat="-25.581986" lon="-49.337164" /><trkpt lat="-25.581858" lon="-49.337051" /><trkpt lat="-25.581498" lon="-49.336652" /><trkpt lat="-25.581425" lon="-49.336576" /><trkpt lat="-25.581302" lon="-49.336457" /><trkpt lat="-25.580983" lon="-49.336148" /><trkpt lat="-25.580898" lon="-49.336074" /><trkpt lat="-25.580742" lon="-49.335909" /><trkpt lat="-25.580463" lon="-49.335618" /><trkpt lat="-25.580232" lon="-49.335374" /><trkpt lat="-25.580114" lon="-49.335249" /><trkpt lat="-25.580022" lon="-49.335099" /><trkpt lat="-25.579792" lon="-49.334815" /><trkpt lat="-25.579631" lon="-49.334639" /><trkpt lat="-25.579495" lon="-49.334485" /><trkpt lat="-25.579295" lon="-49.334258" /><trkpt lat="-25.579189" lon="-49.334138" /><trkpt lat="-25.579037" lon="-49.333973" /><trkpt lat="-25.578888" lon="-49.333794" /><trkpt lat="-25.578748" lon="-49.333642" /><trkpt lat="-25.578587" lon="-49.333497" /><trkpt lat="-25.578421" lon="-49.333348" /><trkpt lat="-25.578296" lon="-49.333220" /><trkpt lat="-25.578111" lon="-49.333032" /><trkpt lat="-25.577991" lon="-49.332907" /><trkpt lat="-25.577853" lon="-49.332778" /><trkpt lat="-25.577734" lon="-49.332661" /><trkpt lat="-25.577674" lon="-49.332599" /><trkpt lat="-25.577591" lon="-49.332500" /><trkpt lat="-25.577393" lon="-49.332304" /><trkpt lat="-25.577204" lon="-49.332116" /><trkpt lat="-25.577080" lon="-49.331998" /><trkpt lat="-25.576921" lon="-49.331807" /><trkpt lat="-25.576839" lon="-49.331712" /><trkpt lat="-25.576789" lon="-49.331670" /><trkpt lat="-25.576665" lon="-49.331854" /><trkpt lat="-25.576639" lon="-49.331881" /><trkpt lat="-25.576579" lon="-49.331976" /><trkpt lat="-25.576234" lon="-49.331551" /><trkpt lat="-25.575945" lon="-49.331196" /><trkpt lat="-25.575789" lon="-49.331003" /><trkpt lat="-25.575611" lon="-49.330766" /><trkpt lat="-25.575558" lon="-49.330702" /><trkpt lat="-25.575518" lon="-49.330634" /><trkpt lat="-25.575504" lon="-49.330584" /><trkpt lat="-25.575506" lon="-49.330486" /><trkpt lat="-25.575519" lon="-49.330440" /><trkpt lat="-25.575565" lon="-49.330351" /><trkpt lat="-25.575637" lon="-49.330248" /><trkpt lat="-25.575465" lon="-49.330067" /><trkpt lat="-25.575311" lon="-49.329894" /><trkpt lat="-25.575144" lon="-49.329709" /><trkpt lat="-25.575087" lon="-49.329626" /><trkpt lat="-25.574934" lon="-49.329428" /><trkpt lat="-25.574692" lon="-49.329134" /><trkpt lat="-25.574213" lon="-49.328574" /><trkpt lat="-25.574059" lon="-49.328391" /><trkpt lat="-25.573949" lon="-49.328244" /><trkpt lat="-25.573660" lon="-49.327894" /><trkpt lat="-25.573412" lon="-49.327596" /><trkpt lat="-25.572982" lon="-49.327060" /><trkpt lat="-25.572722" lon="-49.326751" /><trkpt lat="-25.572536" lon="-49.326527" /><trkpt lat="-25.572317" lon="-49.326259" /><trkpt lat="-25.571826" lon="-49.325662" /><trkpt lat="-25.571719" lon="-49.325533" /><trkpt lat="-25.571606" lon="-49.325429" /><trkpt lat="-25.571488" lon="-49.325363" /><trkpt lat="-25.571323" lon="-49.325283" /><trkpt lat="-25.571176" lon="-49.325225" /><trkpt lat="-25.570966" lon="-49.325167" /><trkpt lat="-25.570775" lon="-49.325110" /><trkpt lat="-25.570663" lon="-49.325067" /><trkpt lat="-25.570618" lon="-49.325036" /><trkpt lat="-25.570537" lon="-49.324953" /><trkpt lat="-25.570462" lon="-49.324878" /><trkpt lat="-25.570415" lon="-49.324811" /><trkpt lat="-25.570384" lon="-49.324768" /><trkpt lat="-25.570325" lon="-49.324670" /><trkpt lat="-25.570249" lon="-49.324527" /><trkpt lat="-25.570183" lon="-49.324346" /><trkpt lat="-25.570071" lon="-49.324070" /><trkpt lat="-25.569958" lon="-49.323878" /><trkpt lat="-25.569813" lon="-49.323544" /><trkpt lat="-25.569772" lon="-49.323450" /><trkpt lat="-25.569743" lon="-49.323335" /><trkpt lat="-25.569722" lon="-49.323141" /><trkpt lat="-25.569565" lon="-49.322558" /><trkpt lat="-25.569421" lon="-49.322208" /><trkpt lat="-25.569311" lon="-49.321936" /><trkpt lat="-25.569251" lon="-49.321790" /><trkpt lat="-25.569100" lon="-49.321470" /><trkpt lat="-25.568802" lon="-49.320837" /><trkpt lat="-25.568632" lon="-49.320475" /><trkpt lat="-25.568582" lon="-49.320377" /><trkpt lat="-25.568588" lon="-49.319804" /><trkpt lat="-25.568604" lon="-49.319521" /><trkpt lat="-25.568591" lon="-49.319348" /><trkpt lat="-25.568562" lon="-49.319151" /><trkpt lat="-25.568539" lon="-49.319017" /><trkpt lat="-25.568501" lon="-49.318857" /><trkpt lat="-25.568492" lon="-49.318835" /><trkpt lat="-25.568454" lon="-49.318791" /><trkpt lat="-25.568410" lon="-49.318760" /><trkpt lat="-25.568211" lon="-49.318674" /><trkpt lat="-25.568091" lon="-49.318623" /><trkpt lat="-25.567974" lon="-49.318569" /><trkpt lat="-25.567874" lon="-49.318527" /><trkpt lat="-25.567725" lon="-49.318440" /><trkpt lat="-25.567632" lon="-49.318385" /><trkpt lat="-25.567498" lon="-49.318282" /><trkpt lat="-25.567354" lon="-49.318175" /><trkpt lat="-25.567234" lon="-49.318083" /><trkpt lat="-25.567118" lon="-49.317978" /><trkpt lat="-25.566955" lon="-49.317773" /><trkpt lat="-25.566887" lon="-49.317682" /><trkpt lat="-25.566836" lon="-49.317586" /><trkpt lat="-25.566796" lon="-49.317481" /><trkpt lat="-25.566777" lon="-49.317363" /><trkpt lat="-25.566765" lon="-49.317268" /><trkpt lat="-25.566763" lon="-49.317128" /><trkpt lat="-25.566782" lon="-49.316830" /><trkpt lat="-25.566811" lon="-49.316607" /><trkpt lat="-25.566842" lon="-49.316409" /><trkpt lat="-25.566870" lon="-49.316292" /><trkpt lat="-25.566917" lon="-49.316171" /><trkpt lat="-25.567038" lon="-49.315919" /><trkpt lat="-25.567097" lon="-49.315817" /><trkpt lat="-25.567281" lon="-49.315540" /><trkpt lat="-25.567355" lon="-49.315415" /><trkpt lat="-25.567381" lon="-49.315344" /><trkpt lat="-25.567394" lon="-49.315281" /><trkpt lat="-25.567423" lon="-49.314821" /><trkpt lat="-25.567223" lon="-49.314761" /><trkpt lat="-25.566987" lon="-49.314705" /><trkpt lat="-25.566694" lon="-49.314645" /><trkpt lat="-25.566618" lon="-49.314630" /><trkpt lat="-25.566314" lon="-49.314597" /><trkpt lat="-25.566219" lon="-49.314600" /><trkpt lat="-25.566118" lon="-49.314608" /><trkpt lat="-25.565937" lon="-49.314645" /><trkpt lat="-25.565840" lon="-49.314714" /><trkpt lat="-25.565742" lon="-49.314788" /><trkpt lat="-25.565538" lon="-49.314938" /><trkpt lat="-25.565422" lon="-49.315025" /><trkpt lat="-25.565353" lon="-49.315065" /><trkpt lat="-25.565307" lon="-49.315088" /><trkpt lat="-25.565213" lon="-49.315118" /><trkpt lat="-25.565286" lon="-49.314151" /><trkpt lat="-25.565363" lon="-49.313004" /><trkpt lat="-25.565456" lon="-49.311421" /><trkpt lat="-25.565489" lon="-49.311019" /><trkpt lat="-25.565530" lon="-49.310456" /><trkpt lat="-25.565564" lon="-49.310071" /><trkpt lat="-25.565576" lon="-49.309573" /><trkpt lat="-25.565565" lon="-49.309229" /><trkpt lat="-25.565536" lon="-49.309084" /><trkpt lat="-25.565448" lon="-49.308909" /><trkpt lat="-25.565368" lon="-49.308804" /><trkpt lat="-25.565242" lon="-49.308696" /><trkpt lat="-25.565157" lon="-49.308651" /><trkpt lat="-25.565020" lon="-49.308607" /><trkpt lat="-25.564571" lon="-49.308570" /><trkpt lat="-25.564179" lon="-49.308552" /><trkpt lat="-25.564064" lon="-49.308548" /><trkpt lat="-25.563952" lon="-49.308537" /><trkpt lat="-25.563859" lon="-49.308528" /><trkpt lat="-25.563596" lon="-49.308500" /><trkpt lat="-25.563351" lon="-49.308474" /><trkpt lat="-25.563213" lon="-49.308494" /><trkpt lat="-25.562588" lon="-49.308324" /><trkpt lat="-25.562184" lon="-49.308215" /><trkpt lat="-25.561961" lon="-49.308149" /><trkpt lat="-25.561602" lon="-49.308036" /><trkpt lat="-25.561393" lon="-49.307971" /><trkpt lat="-25.561181" lon="-49.307899" /><trkpt lat="-25.560947" lon="-49.307813" /><trkpt lat="-25.560733" lon="-49.307716" /><trkpt lat="-25.560615" lon="-49.307655" /><trkpt lat="-25.560462" lon="-49.307580" /><trkpt lat="-25.560316" lon="-49.307507" /><trkpt lat="-25.560158" lon="-49.307421" /><trkpt lat="-25.560016" lon="-49.307341" /><trkpt lat="-25.559833" lon="-49.307238" /><trkpt lat="-25.559636" lon="-49.307128" /><trkpt lat="-25.559434" lon="-49.307015" /><trkpt lat="-25.559242" lon="-49.306908" /><trkpt lat="-25.558981" lon="-49.306760" /><trkpt lat="-25.558919" lon="-49.306722" /><trkpt lat="-25.558804" lon="-49.306620" /><trkpt lat="-25.558689" lon="-49.306526" /><trkpt lat="-25.558522" lon="-49.306461" /><trkpt lat="-25.558377" lon="-49.306404" /><trkpt lat="-25.558123" lon="-49.306328" /><trkpt lat="-25.558009" lon="-49.306298" /><trkpt lat="-25.557737" lon="-49.306237" /><trkpt lat="-25.557619" lon="-49.306212" /><trkpt lat="-25.557441" lon="-49.306178" /><trkpt lat="-25.557113" lon="-49.306108" /><trkpt lat="-25.556892" lon="-49.306054" /><trkpt lat="-25.556693" lon="-49.306001" /><trkpt lat="-25.556457" lon="-49.305933" /><trkpt lat="-25.556179" lon="-49.305861" /><trkpt lat="-25.556023" lon="-49.305820" /><trkpt lat="-25.555868" lon="-49.305780" /><trkpt lat="-25.555700" lon="-49.305741" /><trkpt lat="-25.555513" lon="-49.305693" /><trkpt lat="-25.555229" lon="-49.305622" /><trkpt lat="-25.555017" lon="-49.305570" /><trkpt lat="-25.554880" lon="-49.305538" /><trkpt lat="-25.554701" lon="-49.305499" /><trkpt lat="-25.554573" lon="-49.305467" /><trkpt lat="-25.554430" lon="-49.305436" /><trkpt lat="-25.554217" lon="-49.305388" /><trkpt lat="-25.553982" lon="-49.305333" /><trkpt lat="-25.553818" lon="-49.305292" /><trkpt lat="-25.553673" lon="-49.305256" /><trkpt lat="-25.553480" lon="-49.305210" /><trkpt lat="-25.553229" lon="-49.305149" /><trkpt lat="-25.552936" lon="-49.305079" /><trkpt lat="-25.552675" lon="-49.305015" /><trkpt lat="-25.552425" lon="-49.304955" /><trkpt lat="-25.552119" lon="-49.304865" /><trkpt lat="-25.551942" lon="-49.304830" /><trkpt lat="-25.551610" lon="-49.304765" /><trkpt lat="-25.551337" lon="-49.304708" /><trkpt lat="-25.550667" lon="-49.304546" /><trkpt lat="-25.550566" lon="-49.304521" /><trkpt lat="-25.550144" lon="-49.304423" /><trkpt lat="-25.549637" lon="-49.304299" /><trkpt lat="-25.549088" lon="-49.304177" /><trkpt lat="-25.548830" lon="-49.304117" /><trkpt lat="-25.548460" lon="-49.304038" /><trkpt lat="-25.548253" lon="-49.303983" /><trkpt lat="-25.548038" lon="-49.303916" /><trkpt lat="-25.547980" lon="-49.303900" /><trkpt lat="-25.547697" lon="-49.303836" /><trkpt lat="-25.547574" lon="-49.303809" /><trkpt lat="-25.547106" lon="-49.303721" /><trkpt lat="-25.546952" lon="-49.303697" /><trkpt lat="-25.546784" lon="-49.303671" /><trkpt lat="-25.546558" lon="-49.303646" /><trkpt lat="-25.546470" lon="-49.303650" /><trkpt lat="-25.546372" lon="-49.303680" /><trkpt lat="-25.546045" lon="-49.303603" /><trkpt lat="-25.545835" lon="-49.303565" /><trkpt lat="-25.545352" lon="-49.303446" /><trkpt lat="-25.545115" lon="-49.303371" /><trkpt lat="-25.545008" lon="-49.303340" /><trkpt lat="-25.544605" lon="-49.303250" /><trkpt lat="-25.544414" lon="-49.303204" /><trkpt lat="-25.544158" lon="-49.303145" /><trkpt lat="-25.544021" lon="-49.303114" /><trkpt lat="-25.543873" lon="-49.303080" /><trkpt lat="-25.543593" lon="-49.303023" /><trkpt lat="-25.543458" lon="-49.302995" /><trkpt lat="-25.542737" lon="-49.302836" /><trkpt lat="-25.542480" lon="-49.302777" /><trkpt lat="-25.541884" lon="-49.302636" /><trkpt lat="-25.541582" lon="-49.302561" /><trkpt lat="-25.541324" lon="-49.302497" /><trkpt lat="-25.541019" lon="-49.302423" /><trkpt lat="-25.540559" lon="-49.302314" /><trkpt lat="-25.540204" lon="-49.302236" /><trkpt lat="-25.540003" lon="-49.302188" /><trkpt lat="-25.539823" lon="-49.302142" /><trkpt lat="-25.539155" lon="-49.301975" /><trkpt lat="-25.538900" lon="-49.301918" /><trkpt lat="-25.538665" lon="-49.301865" /><trkpt lat="-25.538316" lon="-49.301788" /><trkpt lat="-25.538077" lon="-49.301733" /><trkpt lat="-25.537962" lon="-49.301708" /><trkpt lat="-25.537385" lon="-49.301571" /><trkpt lat="-25.536922" lon="-49.301459" /><trkpt lat="-25.536733" lon="-49.301414" /><trkpt lat="-25.536566" lon="-49.301376" /><trkpt lat="-25.536101" lon="-49.301270" /><trkpt lat="-25.535830" lon="-49.301208" /><trkpt lat="-25.535677" lon="-49.301175" /><trkpt lat="-25.535540" lon="-49.301140" /><trkpt lat="-25.535111" lon="-49.301031" /><trkpt lat="-25.534743" lon="-49.300939" /><trkpt lat="-25.534672" lon="-49.300919" /><trkpt lat="-25.534484" lon="-49.300860" /><trkpt lat="-25.534369" lon="-49.300819" /><trkpt lat="-25.534179" lon="-49.300741" /><trkpt lat="-25.534021" lon="-49.300677" /><trkpt lat="-25.533829" lon="-49.300601" /><trkpt lat="-25.533673" lon="-49.300548" /><trkpt lat="-25.533526" lon="-49.300498" /><trkpt lat="-25.533316" lon="-49.300419" /><trkpt lat="-25.533170" lon="-49.300365" /><trkpt lat="-25.533036" lon="-49.300307" /><trkpt lat="-25.532668" lon="-49.300175" /><trkpt lat="-25.532460" lon="-49.300102" /><trkpt lat="-25.532010" lon="-49.299936" /><trkpt lat="-25.531731" lon="-49.299831" /><trkpt lat="-25.531543" lon="-49.299763" /><trkpt lat="-25.530919" lon="-49.299538" /><trkpt lat="-25.530728" lon="-49.299468" /><trkpt lat="-25.530695" lon="-49.299456" /><trkpt lat="-25.530674" lon="-49.299402" /><trkpt lat="-25.530645" lon="-49.299379" /><trkpt lat="-25.530508" lon="-49.299291" /><trkpt lat="-25.530351" lon="-49.299193" /><trkpt lat="-25.530216" lon="-49.299108" /><trkpt lat="-25.530172" lon="-49.299060" /><trkpt lat="-25.529997" lon="-49.298992" /><trkpt lat="-25.529872" lon="-49.298944" /><trkpt lat="-25.529661" lon="-49.298867" /><trkpt lat="-25.529588" lon="-49.298840" /><trkpt lat="-25.529397" lon="-49.298767" /><trkpt lat="-25.528544" lon="-49.298449" /><trkpt lat="-25.528219" lon="-49.298325" /><trkpt lat="-25.527964" lon="-49.298207" /><trkpt lat="-25.527841" lon="-49.298130" /><trkpt lat="-25.527736" lon="-49.298069" /><trkpt lat="-25.527625" lon="-49.297999" /><trkpt lat="-25.527453" lon="-49.297892" /><trkpt lat="-25.527268" lon="-49.297777" /><trkpt lat="-25.527092" lon="-49.297670" /><trkpt lat="-25.526981" lon="-49.297585" /><trkpt lat="-25.526875" lon="-49.297524" /><trkpt lat="-25.526763" lon="-49.297460" /><trkpt lat="-25.526644" lon="-49.297391" /><trkpt lat="-25.526517" lon="-49.297319" /><trkpt lat="-25.526338" lon="-49.297207" /><trkpt lat="-25.526155" lon="-49.297092" /><trkpt lat="-25.525945" lon="-49.296962" /><trkpt lat="-25.525672" lon="-49.296796" /><trkpt lat="-25.525512" lon="-49.296697" /><trkpt lat="-25.525266" lon="-49.296547" /><trkpt lat="-25.524950" lon="-49.296354" /><trkpt lat="-25.524758" lon="-49.296237" /><trkpt lat="-25.524632" lon="-49.296161" /><trkpt lat="-25.524508" lon="-49.296084" /><trkpt lat="-25.524389" lon="-49.296011" /><trkpt lat="-25.524275" lon="-49.295942" /><trkpt lat="-25.524095" lon="-49.295830" /><trkpt lat="-25.523996" lon="-49.295770" /><trkpt lat="-25.523894" lon="-49.295702" /><trkpt lat="-25.523760" lon="-49.295626" /><trkpt lat="-25.523599" lon="-49.295534" /><trkpt lat="-25.523455" lon="-49.295451" /><trkpt lat="-25.523373" lon="-49.295366" /><trkpt lat="-25.523275" lon="-49.295306" /><trkpt lat="-25.523118" lon="-49.295232" /><trkpt lat="-25.522989" lon="-49.295162" /><trkpt lat="-25.522869" lon="-49.295086" /><trkpt lat="-25.522599" lon="-49.294914" /><trkpt lat="-25.522405" lon="-49.294791" /><trkpt lat="-25.522230" lon="-49.294682" /><trkpt lat="-25.522037" lon="-49.294563" /><trkpt lat="-25.521820" lon="-49.294426" /><trkpt lat="-25.521662" lon="-49.294328" /><trkpt lat="-25.521420" lon="-49.294177" /><trkpt lat="-25.521320" lon="-49.294114" /><trkpt lat="-25.521111" lon="-49.293950" /><trkpt lat="-25.521040" lon="-49.293908" /><trkpt lat="-25.521164" lon="-49.293544" /><trkpt lat="-25.521254" lon="-49.293277" /><trkpt lat="-25.521366" lon="-49.292941" /><trkpt lat="-25.521513" lon="-49.292496" /><trkpt lat="-25.521589" lon="-49.292275" /><trkpt lat="-25.521666" lon="-49.292038" /><trkpt lat="-25.521946" lon="-49.292178" /><trkpt lat="-25.522200" lon="-49.292324" /><trkpt lat="-25.522467" lon="-49.292493" /><trkpt lat="-25.522726" lon="-49.292654" /><trkpt lat="-25.523002" lon="-49.292821" /><trkpt lat="-25.523287" lon="-49.292996" /><trkpt lat="-25.523481" lon="-49.293122" /><trkpt lat="-25.523560" lon="-49.293172" /><trkpt lat="-25.523642" lon="-49.293233" /><trkpt lat="-25.523811" lon="-49.293353" /><trkpt lat="-25.523653" lon="-49.293568" /><trkpt lat="-25.523461" lon="-49.293827" /><trkpt lat="-25.523275" lon="-49.294076" /><trkpt lat="-25.523130" lon="-49.294270" /><trkpt lat="-25.523056" lon="-49.294357" /><trkpt lat="-25.522909" lon="-49.294509" /><trkpt lat="-25.522780" lon="-49.294640" /><trkpt lat="-25.522633" lon="-49.294782" /><trkpt lat="-25.522498" lon="-49.294914" /><trkpt lat="-25.522394" lon="-49.294994" /><trkpt lat="-25.522318" lon="-49.295052" /><trkpt lat="-25.522218" lon="-49.295150" /><trkpt lat="-25.522053" lon="-49.295267" /><trkpt lat="-25.521983" lon="-49.295315" /><trkpt lat="-25.521944" lon="-49.295342" /><trkpt lat="-25.521877" lon="-49.295372" /><trkpt lat="-25.521793" lon="-49.295410" /><trkpt lat="-25.521748" lon="-49.295430" /><trkpt lat="-25.521651" lon="-49.295438" /><trkpt lat="-25.521504" lon="-49.295452" /><trkpt lat="-25.521415" lon="-49.295452" /><trkpt lat="-25.521217" lon="-49.295452" /><trkpt lat="-25.520920" lon="-49.295459" /><trkpt lat="-25.520724" lon="-49.295464" /><trkpt lat="-25.520534" lon="-49.295469" /><trkpt lat="-25.520329" lon="-49.295476" /><trkpt lat="-25.519954" lon="-49.295488" /><trkpt lat="-25.519462" lon="-49.295505" /><trkpt lat="-25.518963" lon="-49.295522" /><trkpt lat="-25.518579" lon="-49.295535" /><trkpt lat="-25.518308" lon="-49.295547" /><trkpt lat="-25.517986" lon="-49.295561" /><trkpt lat="-25.517721" lon="-49.295572" /><trkpt lat="-25.517478" lon="-49.295576" /><trkpt lat="-25.517271" lon="-49.295577" /><trkpt lat="-25.517123" lon="-49.295567" /><trkpt lat="-25.516969" lon="-49.295556" /><trkpt lat="-25.516841" lon="-49.295547" /><trkpt lat="-25.516665" lon="-49.295550" /><trkpt lat="-25.516499" lon="-49.295552" /><trkpt lat="-25.516325" lon="-49.295554" /><trkpt lat="-25.516142" lon="-49.295560" /><trkpt lat="-25.515977" lon="-49.295563" /><trkpt lat="-25.515739" lon="-49.295560" /><trkpt lat="-25.515592" lon="-49.295550" /><trkpt lat="-25.515503" lon="-49.295538" /><trkpt lat="-25.515373" lon="-49.295508" /><trkpt lat="-25.515280" lon="-49.295476" /><trkpt lat="-25.515208" lon="-49.295440" /><trkpt lat="-25.515169" lon="-49.295422" /><trkpt lat="-25.515088" lon="-49.295382" /><trkpt lat="-25.515087" lon="-49.295332" /><trkpt lat="-25.515127" lon="-49.295280" /><trkpt lat="-25.515136" lon="-49.295242" /><trkpt lat="-25.515139" lon="-49.295190" /><trkpt lat="-25.515134" lon="-49.295011" /><trkpt lat="-25.515128" lon="-49.294650" /><trkpt lat="-25.515122" lon="-49.294383" /><trkpt lat="-25.515120" lon="-49.294137" /><trkpt lat="-25.515117" lon="-49.294009" /><trkpt lat="-25.515117" lon="-49.293862" /><trkpt lat="-25.515009" lon="-49.293890" /><trkpt lat="-25.514877" lon="-49.293933" /><trkpt lat="-25.514593" lon="-49.294039" /><trkpt lat="-25.514324" lon="-49.294138" /><trkpt lat="-25.514236" lon="-49.294170" /><trkpt lat="-25.514049" lon="-49.294230" /><trkpt lat="-25.513881" lon="-49.294265" /><trkpt lat="-25.513601" lon="-49.294312" /><trkpt lat="-25.513359" lon="-49.294314" /><trkpt lat="-25.512817" lon="-49.294324" /><trkpt lat="-25.512547" lon="-49.294327" /><trkpt lat="-25.512128" lon="-49.294324" /><trkpt lat="-25.511741" lon="-49.294322" /><trkpt lat="-25.511748" lon="-49.294478" /><trkpt lat="-25.511746" lon="-49.294796" /><trkpt lat="-25.511744" lon="-49.294984" /><trkpt lat="-25.511749" lon="-49.295294" /><trkpt lat="-25.512431" lon="-49.295270" /><trkpt lat="-25.513096" lon="-49.295245" /></trkseg></trk><wpt lat="-25.585126" lon="-49.340285"><name>1 - 170532 - 679 - MAD. Tatuquara (Sentido Tatuquara)/n684-Rio Bonito (Ponto Final).</name><desc>ID: 273943; Tipo: OBRIGATÓRIO; Distância: 0,000 km</desc></wpt><wpt lat="-25.588450" lon="-49.341190"><name>2 - 170533 - 679 - Mad. Tatuquara (Sentido Tatuquara)/n684 - Rio Bonito (Sentido Terminal  Pinheirinho)</name><desc>ID: 273944; Tipo: INTERMEDIÁRIO; Distância: 0,375 km</desc></wpt><wpt lat="-25.592110" lon="-49.342120"><name>3 - 170534 - 679 - MAD. Tatuquara (Sentido Tatuquara)/n684 - Rio Bonito (Sentido Terminal  Pinheirinho)</name><desc>ID: 273945; Tipo: INTERMEDIÁRIO; Distância: 0,788 km</desc></wpt><wpt lat="-25.593090" lon="-49.339670"><name>4 - 170535 - 684 - Rio Bonito (Sentido Terminal  Pinheirinho)</name><desc>ID: 273946; Tipo: INTERMEDIÁRIO; Distância: 1,074 km</desc></wpt><wpt lat="-25.593616" lon="-49.336631"><name>5 - 170536 - 684 - Rio Bonito (Sentido Terminal  Pinheirinho)</name><desc>ID: 273947; Tipo: INTERMEDIÁRIO; Distância: 1,379 km</desc></wpt><wpt lat="-25.593450" lon="-49.333880"><name>6 - 170537 - 684 - Rio Bonito (Sentido Terminal  Pinheirinho)</name><desc>ID: 273948; Tipo: INTERMEDIÁRIO; Distância: 1,640 km</desc></wpt><wpt lat="-25.592580" lon="-49.332110"><name>7 - 170538 - 684 - Rio Bonito (Sentido Terminal  Pinheirinho)</name><desc>ID: 273949; Tipo: INTERMEDIÁRIO; Distância: 1,875 km</desc></wpt><wpt lat="-25.590584" lon="-49.331596"><name>8 - 170539 - 684 - Rio Bonito (Sentido Terminal  Pinheirinho)</name><desc>ID: 273950; Tipo: INTERMEDIÁRIO; Distância: 2,194 km</desc></wpt><wpt lat="-25.588849" lon="-49.332242"><name>9 - 170540 - 684 - Rio Bonito (Sentido Terminal  Pinheirinho)</name><desc>ID: 273951; Tipo: INTERMEDIÁRIO; Distância: 2,324 km</desc></wpt><wpt lat="-25.588421" lon="-49.334271"><name>10 - 170541 - 684 - Rio Bonito (Sentido Terminal  Pinheirinho)</name><desc>ID: 273952; Tipo: INTERMEDIÁRIO; Distância: 2,630 km</desc></wpt><wpt lat="-25.586030" lon="-49.334810"><name>11 - 170542 - 684 - Rio Bonito (Sentido Terminal  Pinheirinho)</name><desc>ID: 273953; Tipo: INTERMEDIÁRIO; Distância: 2,995 km</desc></wpt><wpt lat="-25.585230" lon="-49.337210"><name>12 - 170543 - 684 - Rio Bonito (Sentido Terminal  Pinheirinho)</name><desc>ID: 273954; Tipo: INTERMEDIÁRIO; Distância: 3,274 km</desc></wpt><wpt lat="-25.582806" lon="-49.337222"><name>13 - 170529 - 684 - Rio Bonito (Sentido Terminal  Pinheirinho)/n685 - Rio Bonito / CIC</name><desc>ID: 273955; Tipo: INTERMEDIÁRIO; Distância: 3,583 km</desc></wpt><wpt lat="-25.580145" lon="-49.335190"><name>14 - 170527 - 685 - Rio Bonito / CIC (Sentido Terminal  CIC)/n684 - Rio Bonito (Sentido Terminal Pinheirinho)</name><desc>ID: 273956; Tipo: INTERMEDIÁRIO; Distância: 3,962 km</desc></wpt><wpt lat="-25.578259" lon="-49.333218"><name>15 - 170525 - 684 - Rio Bonito (Sentido Terminal Pinheirinho)/n685 - Rio Bonito / CIC (Sentido Terminal  CIC)</name><desc>ID: 273957; Tipo: INTERMEDIÁRIO; Distância: 4,243 km</desc></wpt><wpt lat="-25.575796" lon="-49.330904"><name>16 - 171068 - Terminal Tatuquara - /n684 - Rio Bonito (Sentido Terminal Pinheirinho)</name><desc>ID: 273958; Tipo: INTERMEDIÁRIO; Distância: 4,633 km</desc></wpt><wpt lat="-25.573142" lon="-49.327252"><name>17 - 170520 - 617 - Jardim Ludovica (Sentido Terminal Pinheirinho)/n684 - Rio Bonito (Sentido terminal Pinheirinho)</name><desc>ID: 273959; Tipo: INTERMEDIÁRIO; Distância: 5,150 km</desc></wpt><wpt lat="-25.570775" lon="-49.325104"><name>18 - 170519 - 617 - Jardim Ludovica (Sentido Terminal Pinheirinho)/n684 - Rio Bonito (Sentido Terminal Pinheirinho)</name><desc>ID: 273960; Tipo: INTERMEDIÁRIO; Distância: 5,468 km</desc></wpt><wpt lat="-25.569804" lon="-49.323362"><name>19 - 170518 - 617 - Jardim Ludovica (Sentido Terminal Pinheirinho)/n684 - Rio Bonito (Sentido Terminal Pinheirinho)</name><desc>ID: 273961; Tipo: INTERMEDIÁRIO; Distância: 5,678 km</desc></wpt><wpt lat="-25.568645" lon="-49.319413"><name>20 - 170516 - 617 - Jardim Ludovica (Sentido Terminal Pinheirinho)/n655 - Jd. da Ordem (sentido Terminal Pinheirinho)/n684 - Rio Bonito (Sentido Terminal Pinheirinho)</name><desc>ID: 273962; Tipo: INTERMEDIÁRIO; Distância: 6,101 km</desc></wpt><wpt lat="-25.566809" lon="-49.316865"><name>21 - 170711 - 617 - Jardim Ludovica (Sentido Terminal Pinheirinho)/n655 - Jd. da Ordem (sentido Terminal Pinheirinho)/n684 - Rio Bonito (Sentido Terminal Pinheirinho)</name><desc>ID: 273963; Tipo: INTERMEDIÁRIO; Distância: 6,447 km</desc></wpt><wpt lat="-25.569052" lon="-49.321620"><name>22 - 170514 - 617 - Jardim Ludovica</name><desc>ID: 273964; Tipo: INTERMEDIÁRIO; Distância: 6,469 km</desc></wpt><wpt lat="-25.566940" lon="-49.314660"><name>23 - 170512 - 617 - Jardim Ludovica (Sentido Terminal Pinheirinho)/n646 - Pompéia / Janaina (Sentido Terminal Pinheirinho)/n655 - Jd. da Ordem (sentido Terminal Pinheirinho)/n659 - Caximba/Olaria (sentido Terminal Pinheirinho)/n679 - Madrugueiro Tatuquara (sentido circular)/n690 - V. Juliana (sentido Terminal Pinheirinho)/n680 - Rurbana (Sentido Terminal Pinheirinho)/n684 - Rio Bonito(Sentido Terminal Pinheirinho)/n772 - Tupy / Juliana(Sentido Terminal Pinheirinho)/nX47 - Especial Pinheirinho</name><desc>ID: 273965; Tipo: INTERMEDIÁRIO; Distância: 6,710 km</desc></wpt><wpt lat="-25.565340" lon="-49.314130"><name>24 - 171047 - 659 - Caximba / Olaria/n680 - Rurbana/n684 - Rio Bonito (Sentido Terminal Pinheirinho)/n772 - Tupy / Juliana (Sentido Terminal Pinheirinho)</name><desc>ID: 273966; Tipo: INTERMEDIÁRIO; Distância: 7,012 km</desc></wpt><wpt lat="-25.552425" lon="-49.304955"><name>25 - PRV[16049-1]</name><desc>ID: 273967; Tipo: INTERMEDIÁRIO; Distância: 9,023 km</desc></wpt><wpt lat="-25.550677" lon="-49.304471"><name>26 - 170490 - 600 - Tequaly / Quartel General (Sentido Terminal Pinheirinho)/n617 - Jardim Ludovica (Sentido Terminal Pinheirinho)/n646 - Pompeia / Janaina (Sentido Terminal Pinheirinho)/n650 - Sta. Rita / Pinheirinho/n655 - Jd. da Ordem (sentido Terminal Pinheirinho)/n659 - Caximba/Olaria (sentido Terminal Pinheirinho)/n679 - Madrugueiro Tatuquara (sentido circular)/n680 - Rurbana (Sentido Terminal Pinheirinho)/n681 - Dalagassa (Sentido Terminal Pinheirinho)/n684 - Rio Bonito (Sentido Terminal Pinheirinho)/n6</name><desc>ID: 273968; Tipo: INTERMEDIÁRIO; Distância: 9,220 km</desc></wpt><wpt lat="-25.539911" lon="-49.301985"><name>27 - 160072 - 060 - Interbairros VI (Sentido Terminal Pinheirinho)/n545 - Trabalhador/n600 - Tequaly / Quartel General (Sentido Terminal Pinheirinho)/n614 Fazendinha / Puc/n617 - JD. Ludovica/n630- Vitoria Regia (sentido Terminal Pinheirinho)/n639 - Futurama/n646 - Pompeia / Janaina (Sentido Terminal Pinheirinho)/n650 - Sta Rita / Pinheirinho/n655 - Jardim da Ordem (Sentido Terminal Pinheirinho)/n659 - Caximba/Olaria (sentido Terminal Pinheirinho)/n679 - Madrugueiro Tatuquara (Sentido Circular)/n680 - Rurbana (S</name><desc>ID: 273969; Tipo: INTERMEDIÁRIO; Distância: 10,431 km</desc></wpt><wpt lat="-25.536584" lon="-49.301261"><name>28 - 160073 - 540 - Boqueirão/Kraft - (Sentido Terminal Boqueirão)/n545 - Trabalhador (Sentido Terminal Boqueirão)/n600 - Tequaly / Quartel General (Sentido Terminal Pinheirinho)/n617 - JD. Ludovica/n630 - Vitória Régia (Sentido Terminal Pinheirinho)/n646 - Pompéia / Janaina (Sentido Terminal Pinheirinho)/n650 - Sta. Rita / Pinheirinho (Sentido Terminal  Pinheirinho)/n655 - Jd. da Ordem (sentido Terminal Pinheirinho)/n659 - Caximba/Olaria (Sentido Terminal Pinheirinho)/n679 - Madrugueiro Tatuquara (sentido ci</name><desc>ID: 273970; Tipo: INTERMEDIÁRIO; Distância: 10,796 km</desc></wpt><wpt lat="-25.534129" lon="-49.300630"><name>29 - 160075 - 060 - Interbairros VI (Sentido Terminal Pinheirinho)/n540 - Boqueirão/Kraft - (Sentido Terminal Boqueirão)/n545 - Trabalhador (Sentido Terminal Boqueirão)/n600 - Tequaly / Quartel General (Sentido Terminal Pinheirinho)/n614 - Fazendinha / Puc/n617 - JD. Ludovica/n630 - Vitória Régia (Sentido Terminal Pinheirinho)/n639 - Futurama/n646 - Pompeia / Janaina (Sentido Terminal Pinheirinho)/n650 - Sta. Rita / Pinheirinho (Sentido Terminal  Pinheirinho)/n655 - Jd. da Ordem (Sentido Terminal Pinheirinho)/n</name><desc>ID: 273971; Tipo: INTERMEDIÁRIO; Distância: 11,063 km</desc></wpt><wpt lat="-25.528878" lon="-49.298525"><name>30 - 160076 - 060 - Interbairros VI (Sentido Terminal Pinheirinho)/n600 - Tequaly / Quartel General (Sentido Terminal Pinheirinho)/n614 - Fazendinha / Puc/n617 - JD. Ludovica/n630 - Vitória Régia (Sentido Terminal Pinheirinho)/n639 - Futurama/n644 - Pinheirinho / CIC (Sentido Terminal Pinheirinho)/n646 - Pompéia / Janaina (Sentido Terminal Pinheirinho)/n650 - Sta. Rita / Pinheirinho (Sentido Terminal Pinheirinho)/n655 - Jd. da Ordem (Sentido Terminal Pinheirinho)/n659 - Caximba/Olaria (sentido Terminal Pinheir</name><desc>ID: 273972; Tipo: INTERMEDIÁRIO; Distância: 11,719 km</desc></wpt><wpt lat="-25.525703" lon="-49.296756"><name>31 - 160077 - 060-Interbairros VI (Sentido Pinheirinho)/n614 - Fazendinha / Puc/n617 - Jardim Ludovica (Sentido Terminal Pinheirinho)/n639 - Futurama/n646 - Pompéia / Janaina (Sentido Terminal Pinheirinho)/n650 - Sta. Rita / Pinheirinho/n655 - Jd. da Ordem (Sentido Terminal Pinheirinho)/n659 - Caximba/Olaria (sentido Terminal Pinheirinho)/n679 - Madrugueiro Tatuquara (Sentido circular)/n680 - Rurbana (Sentido Terminal Pinheirinho)/n681 - Dalagassa (Sentido Terminal Pinheirinho)/n684 - Rio Bonito (Sentido Termin</name><desc>ID: 273973; Tipo: INTERMEDIÁRIO; Distância: 12,071 km</desc></wpt><wpt lat="-25.521965" lon="-49.294471"><name>32 - 150334 - 060-Interbairros VI (Sentido Terminal Pinheirinho)/n614 - Fazendinha / Puc/n617 - JD. Ludovica (Sentido Terminal Pinheirinho)/n639 - Futurama/n 655 - JD. Da Ordem (Sentido Terminal Pinheirinho)/n 659 - Caximba / Olaria/n 679 - Mad. Tatuquara (Sentido Circular)/n 681 - Dalagassa (Sentido Terminal Pinheirinho)/n 684 - Rio Bonito (Sentido Terminal Pinheirinho)/n 690 - V. Juliana (Sentido Terminal Pinheirinho)/n 772 - Tupy / Juliana (Sentido Terminal Pinheirinho)</name><desc>ID: 273974; Tipo: INTERMEDIÁRIO; Distância: 12,522 km</desc></wpt><wpt lat="-25.521545" lon="-49.292573"><name>33 - 150270 - 060 - Interbairros VI (Sentido Terminal Pinheirinho)/n 614 - Fazendinha / PUC/n 617 - JD. Ludovica/n 639 - Futurama (Sentido Terminal Pinheirinho)/n 646 - Pompeia/Janaina (Sentido Terminal Pinheirinho)/n 650 - Sta. Rita / Pinheirinho/n 655 - JD. Da Ordem (Sentido Terminal Pinheirinho)/n 659 - Caximba / Olaria (Sentido Terminal Pinheirinho)/n 679 - Mad. Tatuquara (Sentido Circular)/n 680 - Rurbana/n 681 - Dalagassa (Sentido Terminal Pinheirinho)/n 684 - Rio Bonito (Sentido Terminal Pinheirinho)/n 69</name><desc>ID: 273975; Tipo: INTERMEDIÁRIO; Distância: 12,796 km</desc></wpt><wpt lat="-25.522964" lon="-49.292860"><name>34 - 150271 - 060 - Interbairros VI (Sentido Terminal Pinheirinho)/n614 - Fazendinha / Puc/n617 - JD. Ludovica/n631 - Piratini / BR 476 (Sentido Terminal Pinheirinho)/n639 - Futurama/n646 - Pompéia / Janaina (Sentido Terminal Pinheirinho)/n650 - Sta. Rita / Pinheirinho/n655 - JD. Da Ordem/n659 - Caximba/Olaria (sentido Terminal Pinheirinho)/n679 - Madrugueiro Tatuquara (Sentido circular)/n680 - Rurbana (Sentido Terminal Pinheirinho)/n681 - Dalagassa (Sentido Terminal Pinheirinho)/n684 - Rio Bonito (Sentido Termi</name><desc>ID: 273976; Tipo: INTERMEDIÁRIO; Distância: 13,010 km</desc></wpt><wpt lat="-25.520731" lon="-49.295383"><name>35 - 150751 - 528 - Boqueirão / Pinheirinho (Sentido Terminal Pinheirinho)/n600 - Tequaly / Quartel General (Sentido Terminal Pinheirinho)/n630 - Vitória Régia (Sentido Terminal Pinheirinho)/n633 - Maria Angélica (sentido Terminal Pinheirinho)/n635 - Londrina (sentido Terminal Pinheirinho)/n637- Sta Joana (Sentido Terminal Pinheirinho)/n638 - Pinheirinho (sentido Terminal Pinheirinho)/n639 - Futurama (sentido Terminal Pinheirinho)/n640 - Palmeira (sentido Terminal Pinheirinho)/n641 - Luiz Nichele (sentido Ter</name><desc>ID: 273977; Tipo: INTERMEDIÁRIO; Distância: 13,530 km</desc></wpt><wpt lat="-25.519229" lon="-49.295454"><name>36 - 150330 - 528 - Boqueirão / Pinheirinho/n600 - Tequaly / Quartel General (Sentido Terminal Pinheirinho)/n617 - JD. Ludovica/n630 - Vitória Régia (Sentido Terminal Pinheirinho)/n631 - Piratini / BR 476 (sentido Terminal Pinheirinho)/n633 - Maria Angélica (sentido Terminal Pinheirinho)/n635 - Londrina (sentido Terminal Pinheirinho)/n636 - Rio Negro/n637- Sta Joana (Sentido Terminal Pinheirinho)/n638 - Pinheirinho (sentido Terminal Pinheirinho)/n639 - Futurama (sentido Terminal Pinheirinho)/n640 - Palmeira (se</name><desc>ID: 273978; Tipo: INTERMEDIÁRIO; Distância: 13,668 km</desc></wpt><wpt lat="-25.515159" lon="-49.294443"><name>37 - 150332 - 528 - Boqueirão / Pinheirinho (Sentido Terminal Pinheierinho)/n600 - Tequaly / Quartel General (Sentido Terminal Pinheirinho)/n617 - JD. Ludovica/n630 - Vitória Régia (Sentido Terminal Pinheirinho)/n633 - Maria Angélica (sentido Terminal Pinheirinho)/n635 - Londrina/n636 - Rio Negro  (sentido Terminal Pinheirinho)/n637 - Sta. Joana  (sentido Terminal Pinheirinho)/n638 - Pinheirinho (Sentido Terminal Pinheirinho)/n639 - Futurama/n640 - Palmeira /n641 - Luiz Nichele/n642 - Ganchinho/n643 - Umbará/n646 </name><desc>ID: 273979; Tipo: INTERMEDIÁRIO; Distância: 14,244 km</desc></wpt><wpt lat="-25.513097" lon="-49.295298"><name>38 - 105924 - Terminal Pinheirinho /n684 -  Rio  Bonito.</name><desc>ID: 273980; Tipo: OBRIGATÓRIO; Distância: 14,914 km</desc></wpt></gpx>